name,address_1,address_2,city,state,zip,phone,latitude,longitude,category,website,active,daycode1,day1_open,day1_close,daycode2,day2_open,day2_close,daycode3,day3_open,day3_close,daycode4,day4_open,day4_close,daycode5,day5_open,day5_close,daycode6,day6_open,day6_open,daycode7,day7_open,day7_close,year_round (y/n),season_open,season_close
Jardin Del Rio,2363 N. Riverdale Avenue,,Los Angeles,CA,,,34.09124006000,-118.23460919000,,,,,,,,,,,,,,,,,,,,,,,,,,
Long Beach Grows Unity Farm,5450 Atherton Street,,Long Beach,CA,90815,,33.78817769000,-118.12686776000,,,,,,,,,,,,,,,,,,,,,,,,,,
F And A Nursery,7399 Crider Avenue,,Pico Rivera,CA,,,33.98383095000,-118.11027271000,,,,,,,,,,,,,,,,,,,,,,,,,,
Santa Fe Springs Community Garden,10145 Pioneer Boulevard,,Santa Fe Springs,CA,,,33.94403714000,-118.08158172000,,,,,,,,,,,,,,,,,,,,,,,,,,
Four Seasons Wholesale Nursery,Plummer Street,,Northridge,CA,,,34.24275206000,-118.54728006000,,,,,,,,,,,,,,,,,,,,,,,,,,
El Castillo Nursery,555 West 146th Street,,Gardena,CA,,,33.89963956000,-118.28457629000,,,,,,,,,,,,,,,,,,,,,,,,,,
Fantasy Nursery,16526 Circle Hill Lane,,Hacienda Heights,CA,,,33.98563293000,-117.94976779000,,,,,,,,,,,,,,,,,,,,,,,,,,
Four Seasons Ornamental,243 Euclid St.,,Santa Monica,CA,,,34.03709361000,-118.50272007000,,,,,,,,,,,,,,,,,,,,,,,,,,
Emerson Avenue Community Garden,6550 West 80th Street,,Los Angeles,CA,,,33.96932326000,-118.40424525000,,,,,,,,,,,,,,,,,,,,,,,,,,
"Grand View Geranium Gardens, Incorporated",18307 South Central Avenue,,Compton,CA,,,33.88189800000,-118.24881716000,,,,,,,,,,,,,,,,,,,,,,,,,,
We Garden,1010 Abbot Kinney Blvd,,Venice,CA,,,33.99211615000,-118.47218907000,,,,,,,,,,,,,,,,,,,,,,,,,,
Junior'S Nursery,18836 Satrcoy St,,Reseda,CA,,,34.20087433000,-118.54044183000,,,,,,,,,,,,,,,,,,,,,,,,,,
Santa Monica- Park Drive Community Garden,1400 Park Drive,,Santa Monica,CA,,,34.03189801000,-118.47590786000,,,,,,,,,,,,,,,,,,,,,,,,,,
Jose J. Munoz Nursery,10750 Oxnard St.,,North Hollywood,CA,,,34.17940312000,-118.36498598000,,,,,,,,,,,,,,,,,,,,,,,,,,
L.A. Nursery,18820 Prairie Avenue,,Northridge,CA,,,34.23910234000,-118.54315852000,,,,,,,,,,,,,,,,,,,,,,,,,,
Florence-Firestone Community Garden,Northwest corner of E. 98th Street and Pace Avenue,,Los Angeles,CA,,,33.94942949000,-118.24622413000,,,,,,,,,,,,,,,,,,,,,,,,,,
Centenos Nursery And Landscaping,6850 Paramount Boulevard,,Long Beach,CA,,,33.87930587000,-118.15992579000,,,,,,,,,,,,,,,,,,,,,,,,,,
Howard Finn Community Garden,7747 Foothill Boulevard,,Tujunga,CA,,,34.25793175000,-118.30149880000,,,,,,,,,,,,,,,,,,,,,,,,,,
Backyard Grown Nursery,31094 San Martinez Road,,Castaic,CA,,,34.44924376000,-118.67784417000,,,,,,,,,,,,,,,,,,,,,,,,,,
Mikamo Nursery,1029 West 223rd Street,,Torrance,CA,,,33.82449803000,-118.29335881000,,,,,,,,,,,,,,,,,,,,,,,,,,
Thomas Edison Elementary,435 S. Pacific Avenue,,Glendale,CA,,,34.14055548000,-118.26444234000,,,,,,,,,,,,,,,,,,,,,,,,,,
Reedley St. Farms,13531 Reedley St.,,Panorama City,CA,,,34.22701551000,-118.44560849000,,,,,,,,,,,,,,,,,,,,,,,,,,
William Anderson Elementary,4130 W. 154th Street,,Lawndale,CA,,,33.89098466000,-118.34696206000,,,,,,,,,,,,,,,,,,,,,,,,,,
"S.Y. Nursery, Incorporated",19900 South Pioneer Boulevard,,Cerritos,CA,,,33.84952087000,-118.08194243000,,,,,,,,,,,,,,,,,,,,,,,,,,
Gratts Early Education Center,1415 W. 5th Street,,Los Angeles,CA,,,34.05548652000,-118.26378181000,,,,,,,,,,,,,,,,,,,,,,,,,,
Somis Nursery Llc Dba Nakano Nursery,9647 Noble Ave,,North Hills,CA,,,34.24589076000,-118.46094315000,,,,,,,,,,,,,,,,,,,,,,,,,,
The Learning Centers At Fairplex - The Farm,1101 W. McKinley Avenue,,Pomona,CA,,,34.08105040000,-117.76671750000,,,,,,,,,,,,,,,,,,,,,,,,,,
"Toro Nursery, Incorporated",17620 Crenshaw Boulevard,,Torrance,CA,,,33.87042353000,-118.32644989000,,,,,,,,,,,,,,,,,,,,,,,,,,
"Vineland Growers Nursery, Inc.",6200 Vineland Avenue,,North Hollywood,CA,,,34.18314248000,-118.37028719000,,,,,,,,,,,,,,,,,,,,,,,,,,
Wild Wood Nursery,2692 N. Towne Ave,,Pomona,CA,,,34.09344069000,-117.73675639000,,,,,,,,,,,,,,,,,,,,,,,,,,
Augustus Hawkins High School,825 West 60th Street,,Los Angeles,CA,,,33.98552749000,-118.28804869000,,,,,,,,,,,,,,,,,,,,,,,,,,
Baldwin Park Usd Ece Center,3699 North Holly Ave,,Baldwin Park,CA,,,34.08302971000,-117.95977679000,,,,,,,,,,,,,,,,,,,,,,,,,,
Harvest Garden At Barnhart School,240 W Colorado Blvd.,,Arcadia,CA,,,34.14537547000,-118.04020407000,,,,,,,,,,,,,,,,,,,,,,,,,,
Aspire Inskeep Academy,123 w 59th st,,Los Angeles,CA,,,33.98695759000,-118.27475011000,,,,,,,,,,,,,,,,,,,,,,,,,,
Los Pinos Wholesale Nursery,7860 Whitsett Avenue,,North Hollywood,CA,,,34.21402184000,-118.40521411000,,,,,,,,,,,,,,,,,,,,,,,,,,
"A Plant Affair, Llc",1931 Blake Avenue,,Los Angeles,CA,,,34.09924732000,-118.24374726000,,,,,,,,,,,,,,,,,,,,,,,,,,
"Boething Treeland Farms, Incorporated",23475 Long Valley Road,,Calabasas,CA,,,34.15909679000,-118.63920950000,,,,,,,,,,,,,,,,,,,,,,,,,,
Elysian Heights Es,1562 BAXTER ST,,Los Angeles,CA,,,34.08883456000,-118.24882078000,,,,,,,,,,,,,,,,,,,,,,,,,,
Jack London Day,12924 Oxnard Street┬á,,North Hollywood,CA,,,34.17938773000,-118.41430737000,,,,,,,,,,,,,,,,,,,,,,,,,,
Loyola Marymount University,1 Loyola Marymount University Drive,,Los Angeles,CA,,,33.95498069000,-118.39823633000,,,,,,,,,,,,,,,,,,,,,,,,,,
Amestoy,1048 W. 149th St.,,Gardena,CA,,,33.89642346000,-118.29268980000,,,,,,,,,,,,,,,,,,,,,,,,,,
Micheltorena Street Elementary,1511 Micheltorena Street,,Los Angeles,CA,,,34.08906766000,-118.27493542000,,,,,,,,,,,,,,,,,,,,,,,,,,
Park Western,1214 Park Western Place,,San Pedro,CA,,,33.75328707000,-118.30459093000,,,,,,,,,,,,,,,,,,,,,,,,,,
Pueblo De Los Angeles Continuation,2506 ALTA ST,,Los Angeles,CA,,,34.07535671000,-118.20440566000,,,,,,,,,,,,,,,,,,,,,,,,,,
Glendale Unified School District,223 North Jackson Street,,Glendale,CA,,,34.14894898000,-118.25016560000,,,,,,,,,,,,,,,,,,,,,,,,,,
Montague Charter Academy,13000 Montague Street,,Pacoima,CA,,,34.24442016000,-118.41556457000,,,,,,,,,,,,,,,,,,,,,,,,,,
Norwood Street Elementary,2020 OAK ST,,Los Angeles,CA,,,34.03528858000,-118.27874972000,,,,,,,,,,,,,,,,,,,,,,,,,,
Granada Middle School,15337 Lemon Drive,,La Mirada,CA,,,33.92323776000,-118.00299868000,,,,,,,,,,,,,,,,,,,,,,,,,,
Whittier Elementary School,1761 Walnut Avenue,,Long Beach,CA,,,33.78913953000,-118.17205744000,,,,,,,,,,,,,,,,,,,,,,,,,,
Obama Global Prep Academy,1700 W. 46th Street,,Los Angeles,CA,,,34.00186036000,-118.30903595000,,,,,,,,,,,,,,,,,,,,,,,,,,
Glenfeliz Elementary School,3955 Glenfeliz Blvd,,Los Angeles,CA,,,34.12238872000,-118.26784440000,,,,,,,,,,,,,,,,,,,,,,,,,,
La Conte Middle School And Citizens Of The World Charter School,1316 North Bronson Ave.,,Los Angeles,CA,,,34.09481018000,-118.31794662000,,,,,,,,,,,,,,,,,,,,,,,,,,
Cheremoya Elementary School,6017 Franklin Avenue,,Los Angeles,CA,,,34.10526839000,-118.32101894000,,,,,,,,,,,,,,,,,,,,,,,,,,
Brian Enterprises,34810 Largo Vista Rd.,,Llano,CA,,,34.51425066000,-117.76523588000,,,,,,,,,,,,,,,,,,,,,,,,,,
Worldwide Exotics Inc,11157 Orcas Ave,,Sylmar,CA,,,34.27189137000,-118.36859166000,,,,,,,,,,,,,,,,,,,,,,,,,,
Sweet Peach Farm,13502 Lubican St.,,Baldwin Park,CA,,,34.08474358000,-117.97923941000,,,,,,,,,,,,,,,,,,,,,,,,,,
Healthy Greens Co,817 E. Clemmer Dr.,,Compton,CA,,,33.87938821000,-118.21292974000,,,,,,,,,,,,,,,,,,,,,,,,,,
Marengo School Garden,1400 Marengo Avenue,,,CA,,,0.00000000000,0.00000000000,,,,,,,,,,,,,,,,,,,,,,,,,,
Monterey Road Eco-Community Garden - West,827 Monterey Road,,Glendale,CA,,,34.15765932000,-118.24566801000,,,,,,,,,,,,,,,,,,,,,,,,,,
Arleta Community Garden,8800 Canterbury Avenue,,Pacoima,CA,,,34.22961903000,-118.42451218000,,,,,,,,,,,,,,,,,,,,,,,,,,
South Pasadena Community Garden,1028 Magnolia Street,,South Pasadena,CA,,,34.11783121000,-118.15617173000,,,,,,,,,,,,,,,,,,,,,,,,,,
Salesian Boys & Girls Club Community Garden,2228  E. 4th St.,,Los Angeles,CA,,,34.04127550000,-118.21333068000,,,,,,,,,,,,,,,,,,,,,,,,,,
Verdugo Park Community Garden,1621 Canada Boulevard,,Glendale,CA,,,34.17010306000,-118.22917974000,,,,,,,,,,,,,,,,,,,,,,,,,,
Yamazaki Memorial Community Garden,961 S. Mariposa Avenue,,Los Angeles,CA,,,34.05387011000,-118.29899293000,,,,,,,,,,,,,,,,,,,,,,,,,,
"Ironwood Unlimited, Inc. Dba El Nativo Growers",200 S. Peckham Road,,Azusa,CA,,,34.12061767000,-117.93748390000,,,,,,,,,,,,,,,,,,,,,,,,,,
"Jiamei Garden U.S.A., Incorporated",2304 Lee Avenue,,South El Monte,CA,,,34.05452940000,-118.06725058000,,,,,,,,,,,,,,,,,,,,,,,,,,
"Lincoln Avenue Nursery, Incorporated",804 Lincoln Avenue,,Pasadena,CA,,,34.15833725000,-118.15684962000,,,,,,,,,,,,,,,,,,,,,,,,,,
"Armstrong Garden Centers, Incorporated",3226 Wilshire Boulevard,,Santa Monica,CA,,,34.04103773000,-118.47118108000,,,,,,,,,,,,,,,,,,,,,,,,,,
Peachland Elementary,24800 Peachland Avenue,,Newhall,CA,,,34.37478226000,-118.54603343000,,,,,,,,,,,,,,,,,,,,,,,,,,
Saint Maria Gorreti Catholic School,3950 Palo Verde Ave,,Long Beach,CA,,,33.82876034000,-118.10776600000,,,,,,,,,,,,,,,,,,,,,,,,,,
Sequoyah Elementary,535 S Pasadena Avenue,,Pasadena,CA,,,34.13679242000,-118.15415258000,,,,,,,,,,,,,,,,,,,,,,,,,,
Sch Valmont Elementary,3801 Via La Selva,,Palos Verdes Peninsula,CA,,,33.80125405000,-118.36527966000,,,,,,,,,,,,,,,,,,,,,,,,,,
Wilkerson Elementary,2700 N. Doreen Ave,,South El Monte,CA,,,34.06104450000,-118.04473348000,,,,,,,,,,,,,,,,,,,,,,,,,,
Altadena Community Garden,3330 N. Lincoln Avenue,,Altadena,CA,,,34.20303348000,-118.15917972000,,,,,,,,,,,,,,,,,,,,,,,,,,
Bougainvillea Community Garden,E. 103rd Street & Grape Street,,Los Angeles,CA,,,33.94313413000,-118.23695798000,,,,,,,,,,,,,,,,,,,,,,,,,,
"Long Beach Organic, Inc. - Wrigley Village Garden",2044 Pacific Avenue,,Long Beach,CA,,,33.79431105000,-118.19364621000,,,,,,,,,,,,,,,,,,,,,,,,,,
Cheremoya Ave Elementary,6017 Franklin Avenue,,Los Angeles,CA,,,34.10526839000,-118.32101894000,,,,,,,,,,,,,,,,,,,,,,,,,,
Carson-Gore Academy Of Environmental Studies School,3200 W. Washington Blvd.,,Los Angeles,CA,,,34.03986289000,-118.31914944000,,,,,,,,,,,,,,,,,,,,,,,,,,
Clifford Street Elementary School,2150 Duane St.,,Los Angeles,CA,,,34.08939517000,-118.25793048000,,,,,,,,,,,,,,,,,,,,,,,,,,
Valley View Elementary School,6921 Woodrow Wilson Drive,,Los Angeles,CA,,,34.12479669000,-118.34465103000,,,,,,,,,,,,,,,,,,,,,,,,,,
The Accelerated School,116 E. Martin Luther King Jr. Blvd.,,Los Angeles,CA,,,34.01112349000,-118.27313936000,,,,,,,,,,,,,,,,,,,,,,,,,,
Manzanita School,1717 Old Topanga Canyon,,Topanga,CA,,,34.11160110000,-118.63379914000,,,,,,,,,,,,,,,,,,,,,,,,,,
Westport Heights,6011 W. 79th St.,,Los Angeles,CA,,,33.96634769000,-118.38879744000,,,,,,,,,,,,,,,,,,,,,,,,,,
Los Altos Elementary,15565 Los Altos Drive,,Hacienda Heights,CA,,,33.98823993000,-117.97809214000,,,,,,,,,,,,,,,,,,,,,,,,,,
Magnolia Place Childrens Bureau,1910 Magnolia Ave,,Los Angeles,CA,,,34.03963095000,-118.28639599000,,,,,,,,,,,,,,,,,,,,,,,,,,
Yamaguchi Bonsai Nursery,1905 Sawtelle Boulevard,,Los Angeles,CA,,,34.04236654000,-118.44489563000,,,,,,,,,,,,,,,,,,,,,,,,,,
Abalone Cove Farm,5521 Palos Verde Dr. S.,,Rancho Palos Verdes,CA,,,33.74184399000,-118.37430303000,,,,,,,,,,,,,,,,,,,,,,,,,,
JF Organic Farm,210 N. 9th Ave.,,Hacienda Heights,CA,,,34.01400246000,-117.98139146000,,,,,,,,,,,,,,,,,,,,,,,,,,
Kwa Luk Gardens,2020 Buenos Aires Dr.,,Covina,CA,,,34.05592164000,-117.85664029000,,,,,,,,,,,,,,,,,,,,,,,,,,
Precision Agritechnologies,12838 Weber Way,,Hawthorne,CA,,,33.91607906000,-118.33152345000,,,,,,,,,,,,,,,,,,,,,,,,,,
John S. Gibson Senior Garden,1500 S. Harbor Boulevard,,San Pedro,CA,,,33.73079468000,-118.27995750000,,,,,,,,,,,,,,,,,,,,,,,,,,
"Armstrong Garden Centers, Incorporated",735 East Foothill Boulevard,,Claremont,CA,,,34.10691761000,-117.70075580000,,,,,,,,,,,,,,,,,,,,,,,,,,
Mulhall Elementary School,10900 Mulhall Street,,El Monte,CA,,,34.08930724000,-118.02914834000,,,,,,,,,,,,,,,,,,,,,,,,,,
Sempervirens Botanical Company,18715 S. Western Avenue,,Torrance,CA,,,33.86064819000,-118.30920026000,,,,,,,,,,,,,,,,,,,,,,,,,,
Vine Street Elementary School,955 North VIne Street,,Los Angeles,CA,,,34.08819276000,-118.32664832000,,,,,,,,,,,,,,,,,,,,,,,,,,
32Nd Street Usc Performing Arts,822 W 32ND ST,,Los Angeles,CA,,,34.02491509000,-118.28219079000,,,,,,,,,,,,,,,,,,,,,,,,,,
"Harris, Dale E Or Cary Harris",5181 Mountain Springs Ranch Rd,,La Verne,CA,,,34.14509656000,-117.77219870000,,,,,,,,,,,,,,,,,,,,,,,,,,
Good Earth Community Garden,Corner of Clyde Avenue and Boden Street - Across from 5571 Boden,,Los Angeles,CA,,,34.02711268000,-118.36620703000,,,,,,,,,,,,,,,,,,,,,,,,,,
Fremont Wellness Center & Community Garden,7821 S. Avalon Blvd.,,Los Angeles,CA,,,33.96816788000,-118.26519728000,,,,,,,,,,,,,,,,,,,,,,,,,,
"Long Beach Organic, Inc. - Grace Park Garden",325 E. Plymouth Street,,Long Beach,CA,,,33.85333950000,-118.18948804000,,,,,,,,,,,,,,,,,,,,,,,,,,
"Long Beach Organic, Inc. - South Forty Garden",2813 South Street,,Long Beach,CA,,,33.86020797000,-118.15843324000,,,,,,,,,,,,,,,,,,,,,,,,,,
Parkman Gardens,20800 Burbank Boulevard,,Woodland Hills,CA,,,34.17194315000,-118.58674942000,,,,,,,,,,,,,,,,,,,,,,,,,,
Baldwin Park Community Garden,13067 Bess Avenue,,Baldwin Park,CA,,,34.06554513000,-117.98934330000,,,,,,,,,,,,,,,,,,,,,,,,,,
"M.B. Nursery And Landscaping, Incorporated",19202 Main Street,,Wilmington,CA,,,33.80287672000,-118.27553549000,,,,,,,,,,,,,,,,,,,,,,,,,,
Medall Orchids,4302 Baldwin Park Boulevard,,Baldwin Park,CA,,,34.09061197000,-117.96486621000,,,,,,,,,,,,,,,,,,,,,,,,,,
Theodore Payne Foundation,10459 Tuxford Street,,Sun Valley,CA,,,34.23553861000,-118.35955920000,,,,,,,,,,,,,,,,,,,,,,,,,,
Royal Oaks Elementary,2499 Royal Oaks Drive,,Duarte,CA,,,34.14342747000,-117.95092439000,,,,,,,,,,,,,,,,,,,,,,,,,,
Rowland Avenue Elementary School,1355 East Rowland Avenue,,West Covina,CA,,,34.07923845000,-117.91796296000,,,,,,,,,,,,,,,,,,,,,,,,,,
Academic Leadership Center At Miguel Contreras School,322 S. Lucas Ave.,,Los Angeles,CA,,,34.05807560000,-118.26172059000,,,,,,,,,,,,,,,,,,,,,,,,,,
Carpenter Community Charter,3909 Carpenter Avenue,,Studio City,CA,,,34.14095546000,-118.39203759000,,,,,,,,,,,,,,,,,,,,,,,,,,
Los Feliz Science/Tech/Engineer/Math/Medicine Magnet,1740 N NEW HAMPSHIRE AVE,,Los Angeles,CA,,,34.10259119000,-118.29330636000,,,,,,,,,,,,,,,,,,,,,,,,,,
El Nido Family Ctr Head Start,2152 W. Manchester Ave.,,Los Angeles,CA,,,33.95994315000,-118.31741981000,,,,,,,,,,,,,,,,,,,,,,,,,,
Mitchell Comm Elementary,16821 W. Goodvale Street,,Canyon Country,CA,,,34.42932126000,-118.46527400000,,,,,,,,,,,,,,,,,,,,,,,,,,
Mulholland,17120 Vanowen St.,,Santa Clarita,CA,,,34.19385261000,-118.50691944000,,,,,,,,,,,,,,,,,,,,,,,,,,
Meadowlark Elementary School,3015 sacramento Ave,,Acton,CA,,,34.47355563000,-118.18315992000,,,,,,,,,,,,,,,,,,,,,,,,,,
The Accelerated Schools-Aces 1,119 E. 37th Street,,Los Angeles,CA,,,34.01492774000,-118.27330952000,,,,,,,,,,,,,,,,,,,,,,,,,,
Caldera Bees,207 S. Vancouver Ave,,Los Angeles,CA,,,34.03509008000,-118.15684257000,,,,,,,,,,,,,,,,,,,,,,,,,,
Braeridge Farms,1331 Braeridge Dr.,,,CA,,,0.00000000000,0.00000000000,,,,,,,,,,,,,,,,,,,,,,,,,,
Rachel's Office,700 West Main Street,,,CA,,,0.00000000000,0.00000000000,,,,,,,,,,,,,,,,,,,,,,,,,,
Kit Carson Elementary School,3530 W 147th St.,,,CA,,,0.00000000000,0.00000000000,,,,,,,,,,,,,,,,,,,,,,,,,,
Jane Addams Middle School,4535 W. 153rd Pl.,,,CA,,,0.00000000000,0.00000000000,,,,,,,,,,,,,,,,,,,,,,,,,,
William Green Elementary School,4520 W 168th St,,,CA,,,0.00000000000,0.00000000000,,,,,,,,,,,,,,,,,,,,,,,,,,
Lucille Smith Elementary School,4521 W 147th St.,,,CA,,,0.00000000000,0.00000000000,,,,,,,,,,,,,,,,,,,,,,,,,,
Rogers Middle School,4110 W 154th St.,,,CA,,,0.00000000000,0.00000000000,,,,,,,,,,,,,,,,,,,,,,,,,,
Seeds to Plate Program at Mark Twain Middle School,2224 Walgrove Avenue,,,CA,,,0.00000000000,0.00000000000,,,,,,,,,,,,,,,,,,,,,,,,,,
Janet Lai,2878 Roosevelt Street,,La Verne,CA,,,34.09584400000,-117.75677537000,,,,,,,,,,,,,,,,,,,,,,,,,,
Marquez Charter School,16821 Marquez Avenue,,,CA,,,0.00000000000,0.00000000000,,,,,,,,,,,,,,,,,,,,,,,,,,
Coeur d'Alene School Garden,810 Coeur d'Alene Avenue,,,CA,,,0.00000000000,0.00000000000,,,,,,,,,,,,,,,,,,,,,,,,,,
San Pascual STEAM Magnet,815 San Pascual Avenue,,,CA,,,0.00000000000,0.00000000000,,,,,,,,,,,,,,,,,,,,,,,,,,
Walgrove Elementary School,1630 Walgrove Ave.,,,CA,,,0.00000000000,0.00000000000,,,,,,,,,,,,,,,,,,,,,,,,,,
24Th Street Elementary,2055 W 24TH ST,,Los Angeles,CA,,,34.03474858000,-118.31012015000,,,,,,,,,,,,,,,,,,,,,,,,,,
Columbia Park Community Garden,4045 190th Street,,Torrance,CA,,,33.85831704000,-118.34458867000,,,,,,,,,,,,,,,,,,,,,,,,,,
"American Growers Plus, Incorporated",18830 Strathern Street,,Reseda,CA,,,34.21561430000,-118.54334694000,,,,,,,,,,,,,,,,,,,,,,,,,,
Central Park Community Garden,27150 Bouquet Canyon Road,,Santa Clarita,CA,,,34.42691139000,-118.53727913000,,,,,,,,,,,,,,,,,,,,,,,,,,
Amigos Nursery,1420 92th Street,,Los Angeles,CA,,,33.94942949000,-118.24622413000,,,,,,,,,,,,,,,,,,,,,,,,,,
Anelo Landscape Soln'S Inc Dba Rolling Hills Nurs.,7150 Jackson Street,,Paramount,CA,,,33.88546464000,-118.17394773000,,,,,,,,,,,,,,,,,,,,,,,,,,
City Of Santa Monica Euclid Park Community Garden,1525 Euclid Street,,Santa Monica,CA,,,34.02151293000,-118.48452047000,,,,,,,,,,,,,,,,,,,,,,,,,,
Annandale Garden Center,7720 N. Figueroa Street,,Pasadena,CA,,,34.14508496000,-118.18343427000,,,,,,,,,,,,,,,,,,,,,,,,,,
City Of Santa Monica Main Street Community Garden,2300 Main Street,,Santa Monica,CA,,,34.00479713000,-118.48658478000,,,,,,,,,,,,,,,,,,,,,,,,,,
"Anthony Tesselaar Usa, Incorporated",15200 Mansel Avenue,,Lawndale,CA,,,33.89343040000,-118.35583653000,,,,,,,,,,,,,,,,,,,,,,,,,,
City Of Santa Monica Park Drive Community Garden,1400 Park Drive,,Santa Monica,CA,,,34.03189801000,-118.47590786000,,,,,,,,,,,,,,,,,,,,,,,,,,
Arbor Nursery Plus,2865 Royal Oaks Drive,,Duarte,CA,,,34.14485859000,-117.94344431000,,,,,,,,,,,,,,,,,,,,,,,,,,
Crenshaw Community Garden,1423 S. Crenshaw Boulevard,,Los Angeles,CA,,,34.04616101000,-118.32764726000,,,,,,,,,,,,,,,,,,,,,,,,,,
Armando Orozco Nursery,12205 Saticoy Street,,North Hollywood,CA,,,34.20849865000,-118.39929608000,,,,,,,,,,,,,,,,,,,,,,,,,,
Armando Sedano,1825 Monica Court,,Rowland Heights,CA,,,33.98794362000,-117.91776287000,,,,,,,,,,,,,,,,,,,,,,,,,,
Center Street Garden,196 E. Center Street,,Pomona,CA,,,34.06146068000,-117.74824335000,,,,,,,,,,,,,,,,,,,,,,,,,,
Alta Greens,3796 Alzada Rd,,Altadena,CA,,,34.20698219000,-118.14638435000,,,,,,,,,,,,,,,,,,,,,,,,,,
Alvarez Gardens,10644 Tuxford Street,,Sun Valley,CA,,,34.23581367000,-118.36292988000,,,,,,,,,,,,,,,,,,,,,,,,,,
Cambodian Seniors Gardening Project,1851 Cerritos Avenue,,Long Beach,CA,,,33.79086111000,-118.17743265000,,,,,,,,,,,,,,,,,,,,,,,,,,
Alvarez Nursery,11362 Woodley Ave,,Granada Hills,CA,,,34.27703032000,-118.48465170000,,,,,,,,,,,,,,,,,,,,,,,,,,
Detroit Community Garden,1201 Detroit St.,,Los Angeles,CA,,,34.09261222000,-118.34522154000,,,,,,,,,,,,,,,,,,,,,,,,,,
Chuy'S Nursery,Orange and Taylor,,Monterey Park,CA,,,34.05173565000,-118.14615735000,,,,,,,,,,,,,,,,,,,,,,,,,,
Fountain Community Gardens,5620 Fountain Avenue,,Los Angeles,CA,,,34.09474231000,-118.31178217000,,,,,,,,,,,,,,,,,,,,,,,,,,
Chuy'S Nursery,9124 Gallatin Road,,Pico Rivera,CA,,,34.01646390000,-118.07640534000,,,,,,,,,,,,,,,,,,,,,,,,,,
Eagle Rockdale Community Garden,1003 Rockdale Avenue,,Los Angeles,CA,,,34.13392644000,-118.18878836000,,,,,,,,,,,,,,,,,,,,,,,,,,
Classic Landscaping And Nursery,9090 Laurel Canyon Boulevard,,Sun Valley,CA,,,34.23516764000,-118.40708248000,,,,,,,,,,,,,,,,,,,,,,,,,,
East Hollywood Garden Achievement Center,1171 Madison Avenue,,Los Angeles,CA,,,34.09268622000,-118.28931852000,,,,,,,,,,,,,,,,,,,,,,,,,,
Classic Landscaping And Nursery,18756 Erwin Street,,Reseda,CA,,,34.18384312000,-118.54230930000,,,,,,,,,,,,,,,,,,,,,,,,,,
East La Learning Garden/Mott St Urban Farm,1001-1021 S. Mott Street,,Los Angeles,CA,,,34.03103529000,-118.21437999000,,,,,,,,,,,,,,,,,,,,,,,,,,
Coiner Nursery,605 Freeway and Valley Boulevard,,La Puente,CA,,,34.03532037000,-117.95334048000,,,,,,,,,,,,,,,,,,,,,,,,,,
Colorama Wholesale Nursery,1025 North Todd Avenue,,Azusa,CA,,,34.14221073000,-117.92497278000,,,,,,,,,,,,,,,,,,,,,,,,,,
Colorama Wholesale Nursery,1203 Bonnie Cone,,Glendora,CA,,,34.14428578000,-117.85169175000,,,,,,,,,,,,,,,,,,,,,,,,,,
"Corey Nursery Company, Incorporated",1650 North Padua,,Claremont,CA,,,34.10788865000,-117.71887796000,,,,,,,,,,,,,,,,,,,,,,,,,,
Diamond Bar Community Garden,2335 S. Diamond Bar Boulevard,,Diamond Bar,CA,,,33.98257989000,-117.82991177000,,,,,,,,,,,,,,,,,,,,,,,,,,
Cerritos Growers,19805 Gridley Road,,Cerritos,CA,,,33.85029830000,-118.09082166000,,,,,,,,,,,,,,,,,,,,,,,,,,
Dan Mckenzie Community Garden,4324 160th Street,,Lawndale,CA,,,33.88544557000,-118.35109973000,,,,,,,,,,,,,,,,,,,,,,,,,,
Cerritos Growers,6855 Myrtle Ave.,,Long Beach,CA,,,33.87901403000,-118.18180042000,,,,,,,,,,,,,,,,,,,,,,,,,,
Culver City Community Garden,10860 Culver Boulevard,,Culver City,CA,,,34.01047329000,-118.40507794000,,,,,,,,,,,,,,,,,,,,,,,,,,
Ben K. Bonsai Nursery,2301 Kelburn Avenue,,Rosemead,CA,,,34.05466070000,-118.09465263000,,,,,,,,,,,,,,,,,,,,,,,,,,
Greater Watts Community Garden,660 E. 118th Place,,Los Angeles,CA,,,33.92554404000,-118.26339367000,,,,,,,,,,,,,,,,,,,,,,,,,,
Holy Nativity Community Garden,6700 West 83rd Street,,Los Angeles,CA,,,33.96343272000,-118.40652967000,,,,,,,,,,,,,,,,,,,,,,,,,,
Big Island Plant Company,1101 West McKinley Avenue,,Pomona,CA,,,34.08105040000,-117.76671750000,,,,,,,,,,,,,,,,,,,,,,,,,,
Growing Great Dreams,125 E. Martin Luther King Jr. Blvd,,Los Angeles,CA,,,34.01117718000,-118.27269606000,,,,,,,,,,,,,,,,,,,,,,,,,,
"Blue Hills Nursery, Incorporated",16440 East Whittier Boulevard,,Whittier,CA,,,33.93992311000,-117.97911120000,,,,,,,,,,,,,,,,,,,,,,,,,,
Hermosa Beach Community Garden,210 Valley Drive,,Hermosa Beach,CA,,,33.85570883000,-118.39461322000,,,,,,,,,,,,,,,,,,,,,,,,,,
"Corey Nursery Company, Incorporated",25308 East Baseline,,San Bernardino,CA,,,34.12133852000,-117.25240751000,,,,,,,,,,,,,,,,,,,,,,,,,,
Cstars Nursery,1400 West Greenleaf,,Compton,CA,,,33.89533372000,-118.20155567000,,,,,,,,,,,,,,,,,,,,,,,,,,
Hudson Community Garden,Adjacent to 2335 Webster Avenue,,Long Beach,CA,,,33.79994122000,-118.21983033000,,,,,,,,,,,,,,,,,,,,,,,,,,
"Boething Treeland Nursery Company, Incorporated",23475 Long Valley Road,,Calabasas,CA,,,34.15909679000,-118.63920950000,,,,,,,,,,,,,,,,,,,,,,,,,,
Bee Flat Ranch,Bee Flat Ranch Parcel #5864029001,,La Canada Flintridge,CA,,,34.21033725000,-118.19947928000,,,,,,,,,,,,,,,,,,,,,,,,,,
Cstars Nursery,17654 South Normandie Avenue,,Gardena,CA,,,33.87103314000,-118.29899333000,,,,,,,,,,,,,,,,,,,,,,,,,,
Bountiful Gardens,10150 Foothill Boulevard,,Sylmar,CA,,,34.27295298000,-118.35006254000,,,,,,,,,,,,,,,,,,,,,,,,,,
Geneva Gardens,626 Geneva Street,,Glendale,CA,,,34.15577366000,-118.24677594000,,,,,,,,,,,,,,,,,,,,,,,,,,
Glassell Park Community Garden,3304 Drew Street,,Los Angeles,CA,,,34.12011712000,-118.24280319000,,,,,,,,,,,,,,,,,,,,,,,,,,
Barranquillas Nursery,28920 Bouquet Canyon Road,,Santa Clarita,CA,,,34.42691139000,-118.53727913000,,,,,,,,,,,,,,,,,,,,,,,,,,
Granada Hills Salad Bowl Garden Club,16003 Rinaldi Street,,Granada Hills,CA,,,34.27917802000,-118.48080945000,,,,,,,,,,,,,,,,,,,,,,,,,,
"C And S Nursery, Incorporated",5501 Coliseum Street,,Los Angeles,CA,,,34.01839750000,-118.36636933000,,,,,,,,,,,,,,,,,,,,,,,,,,
C And Y Growers,11811 Strathern Street,,North Hollywood,CA,,,34.21575711000,-118.39035110000,,,,,,,,,,,,,,,,,,,,,,,,,,
Cal Poly Nursery,4102 South University Drive,,Pomona,CA,,,34.05026519000,-117.82060846000,,,,,,,,,,,,,,,,,,,,,,,,,,
Califarmer,2559 E. Monroe Street,,Long Beach,CA,,,33.83549821000,-118.22199982000,,,,,,,,,,,,,,,,,,,,,,,,,,
California Cactus Center,216 South Rosemead Boulevard,,Pasadena,CA,,,34.14254057000,-118.07323630000,,,,,,,,,,,,,,,,,,,,,,,,,,
California Nurseries,18924 Roscoe Blvd,,Northridge,CA,,,34.22057333000,-118.54581868000,,,,,,,,,,,,,,,,,,,,,,,,,,
"Campbell Landscapes, Inc.",740 Amelia Street,,Glendora,CA,,,34.12254756000,-117.82020838000,,,,,,,,,,,,,,,,,,,,,,,,,,
Captain Cactus,1535 Ohio Ave,,Long Beach,CA,,,33.78675149000,-118.16010253000,,,,,,,,,,,,,,,,,,,,,,,,,,
Carreon Nursery,7900 Lamersed,,Rosemead,CA,,,34.06497471000,-118.08197409000,,,,,,,,,,,,,,,,,,,,,,,,,,
El Rancho Growers Nursery,1801 S. Grandridge Ave,,Monterey Park,CA,,,34.04280004000,-118.13530198000,,,,,,,,,,,,,,,,,,,,,,,,,,
El Rancho Growers Nursery,1767 Isabella Street,,Monterey Park,CA,,,34.05173565000,-118.14615735000,,,,,,,,,,,,,,,,,,,,,,,,,,
Certified Plant Growers,10524 East Firestone Boulevard,,Norwalk,CA,,,33.92699884000,-118.10798005000,,,,,,,,,,,,,,,,,,,,,,,,,,
Chemical Consultants Intl Dba Foothills Cactus,11252 Ranetto Pl.,,Sylmar,CA,,,34.27432130000,-118.34629907000,,,,,,,,,,,,,,,,,,,,,,,,,,
Chikugo-En Bonsai Nursery,18110 South Western Avenue,,Torrance,CA,,,33.86621084000,-118.30909683000,,,,,,,,,,,,,,,,,,,,,,,,,,
F And A Nursery,8650 Artesia Boulevard,,Bellflower,CA,,,33.87466223000,-118.14765984000,,,,,,,,,,,,,,,,,,,,,,,,,,
La Madera Community Garden,3805 La Madera Avenue,,El Monte,CA,,,34.07365016000,-118.01734260000,,,,,,,,,,,,,,,,,,,,,,,,,,
"Brothers Nursery, Incorporated",302 East Foothill Blvd Suite 202,,Azusa,CA,,,34.13345385000,-117.90479911000,,,,,,,,,,,,,,,,,,,,,,,,,,
La Mirada Community Garden,13518 Biola Avenue,,La Mirada,CA,,,33.90925351000,-118.01949998000,,,,,,,,,,,,,,,,,,,,,,,,,,
"Burkard Nurseries, Incorporated",690 North Orange Grove Boulevard,,Pasadena,CA,,,34.15515616000,-118.15554301000,,,,,,,,,,,,,,,,,,,,,,,,,,
Fausto Garcia,5759 Allington Street,,Lakewood,CA,,,33.86557029000,-118.11965016000,,,,,,,,,,,,,,,,,,,,,,,,,,
Lennox Community Garden,SW corner of W. 112th Street and Inglewood Ave,,Inglewood,CA,,,33.93842297000,-118.35705090000,,,,,,,,,,,,,,,,,,,,,,,,,,
"Color Spot Nurseries, Inc. Attn:Cheryl Matheson",321 West Sepulveda Boulevard,,Carson,CA,,,33.80799358000,-118.27991486000,,,,,,,,,,,,,,,,,,,,,,,,,,
Long Beach Community Garden,7600 E. Spring Street,,Long Beach,CA,,,33.81032972000,-118.08617765000,,,,,,,,,,,,,,,,,,,,,,,,,,
First Image Nursery,16801 South Central,,Carson,CA,,,33.88027126000,-118.24884051000,,,,,,,,,,,,,,,,,,,,,,,,,,
Long Beach Grows Orizaba Park,1435 Orizaba Avenue,,Long Beach,CA,,,33.78507221000,-118.15680405000,,,,,,,,,,,,,,,,,,,,,,,,,,
First Image Nursery,2700 South Fairfax Avnue,,Los Angeles,CA,,,34.03074949000,-118.37149750000,,,,,,,,,,,,,,,,,,,,,,,,,,
"Long Beach Organic, Inc. - Mary Molina Garden",1640 W. 20th Street,,Long Beach,CA,,,33.79345323000,-118.21477942000,,,,,,,,,,,,,,,,,,,,,,,,,,
"Colorful Garden Center, Incorporated",28263 Dorothy Drive,,Agoura Hills,CA,,,34.14200793000,-118.74246295000,,,,,,,,,,,,,,,,,,,,,,,,,,
First Image Nursery,17723 Prairie Avenue,,Torrance,CA,,,33.86973577000,-118.34384087000,,,,,,,,,,,,,,,,,,,,,,,,,,
Four Seasons Wholesale Nursery,18840 Nordhoff Street,,Northridge,CA,,,34.23543371000,-118.54380932000,,,,,,,,,,,,,,,,,,,,,,,,,,
Crown Valley Nursery,3111 E. Sierra Madre Blvd.,,Pasadena,CA,,,34.16172999000,-118.08627357000,,,,,,,,,,,,,,,,,,,,,,,,,,
"Long Beach Organic, Inc. - Pacific And 6Th Community Garden",Pacific Avenue at 6th Street,,Long Beach,CA,,,33.77414125000,-118.19371890000,,,,,,,,,,,,,,,,,,,,,,,,,,
Lago Seco Community Garden,3920 235th Street,,Torrance,CA,,,33.81275956000,-118.35466417000,,,,,,,,,,,,,,,,,,,,,,,,,,
F.A.C.T. Family Adult & Child Therapies,10642 Santa Monica Blvd. #201,,Los Angeles,CA,,,34.05280599000,-118.43047412000,,,,,,,,,,,,,,,,,,,,,,,,,,
F.A.C.T. Family Adult & Child Therapies,1637 Malcolm Avenue,,Los Angeles,CA,,,34.05321043000,-118.43727027000,,,,,,,,,,,,,,,,,,,,,,,,,,
Fausto Garcia,16654 Chicago Ave,,Bellflower,CA,,,33.88265198000,-118.11076994000,,,,,,,,,,,,,,,,,,,,,,,,,,
Lakewood Community Garden,6210 Candlewood Street,,Lakewood,CA,,,33.85317311000,-118.11181323000,,,,,,,,,,,,,,,,,,,,,,,,,,
"Long Beach Organic, Inc. - Top Of The Town",6751 Atlantic Avenue,,Long Beach,CA,,,33.87752222000,-118.18611228000,,,,,,,,,,,,,,,,,,,,,,,,,,
Daniger Orchids,17351 Nordhoff Street,,Northridge,CA,,,34.23580784000,-118.51302909000,,,,,,,,,,,,,,,,,,,,,,,,,,
Mansfield Fountain Community Garden,1259 N. Mansfield Avenue,,Los Angeles,CA,,,34.09361321000,-118.34050187000,,,,,,,,,,,,,,,,,,,,,,,,,,
Dave'S 4 Seasons Growers,7701 Mooney,,Rosemead,CA,,,34.04920622000,-118.10031338000,,,,,,,,,,,,,,,,,,,,,,,,,,
David'S Nursery,909 East Sepulveda Boulevard,,Carson,CA,,,33.80854552000,-118.25738331000,,,,,,,,,,,,,,,,,,,,,,,,,,
Mar Vista Community Garden,5075 S. Slauson Avenue,,Culver City,CA,,,33.99348683000,-118.40685601000,,,,,,,,,,,,,,,,,,,,,,,,,,
Manzanita Street Community Garden,1101 Manzanita Street,,Los Angeles,CA,,,34.09348168000,-118.28090702000,,,,,,,,,,,,,,,,,,,,,,,,,,
Deep Roots Garden Center And Florist,207 North Sepulveda Boulevard,,Manhattan Beach,CA,,,33.88055024000,-118.39609243000,,,,,,,,,,,,,,,,,,,,,,,,,,
Mariposa-Nabi Community Garden,961 S. Mariposa Avenue,,Los Angeles,CA,,,34.05387011000,-118.29899293000,,,,,,,,,,,,,,,,,,,,,,,,,,
Dominus Plantarum,1765 Sinaloa Avenue,,Pasadena,CA,,,34.17634999000,-118.11586287000,,,,,,,,,,,,,,,,,,,,,,,,,,
Memorial Park Community Garden,340 N. Orange Place,,Azusa,CA,,,34.12695148000,-117.91379905000,,,,,,,,,,,,,,,,,,,,,,,,,,
Messiah Organic Community Garden,7300 West Manchester Avenue,,Los Angeles,CA,,,33.95969257000,-118.42254975000,,,,,,,,,,,,,,,,,,,,,,,,,,
Eden Nursery,Berendo and West 126th Street,,Los Angeles,CA,,,33.96409436000,-118.27394041000,,,,,,,,,,,,,,,,,,,,,,,,,,
"Long Beach Organic, Inc. - Wild Oats Garden",3709 E. 10th Street,,Long Beach,CA,,,33.77896463000,-118.14852108000,,,,,,,,,,,,,,,,,,,,,,,,,,
"Long Beach Organic, Inc. - Saint LukeΓÇÖS Garden",525 E. 7th Street,,Long Beach,CA,,,33.77536834000,-118.18560856000,,,,,,,,,,,,,,,,,,,,,,,,,,
Cycadia,17337 Chase Street,,Northridge,CA,,,34.22308735000,-118.51138688000,,,,,,,,,,,,,,,,,,,,,,,,,,
"Cyclamen Growers, Incorporated",11545 Kagel Canyon Street,,Sylmar,CA,,,34.27823395000,-118.38374608000,,,,,,,,,,,,,,,,,,,,,,,,,,
Damas Nursery,6265 East Hereford Drive,,Los Angeles,CA,,,34.00962356000,-118.13724565000,,,,,,,,,,,,,,,,,,,,,,,,,,
Moothart Collingnon/Francis Avenue Community Garden,2909 Francis Avenue,,Los Angeles,CA,,,34.05684802000,-118.28941935000,,,,,,,,,,,,,,,,,,,,,,,,,,
Esequiel Nursery,9000 Atlantic Boulevard,,South Gate,CA,,,33.94886599000,-118.18191656000,,,,,,,,,,,,,,,,,,,,,,,,,,
Evergreen Nursery,7545 Mexico Way,,Buena Park,CA,,,33.85115931000,-118.03354217000,,,,,,,,,,,,,,,,,,,,,,,,,,
New City School Farm,225 E. 15th Street,,Long Beach,CA,,,33.78535753000,-118.19030932000,,,,,,,,,,,,,,,,,,,,,,,,,,
Exotic Garden Nursery,18801 Victory Boulevard,,Reseda,CA,,,34.18660773000,-118.54272888000,,,,,,,,,,,,,,,,,,,,,,,,,,
Mothers Of East La Community Garden,1020 S. Fickett Street,,Los Angeles,CA,,,34.03134147000,-118.21534040000,,,,,,,,,,,,,,,,,,,,,,,,,,
Gonzalez Nursery,2214 Broach Avenue,,Duarte,CA,,,34.12446918000,-117.98702975000,,,,,,,,,,,,,,,,,,,,,,,,,,
Eric Hernandez Dba Hernandez Nursery,5501 Rodeo Road,,Los Angeles,CA,,,34.02158957000,-118.36602602000,,,,,,,,,,,,,,,,,,,,,,,,,,
Gonzalez Nursery,470 East Duarte Road,,Monrovia,CA,,,34.13221289000,-117.99257879000,,,,,,,,,,,,,,,,,,,,,,,,,,
Norman Harriton Community Garden,2037 N. Sanborn Avenue,,Los Angeles,CA,,,34.10427939000,-118.27864815000,,,,,,,,,,,,,,,,,,,,,,,,,,
Gonzalez Nursery,1007 Worcester Avenue,,Pasadena,CA,,,34.16315979000,-118.14503235000,,,,,,,,,,,,,,,,,,,,,,,,,,
North Long Beach Community Garden,6895 N. Myrtle Avenue,,Long Beach,CA,,,33.87999448000,-118.18181416000,,,,,,,,,,,,,,,,,,,,,,,,,,
North Hollywood Community Garden,11800 Weddington Street,,Valley Village,CA,,,34.16666393000,-118.39178557000,,,,,,,,,,,,,,,,,,,,,,,,,,
Gonzalez Nursery,12269 Pellissier Road,,Whittier,CA,,,34.03409822000,-118.03323564000,,,,,,,,,,,,,,,,,,,,,,,,,,
"F.K. Nursery, Incorporated",2027 Colby Avenue,,Los Angeles,CA,,,34.03807148000,-118.44687299000,,,,,,,,,,,,,,,,,,,,,,,,,,
Milagro Allegro Community Garden,115 S. Avenue 56,,Los Angeles,CA,,,34.10845842000,-118.19353432000,,,,,,,,,,,,,,,,,,,,,,,,,,
Monterey Road Eco-Community Garden - East,870 Monterey Road,,Glendale,CA,,,34.15704972000,-118.24403954000,,,,,,,,,,,,,,,,,,,,,,,,,,
Galaxy One,4711 Don Miguel Drive,,Los Angeles,CA,,,34.00343571000,-118.35752770000,,,,,,,,,,,,,,,,,,,,,,,,,,
Mlk Community Peace Garden,1950 Lemon Avenue,,Long Beach,CA,,,33.79212960000,-118.17840649000,,,,,,,,,,,,,,,,,,,,,,,,,,
Green Thumb Nursery,7725 Topanga Canyon Boulevard,,Canoga Park,CA,,,34.21029039000,-118.60600185000,,,,,,,,,,,,,,,,,,,,,,,,,,
Palmer Park Community Garden,610 E. Palmer Avenue,,Glendale,CA,,,34.13261380000,-118.24744175000,,,,,,,,,,,,,,,,,,,,,,,,,,
Firever Deciduous Nursery,11022 Summit Trail,,Sylmar,CA,,,34.28997792000,-118.37448251000,,,,,,,,,,,,,,,,,,,,,,,,,,
Orcutt Ranch Horticultural Center Rancho Sombra Del Roble,23600 Roscoe Boulevard,,Canoga Park,CA,,,34.21913274000,-118.64119904000,,,,,,,,,,,,,,,,,,,,,,,,,,
"Hawthorne Nursery, Incorporated",4519 West El Segundo Boulevard,,Hawthorne,CA,,,33.91644827000,-118.35529922000,,,,,,,,,,,,,,,,,,,,,,,,,,
Paramount (Cortland) Community Garden,7200 Cortland Avenue,,Paramount,CA,,,33.91370851000,-118.17473157000,,,,,,,,,,,,,,,,,,,,,,,,,,
"Hawthorne Nursery, Incorporated",4556 El Segundo Boulevard,,Hawthorne,CA,,,33.91639493000,-118.35609152000,,,,,,,,,,,,,,,,,,,,,,,,,,
Pasadena Community Gardens,721 South Pasadena Avenue,,Pasadena,CA,,,34.13313116000,-118.15412970000,,,,,,,,,,,,,,,,,,,,,,,,,,
Fisher Barrie And Yvette,2929 Oakhurst Avenue,,Los Angeles,CA,,,34.03560174000,-118.39535932000,,,,,,,,,,,,,,,,,,,,,,,,,,
Flora Bella Farms,Arizona & @nd Street,,Santa Monica,CA,,,34.01199520000,-118.46776124000,,,,,,,,,,,,,,,,,,,,,,,,,,
Patton Street Community Garden,303 Patton Street,,Los Angeles,CA,,,34.06541809000,-118.25915428000,,,,,,,,,,,,,,,,,,,,,,,,,,
Flowers By Imrana Ashraf,808 East Baseline Road,,San Dimas,CA,,,34.12112297000,-117.79161976000,,,,,,,,,,,,,,,,,,,,,,,,,,
Foothill Nursery,10456 Foothill Boulevard,,Sylmar,CA,,,34.27395299000,-118.35764308000,,,,,,,,,,,,,,,,,,,,,,,,,,
Pea Patch Community Garden,1200 Meadows Ave,,Manhattan Beach,CA,,,33.88833381000,-118.39171642000,,,,,,,,,,,,,,,,,,,,,,,,,,
Oakland Community Garden,N. Oakland Avenue and E. Maple Street,,Pasadena,CA,,,34.15235033000,-118.13994905000,,,,,,,,,,,,,,,,,,,,,,,,,,
Norwich Community Garden,417 Norwich Drive,,Los Angeles,CA,,,34.07942415000,-118.38070640000,,,,,,,,,,,,,,,,,,,,,,,,,,
Green Thumb Nursery,21812 Sherman Way,,Canoga Park,CA,,,34.20096345000,-118.60335925000,,,,,,,,,,,,,,,,,,,,,,,,,,
Ocean View Farms,3300 S. Centinela Avenue,,Los Angeles,CA,,,34.01472864000,-118.44193054000,,,,,,,,,,,,,,,,,,,,,,,,,,
Rancho San Pedro Community Garden,275 W. 1st Street,,San Pedro,CA,,,33.74327698000,-118.28301724000,,,,,,,,,,,,,,,,,,,,,,,,,,
Rosecrans Farms,561 W. 146th Street,,Gardena,CA,,,33.89964845000,-118.28525960000,,,,,,,,,,,,,,,,,,,,,,,,,,
Rosewood Gardens,4160 1/2 Rosewood Avenue,,Los Angeles,CA,,,34.07901300000,-118.29518128000,,,,,,,,,,,,,,,,,,,,,,,,,,
Rosemary And Thyme Community Garden,10161 Jordan Avenue,,Chatsworth,CA,,,34.25474988000,-118.60390239000,,,,,,,,,,,,,,,,,,,,,,,,,,
San Pedro Gardens,1400 N. Gaffey Street,,San Pedro,CA,,,33.75697918000,-118.29223010000,,,,,,,,,,,,,,,,,,,,,,,,,,
Home Grown Gardens,8228 Steward Ave,,Los Angeles,CA,,,33.96360405000,-118.40869054000,,,,,,,,,,,,,,,,,,,,,,,,,,
Fox Nurseries,1350 South Garey Avenue,,Pomona,CA,,,34.04666137000,-117.74964588000,,,,,,,,,,,,,,,,,,,,,,,,,,
Frank S. Chiodo,19720 West Avenue B,,Lancaster,CA,,,34.80359343000,-118.47785952000,,,,,,,,,,,,,,,,,,,,,,,,,,
Fuji Bonsai Nursery,13170 Glenoaks Boulevard,,Sylmar,CA,,,34.30969368000,-118.45237192000,,,,,,,,,,,,,,,,,,,,,,,,,,
Fujiyama Nursery,20813 East Valley Boulevard,,Walnut,CA,,,34.01536669000,-117.85041542000,,,,,,,,,,,,,,,,,,,,,,,,,,
Fuku Bonsai Nursery,550 168th Street,,Gardena,CA,,,33.87918216000,-118.28974516000,,,,,,,,,,,,,,,,,,,,,,,,,,
Santa Clarita Community Garden,27234 Bouquet Canyon Road,,Santa Clarita,CA,,,34.43549845000,-118.52115495000,,,,,,,,,,,,,,,,,,,,,,,,,,
G.M. Nursery,2563 Angelus Avenue,,Rosemead,CA,,,34.05835853000,-118.08717783000,,,,,,,,,,,,,,,,,,,,,,,,,,
"International Plant Growers, Incorporated",24501 Figueroa Street,,Carson,CA,,,33.80439968000,-118.28396508000,,,,,,,,,,,,,,,,,,,,,,,,,,
Pico Rivera Community Garden,8606 Beverly Road,,Pico Rivera,CA,,,34.00949988000,-118.08788884000,,,,,,,,,,,,,,,,,,,,,,,,,,
Pomona Community Garden,1170 W. Fremont Street,,Pomona,CA,,,34.04245014000,-117.76421376000,,,,,,,,,,,,,,,,,,,,,,,,,,
Project Youth Green,12467 W. Osborne Street,,Pacoima,CA,,,34.25775290000,-118.40469586000,,,,,,,,,,,,,,,,,,,,,,,,,,
Proyecto Jardin,1718 Bridge Street,,Los Angeles,CA,,,34.05189455000,-118.21661162000,,,,,,,,,,,,,,,,,,,,,,,,,,
Queen Park Learning Garden,652 E. Queen Street,,Inglewood,CA,,,33.96261162000,-118.34492299000,,,,,,,,,,,,,,,,,,,,,,,,,,
Sepulveda Garden Center,16633 Magnolia Boulevard,,Encino,CA,,,34.16495650000,-118.49550040000,,,,,,,,,,,,,,,,,,,,,,,,,,
Garibaldo'S Nursery,8834 Rose Street,,Bellflower,CA,,,33.86953874000,-118.14349582000,,,,,,,,,,,,,,,,,,,,,,,,,,
Solano Canyon Community Garden,545 Solano Avenue,,Los Angeles,CA,,,34.07418256000,-118.23143010000,,,,,,,,,,,,,,,,,,,,,,,,,,
"Girasol Nursery, Incorporated",8555 Spruce Street,,Pico Rivera,CA,,,34.00540393000,-118.08904289000,,,,,,,,,,,,,,,,,,,,,,,,,,
Stanford Avalon Community Garden,658 E. 111th Place,,Los Angeles,CA,,,33.93417627000,-118.26377086000,,,,,,,,,,,,,,,,,,,,,,,,,,
Golden Oak Ranch Properties,19802 Placerita Canyon Road,,Newhall,CA,,,34.37572276000,-118.48378382000,,,,,,,,,,,,,,,,,,,,,,,,,,
Jauregui Nursery,950 East Claude,,Carson,CA,,,33.88372321000,-118.25922978000,,,,,,,,,,,,,,,,,,,,,,,,,,
St. Luke'S Garden,524 E. 7th Street,,Long Beach,CA,,,33.77531307000,-118.18558896000,,,,,,,,,,,,,,,,,,,,,,,,,,
Jauregui Nursery,20300 Main,,Carson,CA,,,33.84738273000,-118.28010118000,,,,,,,,,,,,,,,,,,,,,,,,,,
Jauregui Nursery,550 West 157th Street,,Gardena,CA,,,33.88901430000,-118.28457081000,,,,,,,,,,,,,,,,,,,,,,,,,,
Summit Avenue,1282 N. Summit Avenue,,Pasadena,CA,,,34.16782187000,-118.14763612000,,,,,,,,,,,,,,,,,,,,,,,,,,
Jauregui Nursery,6741 Del Amo Boulevard,,Lakewood,CA,,,33.84606930000,-118.10034874000,,,,,,,,,,,,,,,,,,,,,,,,,,
Tarzana Community Garden,18702 Erwin Street,,Reseda,CA,,,34.18385361000,-118.54066941000,,,,,,,,,,,,,,,,,,,,,,,,,,
The Learning Garden,1300 Venice Blvd.,,Los Angeles,CA,,,34.04290490000,-118.28222109000,,,,,,,,,,,,,,,,,,,,,,,,,,
El Sereno Community Garden,5466 Huntington Drive,,Los Angeles,CA,,,34.09249662000,-118.16162329000,,,,,,,,,,,,,,,,,,,,,,,,,,
"International Plant Growers, Incorporated",24500 Vermont Avenue,,Harbor City,CA,,,33.80165915000,-118.29034729000,,,,,,,,,,,,,,,,,,,,,,,,,,
Garden View,12900 Lower Azusa Road,,Baldwin Park,CA,,,34.09186417000,-117.99295303000,,,,,,,,,,,,,,,,,,,,,,,,,,
Seeds Of Carver Community Garden,2319 Second Avenue,,Los Angeles,CA,,,34.03574044000,-118.31893265000,,,,,,,,,,,,,,,,,,,,,,,,,,
Gardena Hills Nursery,12597 Budlong Street,,Los Angeles,CA,,,33.91843631000,-118.29643950000,,,,,,,,,,,,,,,,,,,,,,,,,,
Green Spot Nursery,12340 Stagg Street,,North Hollywood,CA,,,34.21205716000,-118.40195963000,,,,,,,,,,,,,,,,,,,,,,,,,,
Van Nuys Garden Center,16400 Chase Street,,North Hills,CA,,,34.22475555000,-118.48964637000,,,,,,,,,,,,,,,,,,,,,,,,,,
Green Thumb Garden Nursery,17915 South Western Avenue,,Torrance,CA,,,33.86803022000,-118.30919240000,,,,,,,,,,,,,,,,,,,,,,,,,,
"Green Thumb International, Incorporated",23734 North San Fernando Road,,Newhall,CA,,,34.37089387000,-118.51490940000,,,,,,,,,,,,,,,,,,,,,,,,,,
Venice Community Garden,643 Mildred Avenue,,Venice,CA,,,33.98726246000,-118.46188134000,,,,,,,,,,,,,,,,,,,,,,,,,,
Vermont Square Community Garden,4712 S. Vermont Avenue,,Los Angeles,CA,,,34.00009067000,-118.29150679000,,,,,,,,,,,,,,,,,,,,,,,,,,
Jauregui Nursery,7200 Wardlow Road,,Long Beach,CA,,,33.81879860000,-118.09265102000,,,,,,,,,,,,,,,,,,,,,,,,,,
Jauregui Nursery,6970 Via Del Rio Street,,Long Beach,CA,,,33.78807894000,-118.09685337000,,,,,,,,,,,,,,,,,,,,,,,,,,
Green Touch Nursery,8842 Park Street,,Bellflower,CA,,,33.87835323000,-118.14347871000,,,,,,,,,,,,,,,,,,,,,,,,,,
Vista Hermosa Gardens,1590 E. 114th Street,,Los Angeles,CA,,,33.93108718000,-118.24652603000,,,,,,,,,,,,,,,,,,,,,,,,,,
Green Valley Wholesale Nursery,11205 Victory Blvd,,North Hollywood,CA,,,34.18672855000,-118.37495123000,,,,,,,,,,,,,,,,,,,,,,,,,,
Wattles Farm,1714 N. Curson Avenue,,Los Angeles,CA,,,34.10199105000,-118.35501155000,,,,,,,,,,,,,,,,,,,,,,,,,,
"Green View Nursery, Incorporated",18590 Lassen Street,,Northridge,CA,,,34.24997358000,-118.53769966000,,,,,,,,,,,,,,,,,,,,,,,,,,
Greenlee And Associates,160 East Franklin Avenue,,Pomona,CA,,,34.04055287000,-117.74865868000,,,,,,,,,,,,,,,,,,,,,,,,,,
Trend Community Garden,43100 North Alexo Drive,,Lancaster,CA,,,34.66232162000,-118.19634712000,,,,,,,,,,,,,,,,,,,,,,,,,,
Green Arrow Nursery,8845 Sepulveda,,Van Nuys,CA,,,34.20237410000,-118.44633988000,,,,,,,,,,,,,,,,,,,,,,,,,,
Union Avenue/Cesar Chavez Community Garden,1136 S. Union Avenue,,Los Angeles,CA,,,34.04670333000,-118.27568369000,,,,,,,,,,,,,,,,,,,,,,,,,,
Ujima Farm Project,941 E. 126th Street,,Los Angeles,CA,,,33.91884807000,-118.25828597000,,,,,,,,,,,,,,,,,,,,,,,,,,
Green Leaf Nursery,10490 Washington Boulevard,,Whittier,CA,,,33.97488629000,-118.08195322000,,,,,,,,,,,,,,,,,,,,,,,,,,
Grower Gallo Nursery,15410 E. Gale Ave,,Hacienda Heights,CA,,,34.01337411000,-117.97133718000,,,,,,,,,,,,,,,,,,,,,,,,,,
Guy B. Wrinkle Exotic Plants,2140 Warmlands Avenue,,Vista,CA,,,33.23267362000,-117.21856887000,,,,,,,,,,,,,,,,,,,,,,,,,,
"H And H Nursery, Incorporated",6220 Lakewood Boulevard,,Lakewood,CA,,,33.86807966000,-118.14243633000,,,,,,,,,,,,,,,,,,,,,,,,,,
Fox & Laurel Park And Community Garden,14353 Fox Street,,San Fernando,CA,,,34.27189824000,-118.44574595000,,,,,,,,,,,,,,,,,,,,,,,,,,
Hashimoto Nursery,1935 Sawtelle Boulevard,,Los Angeles,CA,,,34.04156105000,-118.44422260000,,,,,,,,,,,,,,,,,,,,,,,,,,
Mc Francis Community Garden,2909 Francis Ave,,Los Angeles,CA,,,34.05684802000,-118.28941935000,,,,,,,,,,,,,,,,,,,,,,,,,,
Javier'S Nursery,610 East Carson Plaza Drive,,Carson,CA,,,33.84534377000,-118.26404149000,,,,,,,,,,,,,,,,,,,,,,,,,,
Unidad Park And Community Garden,1644 Beverly Boulevard,,Los Angeles,CA,,,34.06399499000,-118.26445040000,,,,,,,,,,,,,,,,,,,,,,,,,,
Javier'S Nursery,920 East 213th Street,,Carson,CA,,,33.83535046000,-118.25868264000,,,,,,,,,,,,,,,,,,,,,,,,,,
West Athens Victory Garden,10500 South Normandie,,Los Angeles,CA,,,33.94100029000,-118.30025356000,,,,,,,,,,,,,,,,,,,,,,,,,,
Hill Grove Wholesale Nursery,455 Floral Drive,,Monterey Park,CA,,,34.03821711000,-118.13831887000,,,,,,,,,,,,,,,,,,,,,,,,,,
El Cariso Little Green Fingers Children'S Garden,13100 Hubbard St,,Sylmar,CA,,,34.31803880000,-118.41830958000,,,,,,,,,,,,,,,,,,,,,,,,,,
Hilltop Nursery,1919 Skyline Vista Drive,,La Habra,CA,,,33.96434999000,-117.93273281000,,,,,,,,,,,,,,,,,,,,,,,,,,
Mariposa Little Green Fingers Children'S Garden,965 South Mariposa Ave,,Los Angeles,CA,,,34.05365834000,-118.29898482000,,,,,,,,,,,,,,,,,,,,,,,,,,
Willowbrook Community Garden,644 E. 120th Street,,Los Angeles,CA,,,33.92369314000,-118.26350866000,,,,,,,,,,,,,,,,,,,,,,,,,,
"Greenshower Nursery, Incorporated",2040 Desire Avenue,,Rowland Heights,CA,,,33.98120225000,-117.89410863000,,,,,,,,,,,,,,,,,,,,,,,,,,
Winston Smoyer Memorial Community Garden,1006 Clay Court/901 E Mission Rd,,Alhambra,CA,,,34.09464675000,-118.11370736000,,,,,,,,,,,,,,,,,,,,,,,,,,
Greenthumb,2481 Lillyvale Avenue,,Los Angeles,CA,,,34.07646139000,-118.16451286000,,,,,,,,,,,,,,,,,,,,,,,,,,
Throop Learning Garden,300 S. Los Robles Ave,,Pasadena,CA,,,34.14031252000,-118.14132469000,,,,,,,,,,,,,,,,,,,,,,,,,,
Greystone Mansion Demonstration Garden,905 Loma Vista Drive,,Beverly Hills,CA,,,34.09228088000,-118.39977732000,,,,,,,,,,,,,,,,,,,,,,,,,,
Humedo Nursery,10040 Imperial Highway,,Downey,CA,,,33.91679956000,-118.11237900000,,,,,,,,,,,,,,,,,,,,,,,,,,
Cedar Ridge Community Garden,2105 East Avenue J-8,,Lancaster,CA,,,34.68236765000,-118.09228906000,,,,,,,,,,,,,,,,,,,,,,,,,,
Huntington Botanical Gardens,1151 Oxford Road,,San Marino,CA,,,34.12764829000,-118.10944980000,,,,,,,,,,,,,,,,,,,,,,,,,,
Hurtado'S Nursery,9635 Whittier Blvd.,,Pico Rivera,CA,,,33.99659298000,-118.07342362000,,,,,,,,,,,,,,,,,,,,,,,,,,
Compton Community Organic Garden,1317 S. Long Beach Blvd.,,Compton,CA,,,33.88444074000,-118.20583056000,,,,,,,,,,,,,,,,,,,,,,,,,,
"I.T. Nursery, Incorporated",256 East Alondra Boulevard,,Gardena,CA,,,33.88571349000,-118.27193887000,,,,,,,,,,,,,,,,,,,,,,,,,,
Detroit St. Community Garden,1201 N. Detroit St.,,Los Angeles,CA,,,34.09267028000,-118.34522213000,,,,,,,,,,,,,,,,,,,,,,,,,,
Kenyon Landscapes,14899 Chatsworth,,Mission Hills,CA,,,34.26744610000,-118.45739144000,,,,,,,,,,,,,,,,,,,,,,,,,,
Pasadena Community Garden,721 S. Pasadena Ave.,,Pasadena,CA,,,34.13313116000,-118.15412970000,,,,,,,,,,,,,,,,,,,,,,,,,,
Kenyon Landscapes,9816 Burnet Avenue,,North Hills,CA,,,34.24860992000,-118.46300612000,,,,,,,,,,,,,,,,,,,,,,,,,,
Ramona Gardens Community Garden,Lancaster Ave.,,Los Angeles,CA,,,34.05752755000,-118.19598781000,,,,,,,,,,,,,,,,,,,,,,,,,,
Santa Monica- Euclid Park Community Garden,1525 Euclid Street,,Santa Monica,CA,,,34.02151293000,-118.48452047000,,,,,,,,,,,,,,,,,,,,,,,,,,
Santa Monica- Main Street Community Garden,2300 Main Street,,Santa Monica,CA,,,34.00479713000,-118.48658478000,,,,,,,,,,,,,,,,,,,,,,,,,,
Villa-Parke Little Green Fingers Children'S Garden,363 E Villa St,,Pasadena,CA,,,34.15418853000,-118.14316674000,,,,,,,,,,,,,,,,,,,,,,,,,,
Junior'S Nursery,18810 Hatteras Street,,Tarzana,CA,,,34.17709592000,-118.54294216000,,,,,,,,,,,,,,,,,,,,,,,,,,
Free-Food Garden At Arroyo Food Co-Op,494 N Wilson Ave.,,Pasadena,CA,,,34.15455126000,-118.12813580000,,,,,,,,,,,,,,,,,,,,,,,,,,
"Horizon Nursery, Incorporated",9919 Cedardale Avenue,,Santa Fe Springs,CA,,,33.94948283000,-118.09302476000,,,,,,,,,,,,,,,,,,,,,,,,,,
Fremont Wellness Center Community Garden,7821 S. Avalon Blvd.,,Los Angeles,CA,,,33.96816788000,-118.26519728000,,,,,,,,,,,,,,,,,,,,,,,,,,
"Jackson Shrub Supply, Incorporated",11505 Vanowen Street,,North Hollywood,CA,,,34.19396799000,-118.38259920000,,,,,,,,,,,,,,,,,,,,,,,,,,
Jake'S Nursery,13527 Los Angeles Street,,Baldwin Park,CA,,,34.09209801000,-117.97855991000,,,,,,,,,,,,,,,,,,,,,,,,,,
"James H. Cowan And Associates, Incorporated",29243 Pacific Coast Highway,,Malibu,CA,,,34.02088472000,-118.81150604000,,,,,,,,,,,,,,,,,,,,,,,,,,
"Kobata Growers, Incorporated",20300 Figueroa Incorporated,,Carson,CA,,,33.84731060000,-118.28420329000,,,,,,,,,,,,,,,,,,,,,,,,,,
"Kobata Growers, Incorporated",17622 Van Ness Avenue,,Torrance,CA,,,33.87079017000,-118.31779627000,,,,,,,,,,,,,,,,,,,,,,,,,,
Loretta Allison Dba Spade And Seeds,600 W. Palm Street,,Altadena,CA,,,34.20026625000,-118.15785049000,,,,,,,,,,,,,,,,,,,,,,,,,,
Loretta Allison Dba Spade And Seeds,1038 Montrose Ave,,South Pasadena,CA,,,34.11503337000,-118.14271788000,,,,,,,,,,,,,,,,,,,,,,,,,,
M And G Gallo Nursery,35740 82nd Street East,,Littlerock,CA,,,34.53098020000,-117.98365764000,,,,,,,,,,,,,,,,,,,,,,,,,,
"M.B. Nursery And Landscaping, Incorporated",20300 South Figueroa Street,,Carson,CA,,,33.84731060000,-118.28420329000,,,,,,,,,,,,,,,,,,,,,,,,,,
"M.B. Nursery And Landscaping, Incorporated",17191 Billings Drive,,Gardena,CA,,,33.87565937000,-118.27194841000,,,,,,,,,,,,,,,,,,,,,,,,,,
Wlimington Community Garden,East L Street,,Wilmington,CA,,,33.78725002000,-118.25291350000,,,,,,,,,,,,,,,,,,,,,,,,,,
Eastwind Community Garden,110 Eastwind Street,,Marina del Rey,CA,,,33.97724530000,-118.46316580000,,,,,,,,,,,,,,,,,,,,,,,,,,
Jorge'S Nursery,100 East Greenleaf Boulevard,,Compton,CA,,,33.88114000000,-118.22196880000,,,,,,,,,,,,,,,,,,,,,,,,,,
Eastmont Community Garden,701 Hoefner Ave.,,Los Angeles,CA,,,34.02089055000,-118.14981098000,,,,,,,,,,,,,,,,,,,,,,,,,,
Villa Parke Community Garden,363 E. Villa St.,,Pasadena,CA,,,34.15418853000,-118.14316674000,,,,,,,,,,,,,,,,,,,,,,,,,,
Fox & Laurel Park Community Garden,14353 Fox St.,,San Fernando,CA,,,34.27189824000,-118.44574595000,,,,,,,,,,,,,,,,,,,,,,,,,,
Gaffey Street Gardens,1400 N. Gaffey Street,,San Pedro,CA,,,33.75697918000,-118.29223010000,,,,,,,,,,,,,,,,,,,,,,,,,,
Alan Hjelm Community Garden,725 E. Avenue J,,Lancaster,CA,,,34.68948467000,-118.14135769000,,,,,,,,,,,,,,,,,,,,,,,,,,
Just Liners,901 Covina Boulevard,,San Dimas,CA,,,34.09949756000,-117.82507754000,,,,,,,,,,,,,,,,,,,,,,,,,,
Norwalk Community Garden,12719 Studebaker Rd,,Norwalk,CA,,,33.91504148000,-118.09934279000,,,,,,,,,,,,,,,,,,,,,,,,,,
Kamdibe'S Backyard Nursery,547 Armitos Place,,Diamond Bar,CA,,,34.02046979000,-117.78795071000,,,,,,,,,,,,,,,,,,,,,,,,,,
The Growing Experience,750 E. Via Carmelitos,,Long Beach,CA,,,33.84763795000,-118.18381247000,,,,,,,,,,,,,,,,,,,,,,,,,,
Mona Lisa'S,5134 N. Irwindale,,Baldwin Park,CA,,,34.10607971000,-117.93411458000,,,,,,,,,,,,,,,,,,,,,,,,,,
A And R Nursery,4128 San Gabriel River Parkway,,Pico Rivera,CA,,,34.01114563000,-118.06853225000,,,,,,,,,,,,,,,,,,,,,,,,,,
Khiem Doan,4520 Ivar Avenue,,Rosemead,CA,,,34.08656063000,-118.07480625000,,,,,,,,,,,,,,,,,,,,,,,,,,
A And R Nursery,7950 Graves Avenue,,Rosemead,CA,,,34.05466295000,-118.09524174000,,,,,,,,,,,,,,,,,,,,,,,,,,
Kimura Wholesale Bonsai And Landscape Nursery,17230 Roscoe Boulevard,,Northridge,CA,,,34.22111296000,-118.50862925000,,,,,,,,,,,,,,,,,,,,,,,,,,
"Abc Nursery, Incorporated",6800 Darwell Avenue,,Bell Gardens,CA,,,33.96901098000,-118.15345508000,,,,,,,,,,,,,,,,,,,,,,,,,,
Moon Valley Nurseries Of California,2100 Greenwood Ave,,Monterey Park,CA,,,34.03950272000,-118.10820025000,,,,,,,,,,,,,,,,,,,,,,,,,,
"Abc Nursery, Incorporated",20200 Studebaker,,Cerritos,CA,,,33.84742868000,-118.09880563000,,,,,,,,,,,,,,,,,,,,,,,,,,
Moon Valley Nurseries Of California,11745 Sherman Way,,North Hollywood,CA,,,34.20122970000,-118.38926199000,,,,,,,,,,,,,,,,,,,,,,,,,,
"Abc Nursery, Incorporated",424 East Gardena Blvd,,Gardena,CA,,,33.88221343000,-118.26814860000,,,,,,,,,,,,,,,,,,,,,,,,,,
Elm Avenue Community Garden,44748 Elm Ave.,,Lancaster,CA,,,34.69577580000,-118.14169663000,,,,,,,,,,,,,,,,,,,,,,,,,,
El Cariso Mountain Community Garden,13100 Hubbard St.,,Sylmar,CA,,,34.31803880000,-118.41830958000,,,,,,,,,,,,,,,,,,,,,,,,,,
Js Nursery,6202 Ashworth Street,,Lakewood,CA,,,33.86794518000,-118.12073207000,,,,,,,,,,,,,,,,,,,,,,,,,,
Emerson Avenue Community Garden,8050 Emerson Ave.,,Los Angeles,CA,,,33.96708731000,-118.40492235000,,,,,,,,,,,,,,,,,,,,,,,,,,
Juarez Nursery,6375 Wheeler Ave,,La Verne,CA,,,34.13674607000,-117.77302563000,,,,,,,,,,,,,,,,,,,,,,,,,,
Legacy Cork Oaks,14620 E. Edgeridge Drive,,Hacienda Heights,CA,,,33.99870394000,-117.99497947000,,,,,,,,,,,,,,,,,,,,,,,,,,
"Abc Nursery, Incorporated",18601 Yukon Avenue,,Torrance,CA,,,33.86157006000,-118.33516851000,,,,,,,,,,,,,,,,,,,,,,,,,,
Libby P. Li,725 South 6th Street,,Alhambra,CA,,,34.08456059000,-118.12941205000,,,,,,,,,,,,,,,,,,,,,,,,,,
"Acosta Growers, Incorporated.",5359 Citrus Avenue,,Azusa,CA,,,34.11412201000,-117.89020839000,,,,,,,,,,,,,,,,,,,,,,,,,,
"Acosta Growers, Incorporated.",669 South Azusa Avenue,,Azusa,CA,,,34.11083747000,-117.90775980000,,,,,,,,,,,,,,,,,,,,,,,,,,
Littlerock Tree Farm,35803 77th Street East,,Littlerock,CA,,,34.53170083000,-117.99256247000,,,,,,,,,,,,,,,,,,,,,,,,,,
"Acosta Growers, Incorporated.",1050 East Gladstone,,Azusa,CA,,,34.11404193000,-117.88432150000,,,,,,,,,,,,,,,,,,,,,,,,,,
Logan'S Nursery,1646 McCollum Place,,Los Angeles,CA,,,34.08712388000,-118.26548721000,,,,,,,,,,,,,,,,,,,,,,,,,,
"Acosta Growers, Incorporated.",2458 Charlotte Avenue,,Rosemead,CA,,,34.05608590000,-118.08824820000,,,,,,,,,,,,,,,,,,,,,,,,,,
"Lomita Plant Growers, Inc",835 East Lomita Boulevard,,Wilmington,CA,,,33.79942568000,-118.25953583000,,,,,,,,,,,,,,,,,,,,,,,,,,
"Acosta Growers, Incorporated.",2657 Delta Avenue,,Rosemead,CA,,,34.06009631000,-118.08632507000,,,,,,,,,,,,,,,,,,,,,,,,,,
New West Growers Incorporated,110 West Greenleaf Avenue,,Compton,CA,,,33.89533372000,-118.20155567000,,,,,,,,,,,,,,,,,,,,,,,,,,
"Armstrong Garden Centers, Incorporated",5816 San Fernando Road,,Glendale,CA,,,34.15756232000,-118.27811103000,,,,,,,,,,,,,,,,,,,,,,,,,,
New West Growers Incorporated,708 East Greenleaf,,Compton,CA,,,33.88121557000,-118.21525220000,,,,,,,,,,,,,,,,,,,,,,,,,,
"Armstrong Garden Centers, Incorporated",1350 East Route 66,,Glendora,CA,,,34.12874314000,-117.84007861000,,,,,,,,,,,,,,,,,,,,,,,,,,
La Crescenta Nursery,3654 La Crescenta Avenue,,Glendale,CA,,,34.20660456000,-118.24001643000,,,,,,,,,,,,,,,,,,,,,,,,,,
"Abc Nursery, Incorporated",6221 Clark Avenue,,Lakewood,CA,,,33.85805795000,-118.13376479000,,,,,,,,,,,,,,,,,,,,,,,,,,
La Sanchez,16525 Circle Hill Lane,,Hacienda Heights,CA,,,33.98572573000,-117.95020901000,,,,,,,,,,,,,,,,,,,,,,,,,,
"Abc Nursery, Incorporated",7132 Somerset,,Paramount,CA,,,33.89628270000,-118.17459507000,,,,,,,,,,,,,,,,,,,,,,,,,,
Lopez Nursery,11763 Rialto Street,,Sun Valley,CA,,,34.22830422000,-118.38891633000,,,,,,,,,,,,,,,,,,,,,,,,,,
"Armstrong Garden Centers, Incorporated",635 West Huntington Drive,,Monrovia,CA,,,34.14036804000,-118.01355000000,,,,,,,,,,,,,,,,,,,,,,,,,,
Lucky Plants Nursery,17715 Amie Ave.,,Torrance,CA,,,33.86971866000,-118.34821731000,,,,,,,,,,,,,,,,,,,,,,,,,,
"Armstrong Garden Centers, Incorporated",12920 Magnolia Boulevard,,North Hollywood,CA,,,34.16488378000,-118.37128035000,,,,,,,,,,,,,,,,,,,,,,,,,,
"Armstrong Garden Centers, Incorporated",352 East Glenarm Street,,Pasadena,CA,,,34.12754265000,-118.14289945000,,,,,,,,,,,,,,,,,,,,,,,,,,
"Lucky Tree, Incorporated",2147 Desire Avenue,,Rowland Heights,CA,,,33.98023953000,-117.89381958000,,,,,,,,,,,,,,,,,,,,,,,,,,
"Norman'S Nursery, Incorporated",8545 East Broadway Avenue North,,San Gabriel,CA,,,34.08810813000,-118.09338192000,,,,,,,,,,,,,,,,,,,,,,,,,,
"Norman'S Nursery, Incorporated",8665 East Duarte Road South,,San Gabriel,CA,,,34.11625722000,-118.08346701000,,,,,,,,,,,,,,,,,,,,,,,,,,
"Armstrong Garden Centers, Incorporated",25255 Crenshaw Boulevard,,Torrance,CA,,,33.79438215000,-118.32968554000,,,,,,,,,,,,,,,,,,,,,,,,,,
"Norman'S Nursery, Incorporated",1601 North Loma Avenue,,South El Monte,CA,,,34.04215862000,-118.06860305000,,,,,,,,,,,,,,,,,,,,,,,,,,
"Armstrong Garden Centers, Incorporated",7540 South Sepulveda Boulevard,,Los Angeles,CA,,,33.97228331000,-118.39476201000,,,,,,,,,,,,,,,,,,,,,,,,,,
Macias Nursery Company,15594 Bledsoe Street,,Sylmar,CA,,,34.30002050000,-118.47115053000,,,,,,,,,,,,,,,,,,,,,,,,,,
Ayon Nursery,16448 Halliburton Road,,Hacienda Heights,CA,,,33.99458928000,-117.94987794000,,,,,,,,,,,,,,,,,,,,,,,,,,
Magic Growers,2795 Eaton Canyon Drive,,Pasadena,CA,,,34.17445305000,-118.09315492000,,,,,,,,,,,,,,,,,,,,,,,,,,
Ayon Nursery,7044 Long Beach Boulevard,,Long Beach,CA,,,33.88102244000,-118.20473621000,,,,,,,,,,,,,,,,,,,,,,,,,,
"Armstrong Garden Centers, Incorporated",1515 Foothill Boulevard,,La Canada Flintridge,CA,,,34.20929575000,-118.21071758000,,,,,,,,,,,,,,,,,,,,,,,,,,
Louis Tran Dba Tran Nurseries,3612 Marybeth Avenue,,Rosemead,CA,,,34.07495321000,-118.06117666000,,,,,,,,,,,,,,,,,,,,,,,,,,
"Armstrong Garden Centers, Incorporated",3842 East 10th Street,,Long Beach,CA,,,33.77891336000,-118.14683891000,,,,,,,,,,,,,,,,,,,,,,,,,,
Lucky Plants,902 East Sepulveda Boulevard,,Carson,CA,,,33.80837023000,-118.25749730000,,,,,,,,,,,,,,,,,,,,,,,,,,
Martinez Nursery,5761 Ashworth,,Lakewood,CA,,,33.86797985000,-118.11958056000,,,,,,,,,,,,,,,,,,,,,,,,,,
"A.Y. Nursery, Incorporated",10115 South Garfield Avenue,,South Gate,CA,,,33.93834004000,-118.16738073000,,,,,,,,,,,,,,,,,,,,,,,,,,
"Boething Treeland Farms, Incorporated",16029 East Avenue R,,Llano,CA,,,34.57256928000,-117.84354502000,,,,,,,,,,,,,,,,,,,,,,,,,,
Boulevard Greenhouse,709 East Baseline Road,,San Dimas,CA,,,34.12117425000,-117.79360624000,,,,,,,,,,,,,,,,,,,,,,,,,,
Boulevard Greenhouse,1143 South San Gabriel Boulevard,,San Gabriel,CA,,,34.08644058000,-118.09085314000,,,,,,,,,,,,,,,,,,,,,,,,,,
Abeja Nursery,18601 Ermanita Avenue,,Torrance,CA,,,33.86186272000,-118.33252145000,,,,,,,,,,,,,,,,,,,,,,,,,,
Calscape Growers,1969 0akwood Street,,Pasadena,CA,,,34.16912031000,-118.12187205000,,,,,,,,,,,,,,,,,,,,,,,,,,
Cazares Nursery,15722 Butler,,Compton,CA,,,33.89533372000,-118.20155567000,,,,,,,,,,,,,,,,,,,,,,,,,,
Centenos Nursery And Landscaping,17514 South Figueroa,,Gardena,CA,,,33.87169858000,-118.28163225000,,,,,,,,,,,,,,,,,,,,,,,,,,
Centenos Nursery And Landscaping,17600 South Western Avenue,,Torrance,CA,,,33.87102186000,-118.30913202000,,,,,,,,,,,,,,,,,,,,,,,,,,
Acton Nursery Landscape,3324 Soledad Canyon Rd.,,Acton,CA,,,34.46613828000,-118.19679083000,,,,,,,,,,,,,,,,,,,,,,,,,,
Afb Enterprise Inc Dba Greenshower Nursery,2320 Desire Avenue,,Rowland Heights,CA,,,33.97776163000,-117.89286852000,,,,,,,,,,,,,,,,,,,,,,,,,,
Mel-O-Dee Garden Center,21333 Devonshire Street,,Chatsworth,CA,,,34.25726857000,-118.59640926000,,,,,,,,,,,,,,,,,,,,,,,,,,
Mezcala Nursery,6901 Orange Avenue,,Long Beach,CA,,,33.87890565000,-118.17745039000,,,,,,,,,,,,,,,,,,,,,,,,,,
Olympic High,721 Ocean Park Blvd,,Santa Monica,CA,,,34.00666618000,-118.47688462000,,,,,,,,,,,,,,,,,,,,,,,,,,
"Malibu Coast, Incorporated",2468 Troutdale Drive,,Agoura Hills,CA,,,34.11838283000,-118.78125030000,,,,,,,,,,,,,,,,,,,,,,,,,,
A.J. Nursery,1600 South Wilmington Avenue,,Compton,CA,,,33.88064574000,-118.23651855000,,,,,,,,,,,,,,,,,,,,,,,,,,
Mariposa Garden,6664 South Street,,Lakewood,CA,,,33.85828138000,-118.10493190000,,,,,,,,,,,,,,,,,,,,,,,,,,
A.V. Gardens And Turf,35906 85th Street,,Littlerock,CA,,,34.53388610000,-117.97925328000,,,,,,,,,,,,,,,,,,,,,,,,,,
Miyako Nursery,552 W 140 St,,Gardena,CA,,,33.90451389000,-118.32460302000,,,,,,,,,,,,,,,,,,,,,,,,,,
Portola Middle,5250 Crebs Avenue,,Tarzana,CA,,,34.16599406000,-118.54459161000,,,,,,,,,,,,,,,,,,,,,,,,,,
"Okada Nursery, Incorporated",18715 South Western Avenue,,Torrance,CA,,,33.86064819000,-118.30920026000,,,,,,,,,,,,,,,,,,,,,,,,,,
Rancho Vista Elementary,4323 Palos Verdes Drive North,,Palos Verdes Peninsula,CA,,,33.78615068000,-118.35715388000,,,,,,,,,,,,,,,,,,,,,,,,,,
"Okada Nursery, Incorporated",6229 Bellflower Boulevard,,Lakewood,CA,,,33.86826661000,-118.12524819000,,,,,,,,,,,,,,,,,,,,,,,,,,
Riverside Drive Charter,13061 Riverside Drive,,Sherman Oaks,CA,,,34.15765854000,-118.41723964000,,,,,,,,,,,,,,,,,,,,,,,,,,
"Moneta Nursery, Incorporated",13633 South Vermont Avenue,,Gardena,CA,,,33.90748075000,-118.29196251000,,,,,,,,,,,,,,,,,,,,,,,,,,
Robert Stevenson Elementary,3333 Oak Street,,Burbank,CA,,,34.19283173000,-118.29706972000,,,,,,,,,,,,,,,,,,,,,,,,,,
Monica Nursery,266 Cloverleaf Drive,,La Puente,CA,,,34.05863596000,-118.00232071000,,,,,,,,,,,,,,,,,,,,,,,,,,
Rolling Hills Preparatory School,1 Rolling Hills Prep Way┬á┬á,,San Pedro,CA,,,33.77993947000,-118.30154480000,,,,,,,,,,,,,,,,,,,,,,,,,,
Monrovia Growers / Attn: Teresa Rodriquez,18331 East Foothill Boulevard,,Azusa,CA,,,34.13349647000,-117.89196602000,,,,,,,,,,,,,,,,,,,,,,,,,,
Roosevelt Elementary,700 N Bradfield,,Compton,CA,,,33.90030428000,-118.20404633000,,,,,,,,,,,,,,,,,,,,,,,,,,
Moringa Farms Inc,17446 Cohasset Street,,Van Nuys,CA,,,34.20682368000,-118.51338924000,,,,,,,,,,,,,,,,,,,,,,,,,,
Rosa Parks Elementary,3898 Agnes Avenue,,Lynwood,CA,,,33.91718697000,-118.20184298000,,,,,,,,,,,,,,,,,,,,,,,,,,
Moss Factory,1895 262nd Street,,Lomita,CA,,,33.78522815000,-118.31246984000,,,,,,,,,,,,,,,,,,,,,,,,,,
Pacifica Montessori,6585 Green Valley Circle,,Culver City,CA,,,33.97889054000,-118.38555043000,,,,,,,,,,,,,,,,,,,,,,,,,,
Milo'S Plants 2 U,33650 Sierra Vallejo Road,,Santa Clarita,CA,,,34.51194177000,-118.35302646000,,,,,,,,,,,,,,,,,,,,,,,,,,
"Mimosa Nursery, La",6270 Allston Street,,Los Angeles,CA,,,34.01520644000,-118.13676998000,,,,,,,,,,,,,,,,,,,,,,,,,,
Playa Del Rey Elementary,12221 Juniette St,,Los Angeles,CA,,,33.98200412000,-118.40967541000,,,,,,,,,,,,,,,,,,,,,,,,,,
N.K. Nursery,780 South Stimson Avenue,,Hacienda Heights,CA,,,34.01190673000,-117.95449632000,,,,,,,,,,,,,,,,,,,,,,,,,,
Schurr High,820 North Wilcox Avenue,,Montebello,CA,,,34.02915001000,-118.12439944000,,,,,,,,,,,,,,,,,,,,,,,,,,
Nagel Landscape Nursery,6432 Busch Drive,,Malibu,CA,,,34.01817139000,-118.81858658000,,,,,,,,,,,,,,,,,,,,,,,,,,
"Nakayama Nursery, Incorporated",1341 West 141st Street,,Gardena,CA,,,33.90380132000,-118.29969614000,,,,,,,,,,,,,,,,,,,,,,,,,,
St. Cornelius School,3300 N Bellflower Blvd,,Long Beach,CA,,,33.81805037000,-118.12499589000,,,,,,,,,,,,,,,,,,,,,,,,,,
Neighborhood Garden Succulent Nursery,1924 N. Van Ness Ave,,Los Angeles,CA,,,34.10603997000,-118.31581605000,,,,,,,,,,,,,,,,,,,,,,,,,,
St. Paul'S Elementary,11330 McCormick Street,,North Hollywood,CA,,,34.16591275000,-118.37819004000,,,,,,,,,,,,,,,,,,,,,,,,,,
Orchid Garden,2506 Ardmore Avenue,,Hermosa Beach,CA,,,33.87233798000,-118.39820436000,,,,,,,,,,,,,,,,,,,,,,,,,,
St. Stephen'S Episcopal Church,6125 Carlos Avenue,,Los Angeles,CA,,,34.10284761000,-118.32325907000,,,,,,,,,,,,,,,,,,,,,,,,,,
Nick'S Nursery,11800 Roscoe Boulevard,,Sun Valley,CA,,,34.22159709000,-118.39095871000,,,,,,,,,,,,,,,,,,,,,,,,,,
Stars Tutoring,1480 East Washington Blvd.┬á,,Pasadena,CA,,,34.16905682000,-118.12006145000,,,,,,,,,,,,,,,,,,,,,,,,,,
Pansy Corporation,9433 Lemon Avenue,,Temple City,CA,,,34.11700752000,-118.06607301000,,,,,,,,,,,,,,,,,,,,,,,,,,
Sycamore School,3504 Las Flores Canyon Road,,Malibu,CA,,,34.04575110000,-118.63900903000,,,,,,,,,,,,,,,,,,,,,,,,,,
"Nuccio'S Nurseries, Incorporated",3555 Chaney Trail,,Altadena,CA,,,34.20560105000,-118.14870257000,,,,,,,,,,,,,,,,,,,,,,,,,,
Sylmar High,13050 Borden Ave.,,Sylmar,CA,,,34.30725459000,-118.44282835000,,,,,,,,,,,,,,,,,,,,,,,,,,
Mount San Antonio College,1100 North Grand Avenue,,Walnut,CA,,,34.04315199000,-117.84770927000,,,,,,,,,,,,,,,,,,,,,,,,,,
San Pedro Mst Center,2201 Barrywood Ave.,,San Pedro,CA,,,33.76488633000,-118.29638217000,,,,,,,,,,,,,,,,,,,,,,,,,,
Santa Monica College Organic Learning Garden,1900 Pico Blvd,,Santa Monica,CA,,,34.01895646000,-118.47039047000,,,,,,,,,,,,,,,,,,,,,,,,,,
Santa Monica High,601 Pico Blvd.,,Santa Monica,CA,,,34.01124450000,-118.48510721000,,,,,,,,,,,,,,,,,,,,,,,,,,
"Peter'S Garden Center, Incorporated",814 North Pacific Coast Highway,,Redondo Beach,CA,,,33.85353341000,-118.38985070000,,,,,,,,,,,,,,,,,,,,,,,,,,
Venice High Learning Garden,13000 Venice Blvd,,Los Angeles,CA,,,33.99886571000,-118.44294635000,,,,,,,,,,,,,,,,,,,,,,,,,,
Orchids De Oro,5939 Rodeo Road,,Los Angeles,CA,,,34.02196658000,-118.37725440000,,,,,,,,,,,,,,,,,,,,,,,,,,
Vista Del Valle Elementary,550 Vista Drive,,Claremont,CA,,,34.08671105000,-117.72172852000,,,,,,,,,,,,,,,,,,,,,,,,,,
Pacific Epiphyllum Nursery,13929 Merced Avenue,,Baldwin Park,CA,,,34.07943463000,-117.97069265000,,,,,,,,,,,,,,,,,,,,,,,,,,
Pacific Nursery,15824 St. Andrews Pl.,,Gardena,CA,,,33.88749505000,-118.31143810000,,,,,,,,,,,,,,,,,,,,,,,,,,
"Padua Tropicals, Llc",1650 Monte Vista Avenue,,Claremont,CA,,,34.11305174000,-117.69831636000,,,,,,,,,,,,,,,,,,,,,,,,,,
Walt Disney Elementary,1220 West Orange Ave,,Burbank,CA,,,34.16985719000,-118.32183851000,,,,,,,,,,,,,,,,,,,,,,,,,,
Webster Middle,11330 Graham Pl,,Los Angeles,CA,,,34.03031028000,-118.43492641000,,,,,,,,,,,,,,,,,,,,,,,,,,
Palm Depot,Cantaberry and Sunburst Under Power Line,,Pacoima,CA,,,34.25402230000,-118.42226277000,,,,,,,,,,,,,,,,,,,,,,,,,,
Westchester High,7400 W. Manchester Ave.,,Playa del Rey,CA,,,33.95967275000,-118.42849973000,,,,,,,,,,,,,,,,,,,,,,,,,,
"Palm Growers, Incorporated",17020 Downey Road,,Bellflower,CA,,,33.87969959000,-118.15126872000,,,,,,,,,,,,,,,,,,,,,,,,,,
Westminster Ave. Elementary,1010 Abbot Kinney Blvd.,,Venice,CA,,,33.99211385000,-118.47220441000,,,,,,,,,,,,,,,,,,,,,,,,,,
"Peter'S Garden Center, Incorporated",830 North Maria Avenue,,Redondo Beach,CA,,,33.85417049000,-118.38687322000,,,,,,,,,,,,,,,,,,,,,,,,,,
Paramount Nursery,11944 Terra Vella,,Sylmar,CA,,,34.27630258000,-118.39354822000,,,,,,,,,,,,,,,,,,,,,,,,,,
Topanga Elementary,22075 Topanga School Road,,Topanga,CA,,,34.09178749000,-118.60375383000,,,,,,,,,,,,,,,,,,,,,,,,,,
Performance Nursery,2500 Manhattan Beach Boulevard,,Redondo Beach,CA,,,33.88729507000,-118.36639001000,,,,,,,,,,,,,,,,,,,,,,,,,,
Kane's Family Farm,2045 Tumin Rd.,,La Habra,CA,,,33.95970422000,-117.94058842000,,,,,,,,,,,,,,,,,,,,,,,,,,
Rio Verde Nursery,14809 Downey Avenue,,Paramount,CA,,,33.89909550000,-118.15155839000,,,,,,,,,,,,,,,,,,,,,,,,,,
Wilshire Crest Elementary,5241 W. Olympic Blvd.,,Los Angeles,CA,,,34.05727809000,-118.34417899000,,,,,,,,,,,,,,,,,,,,,,,,,,
"Premium Trees, Llc",2600 Lincoln Drive,,Montebello,CA,,,34.01105425000,-118.11236119000,,,,,,,,,,,,,,,,,,,,,,,,,,
San Antonio Nursery,3250 East California Boulevard,,Pasadena,CA,,,34.13580534000,-118.08374944000,,,,,,,,,,,,,,,,,,,,,,,,,,
Ricardo'S Nursery,6850 Atlantic Avenue,,Long Beach,CA,,,33.87878227000,-118.18598898000,,,,,,,,,,,,,,,,,,,,,,,,,,
San Antonio Nursery,11753 Wicks Street,,Sun Valley,CA,,,34.23742197000,-118.38913102000,,,,,,,,,,,,,,,,,,,,,,,,,,
Leffingwell Elementary,10625 Santa Gertrudes Ave,,Whittier,CA,,,33.93864094000,-117.99315222000,,,,,,,,,,,,,,,,,,,,,,,,,,
Rj'S Demolition & Disposal,1135 E. Florence Ave,,Inglewood,CA,,,33.97450750000,-118.33602967000,,,,,,,,,,,,,,,,,,,,,,,,,,
Roots Brothers Grows,6537 Valjean Avenue,,Van Nuys,CA,,,34.18969053000,-118.48590277000,,,,,,,,,,,,,,,,,,,,,,,,,,
Rj'S Demolition & Disposal,599 W. 135 Street,,Gardena,CA,,,33.90919071000,-118.28472818000,,,,,,,,,,,,,,,,,,,,,,,,,,
Hoover Middle School,3501 Country Club Dr,,Lakewood,CA,,,33.83975754000,-118.15149310000,,,,,,,,,,,,,,,,,,,,,,,,,,
Rox Garden,235 Pasadena Ave,,Tustin,CA,,,33.74371115000,-117.83258664000,,,,,,,,,,,,,,,,,,,,,,,,,,
Options Headstart - Puente,423 Shipman Avenue,,La Puente,CA,,,34.01276624000,-117.91315057000,,,,,,,,,,,,,,,,,,,,,,,,,,
Pine Hills Nursery,1707 S. Del Mar,,Rosemead,CA,,,34.04981639000,-118.09898113000,,,,,,,,,,,,,,,,,,,,,,,,,,
Wild Wood Nursery,115 Castleton Drive,,Claremont,CA,,,34.08558858000,-117.71566979000,,,,,,,,,,,,,,,,,,,,,,,,,,
"Pegoji Nursery, Incorporated",15503 Roxford Street,,Sylmar,CA,,,34.31305211000,-118.46981309000,,,,,,,,,,,,,,,,,,,,,,,,,,
Pedro Perez-E-P. Nursery,11378 Gaviota Avenue,,Granada Hills,CA,,,34.27742103000,-118.48235541000,,,,,,,,,,,,,,,,,,,,,,,,,,
"Sakaida Nursery, Incorporated",6544 North Vista,,San Gabriel,CA,,,34.11831781000,-118.08387317000,,,,,,,,,,,,,,,,,,,,,,,,,,
Wilshire Blvd Temple Garden,3663 Wilshire Boulevard,,Los Angeles,CA,,,34.06175835000,-118.30491960000,,,,,,,,,,,,,,,,,,,,,,,,,,
"San Gabriel Nursery And Florists, Incorporated",632 South San Gabriel Boulevard,,San Gabriel,CA,,,34.09445120000,-118.09087645000,,,,,,,,,,,,,,,,,,,,,,,,,,
"San Gabriel Nursery And Florists, Incorporated",736 South San Gabriel Boulevard,,San Gabriel,CA,,,34.09379995000,-118.09087271000,,,,,,,,,,,,,,,,,,,,,,,,,,
Newmark High,134 Witmaer Street,,Los Angeles,CA,,,34.06128197000,-118.26128573000,,,,,,,,,,,,,,,,,,,,,,,,,,
Plumeria Alegria,5842 Candlewood St.,,Lakewood,CA,,,33.85359292000,-118.11835942000,,,,,,,,,,,,,,,,,,,,,,,,,,
Shima Nursery Wholesale Growers,8625 East Grand Avenue,,Rosemead,CA,,,34.09181571000,-118.08104852000,,,,,,,,,,,,,,,,,,,,,,,,,,
La Merced Elementary,215 E Avenida de La Merced,,Montebello,CA,,,34.02365279000,-118.09472191000,,,,,,,,,,,,,,,,,,,,,,,,,,
"Sakaida Nursery, Incorporated",8626 East Grand Avenue,,Rosemead,CA,,,34.09176205000,-118.08101750000,,,,,,,,,,,,,,,,,,,,,,,,,,
Salazar'S Nursery,9090 Laurel Canyon Blvd.,,Sun Valley,CA,,,34.23516764000,-118.40708248000,,,,,,,,,,,,,,,,,,,,,,,,,,
Walnut Grove,614 E. Vine Ave,,West Covina,CA,,,34.05767320000,-117.93294960000,,,,,,,,,,,,,,,,,,,,,,,,,,
"Sakaida Nursery, Incorporated",Longden and North Burton Avenues,,San Gabriel,CA,,,34.11625722000,-118.08346701000,,,,,,,,,,,,,,,,,,,,,,,,,,
"Salco Growers, Incorporated",6236 Bellflower Boulevard,,Lakewood,CA,,,33.86833716000,-118.12506883000,,,,,,,,,,,,,,,,,,,,,,,,,,
Rosa Parks Elementary School,3900 Agnes Street,,Lynwood,CA,,,33.91712808000,-118.20163866000,,,,,,,,,,,,,,,,,,,,,,,,,,
"Pro Growers, Incorporated",8308 Scout Avenue,,Bell Gardens,CA,,,33.95478577000,-118.15749694000,,,,,,,,,,,,,,,,,,,,,,,,,,
Shima Nursery Wholesale Growers,8500 Marshall Street,,Rosemead,CA,,,34.07486588000,-118.08370767000,,,,,,,,,,,,,,,,,,,,,,,,,,
Rain Shadow Designs,16600 Runnymede St.,,Van Nuys,CA,,,34.20619313000,-118.49479919000,,,,,,,,,,,,,,,,,,,,,,,,,,
Plants And Fruit Trees By Ramos,80406 Pico Vista Road,,Pico Rivera,CA,,,33.97848199000,-118.08446400000,,,,,,,,,,,,,,,,,,,,,,,,,,
Monte Vista School,1615 West Eldred Ave,,West Covina,CA,,,34.08165845000,-117.94062805000,,,,,,,,,,,,,,,,,,,,,,,,,,
Sahara Nursery,14848 East Avenue J,,Lancaster,CA,,,34.69006358000,-117.86524918000,,,,,,,,,,,,,,,,,,,,,,,,,,
"Plascencia Nursery, Incorporated",12920 Ramona Boulevard,,Baldwin Park,CA,,,34.07938206000,-117.99012770000,,,,,,,,,,,,,,,,,,,,,,,,,,
Ramirez Cactus Canteen And Trading Post,3656 Pearblossom Highway,,Palmdale,CA,,,34.54271267000,-118.06375945000,,,,,,,,,,,,,,,,,,,,,,,,,,
East Whittier Middle School,14421 Whittier Bl,,Whittier,CA,,,33.95445131000,-118.01716870000,,,,,,,,,,,,,,,,,,,,,,,,,,
Santa Catalina Island Conservancy,200 Middle Ranch Road,,Avalon,CA,,,33.37508988000,-118.47690674000,,,,,,,,,,,,,,,,,,,,,,,,,,
Rancho Foothill Nursery,3717 Fruit Street,,La Verne,CA,,,34.11247143000,-117.76173600000,,,,,,,,,,,,,,,,,,,,,,,,,,
Jefferson Elementary-Glendale,1540 Fifth Street,,Glendale,CA,,,34.17027886000,-118.28578902000,,,,,,,,,,,,,,,,,,,,,,,,,,
Rancho Santa Ana Botanic Garden,1500 North College Avenue,,Claremont,CA,,,34.11116658000,-117.71408280000,,,,,,,,,,,,,,,,,,,,,,,,,,
Santy Orchids,3172 Marwick Avenue,,Long Beach,CA,,,33.81448038000,-118.12241659000,,,,,,,,,,,,,,,,,,,,,,,,,,
Saul Medrano Jimenez,585 Glenoaks Boulevard,,San Fernando,CA,,,34.28747228000,-118.42625484000,,,,,,,,,,,,,,,,,,,,,,,,,,
Senna Tree Company,11523 Mount Gleason,,Tujunga,CA,,,34.26349668000,-118.30269785000,,,,,,,,,,,,,,,,,,,,,,,,,,
Shear Rock Farms,329 W. Elm Avenue,,Burbank,CA,,,34.16465282000,-118.30717022000,,,,,,,,,,,,,,,,,,,,,,,,,,
Shemesh Organic Farm,34342 Mulholland Hwy,,Malibu,CA,,,34.08726344000,-118.89851680000,,,,,,,,,,,,,,,,,,,,,,,,,,
Sofia'S Nursery,508 East Lemon Avenue,,Monrovia,CA,,,34.14706279000,-117.99318952000,,,,,,,,,,,,,,,,,,,,,,,,,,
"Temple Garden Center, Incorporated",11237 Lower Azusa Road,,El Monte,CA,,,34.09170488000,-118.02206135000,,,,,,,,,,,,,,,,,,,,,,,,,,
"Shinkle & Sons Greenhouses, Inc. Dba Petunia Patch",10150 Foothill Boulevard,,Sylmar,CA,,,34.27295298000,-118.35006254000,,,,,,,,,,,,,,,,,,,,,,,,,,
The Cook'S Garden,1033 Abbot Kinney Blvd.,,Venice,CA,,,33.99200779000,-118.47140370000,,,,,,,,,,,,,,,,,,,,,,,,,,
Shima Nursery Wholesale Growers,8527 Valley Boulevard,,Rosemead,CA,,,34.08052789000,-118.08272013000,,,,,,,,,,,,,,,,,,,,,,,,,,
"Rainforest Flora, Incorporated",19121 Hawthorne Boulevard,,Torrance,CA,,,33.85797291000,-118.35379904000,,,,,,,,,,,,,,,,,,,,,,,,,,
Castelar Early Education Center,840 Yale Street,,Los Angeles,CA,,,34.06431667000,-118.24021108000,,,,,,,,,,,,,,,,,,,,,,,,,,
Sofia'S Nursery,2137 East Huntington Drive,,Duarte,CA,,,34.13981068000,-117.95883810000,,,,,,,,,,,,,,,,,,,,,,,,,,
Stanford Nursery,1130 Stanford Street,,Compton,CA,,,33.89583501000,-118.22441927000,,,,,,,,,,,,,,,,,,,,,,,,,,
Succulents With Love,20263 Oxnard Street,,Woodland Hills,CA,,,34.17814722000,-118.57535646000,,,,,,,,,,,,,,,,,,,,,,,,,,
Sunland Water Gardens,9948 Sunland Boulevard,,Sun Valley,CA,,,34.25206895000,-118.34548883000,,,,,,,,,,,,,,,,,,,,,,,,,,
Sunnyslope Garden Nursery Inc,8638 Huntington Drive,,San Gabriel,CA,,,34.12937369000,-118.08064551000,,,,,,,,,,,,,,,,,,,,,,,,,,
Sunshine Growers,16411 Wedgeworth Avenue,,Hacienda Heights,CA,,,33.99760198000,-117.94929012000,,,,,,,,,,,,,,,,,,,,,,,,,,
Sunshine Nursery,8500 Dorothy Street,,Rosemead,CA,,,34.06773613000,-118.08359742000,,,,,,,,,,,,,,,,,,,,,,,,,,
Suthum Chantasirivisal,22500 Soledad Canyon Road,,Santa Clarita,CA,,,34.41590722000,-118.52613303000,,,,,,,,,,,,,,,,,,,,,,,,,,
"T.Y. Nursery, Incorporated",190th And Anza,,Redondo Beach,CA,,,33.85827235000,-118.36547954000,,,,,,,,,,,,,,,,,,,,,,,,,,
Tabuchi Nursery,2001 Sawtelle Boulevard,,Los Angeles,CA,,,34.04084076000,-118.44361187000,,,,,,,,,,,,,,,,,,,,,,,,,,
The Growing Experience,1000 Via Wanda Avenue,,Long Beach,CA,,,33.86278120000,-118.17551173000,,,,,,,,,,,,,,,,,,,,,,,,,,
"Tierra Blanca, Incorporated",2800 Royal Oaks Drive,,Duarte,CA,,,34.14451447000,-117.94410195000,,,,,,,,,,,,,,,,,,,,,,,,,,
"Tierra Blanca, Incorporated",170 S. Kinneloa Ave,,Pasadena,CA,,,34.14346688000,-118.08627485000,,,,,,,,,,,,,,,,,,,,,,,,,,
"The Jungle Nursery, Inc",2007 S. Hughes Way,,El Segundo,CA,,,33.90887300000,-118.39118885000,,,,,,,,,,,,,,,,,,,,,,,,,,
The Nursery,18800 Erwin Street,,Reseda,CA,,,34.18385349000,-118.54282426000,,,,,,,,,,,,,,,,,,,,,,,,,,
,1811 Parkway Dr. S,,South El Monte,CA,,,34.03948554000,-118.02818447000,,,,,,,,,,,,,,,,,,,,,,,,,,
Soto Nursery,600 West Alondra Boulevard,,Gardena,CA,,,33.88536988000,-118.28579507000,,,,,,,,,,,,,,,,,,,,,,,,,,
Southern California Contractors,356 South 4th Ave.,,La Puente,CA,,,34.03791996000,-117.98945869000,,,,,,,,,,,,,,,,,,,,,,,,,,
Specialized Growers,8406 Pico Vista Road,,Pico Rivera,CA,,,33.95707451000,-118.09024677000,,,,,,,,,,,,,,,,,,,,,,,,,,
"Sperling Enterprises, Inc. Dba Sperling Nursery",24460 Calabasas Road,,Calabasas,CA,,,34.15031343000,-118.66017488000,,,,,,,,,,,,,,,,,,,,,,,,,,
Tropical Gardens,11428 South Shoemaker Avenue,,Santa Fe Springs,CA,,,33.92774302000,-118.05519809000,,,,,,,,,,,,,,,,,,,,,,,,,,
"Ultra Greens, Incorporated",13102 Maclay,,Sylmar,CA,,,34.29963115000,-118.41892068000,,,,,,,,,,,,,,,,,,,,,,,,,,
U.V.A. Nursery,19033 Anelo Avenue,,Gardena,CA,,,33.85721524000,-118.28280558000,,,,,,,,,,,,,,,,,,,,,,,,,,
United Plant Growers,5150 Knoxville Avenue,,Lakewood,CA,,,33.85143103000,-118.10419337000,,,,,,,,,,,,,,,,,,,,,,,,,,
United Plant Growers,3655 Caspian Avenue,,Long Beach,CA,,,33.82293366000,-118.21277068000,,,,,,,,,,,,,,,,,,,,,,,,,,
Valley Sod Farms,16405 Chase Street,,North Hills,CA,,,34.22482747000,-118.49130962000,,,,,,,,,,,,,,,,,,,,,,,,,,
"Valley Crest Tree Company, Incorporated",9500 Foothill Boulevard,,Sunland,CA,,,34.26788646000,-118.33608795000,,,,,,,,,,,,,,,,,,,,,,,,,,
Valley Sod Farms,16500 Roscoe,,North Hills,CA,,,34.22126304000,-118.49498143000,,,,,,,,,,,,,,,,,,,,,,,,,,
Vargas Nursery,17000 Passage Avenue,,Bellflower,CA,,,33.87972191000,-118.14845590000,,,,,,,,,,,,,,,,,,,,,,,,,,
Vasquez Nursery,1270 Highland Ave,,Duarte,CA,,,34.13875196000,-117.96660038000,,,,,,,,,,,,,,,,,,,,,,,,,,
Violet Perfection,1420 Oxford Avenue,,Claremont,CA,,,34.11021370000,-117.72371072000,,,,,,,,,,,,,,,,,,,,,,,,,,
West Covina Wholesale Nursery,2061 Wright Avenue Suite A2,,La Verne,CA,,,34.09507629000,-117.77302866000,,,,,,,,,,,,,,,,,,,,,,,,,,
West Covina Wholesale Nursery,West of Fairplex Dr. on Puddingstone Dr.,,La Verne,CA,,,34.11859796000,-117.77301209000,,,,,,,,,,,,,,,,,,,,,,,,,,
West Covina Wholesale Nursery,2820 Amherst,,La Verne,CA,,,34.11613680000,-117.75238767000,,,,,,,,,,,,,,,,,,,,,,,,,,
West Covina Wholesale Nursery,5815 Burton,,San Gabriel,CA,,,34.08810813000,-118.09338192000,,,,,,,,,,,,,,,,,,,,,,,,,,
Tierra Eagle Canyon Nursery,41007 12th Street West,,Palmdale,CA,,,34.62770329000,-118.15215671000,,,,,,,,,,,,,,,,,,,,,,,,,,
Tops Nursery,18809 Calvert Street,,Reseda,CA,,,34.18183842000,-118.54271956000,,,,,,,,,,,,,,,,,,,,,,,,,,
Torrance Wholesale Nursery,18901 Ermanita Avenue,,Torrance,CA,,,33.85905015000,-118.33252822000,,,,,,,,,,,,,,,,,,,,,,,,,,
Two Dog Organic Nursery,914 South Cloverdale Avenue,,Los Angeles,CA,,,34.05846925000,-118.34765923000,,,,,,,,,,,,,,,,,,,,,,,,,,
Wilson Elementary,8317 Sheffield Rd,,San Gabriel,CA,,,34.11713645000,-118.08852930000,,,,,,,,,,,,,,,,,,,,,,,,,,
Aldama Elementary,632 North Avenue 50,,Los Angeles,CA,,,34.10988719000,-118.20577484000,,,,,,,,,,,,,,,,,,,,,,,,,,
All Peoples Christian Center High,822 E. 20th Street,,Los Angeles,CA,,,34.02607478000,-118.25662160000,,,,,,,,,,,,,,,,,,,,,,,,,,
Longfellow Elementary,6005 S. Magnolia Ave,,Whittier,CA,,,33.98820214000,-118.05034154000,,,,,,,,,,,,,,,,,,,,,,,,,,
Highland Elementary,430 Venice Way,,Inglewood,CA,,,33.97273890000,-118.36281314000,,,,,,,,,,,,,,,,,,,,,,,,,,
Annalee Ave Elementary,19410 South Annalee Avenue,,Carson,CA,,,33.85480307000,-118.25290873000,,,,,,,,,,,,,,,,,,,,,,,,,,
Evergreen High School,13101 Dronfield Street,,Sylmar,CA,,,34.30900869000,-118.43880884000,,,,,,,,,,,,,,,,,,,,,,,,,,
Annandale Elementary,6125 Poppy Peak Drive,,Los Angeles,CA,,,34.12843777000,-118.18646660000,,,,,,,,,,,,,,,,,,,,,,,,,,
Vanguard Learning Center,13305 San Pedro Street,,Los Angeles,CA,,,33.91149780000,-118.26968739000,,,,,,,,,,,,,,,,,,,,,,,,,,
Marshall Middle School,5860 East Wardlow Road,,Long Beach,CA,,,33.81872157000,-118.11751843000,,,,,,,,,,,,,,,,,,,,,,,,,,
Aveson Charter & Elementary,1919 E. Pinecrest,,Altadena,CA,,,34.19161856000,-118.11185526000,,,,,,,,,,,,,,,,,,,,,,,,,,
El Portal Elementary,200 North Nada Street,,La Habra,CA,,,33.93379921000,-117.96609230000,,,,,,,,,,,,,,,,,,,,,,,,,,
Balboa Elementary,17020 Labrador St,,Northridge,CA,,,34.24910009000,-118.50319144000,,,,,,,,,,,,,,,,,,,,,,,,,,
Mountainview Elementary,22201 West Cypress Place,,Santa Clarita,CA,,,34.47119558000,-118.52261613000,,,,,,,,,,,,,,,,,,,,,,,,,,
Willenberg Ctc,1300 W. 7th Street,,San Pedro,CA,,,33.73793934000,-118.30389166000,,,,,,,,,,,,,,,,,,,,,,,,,,
Willenberg Ctc,308 Weymouth Avenue,,San Pedro,CA,,,33.74193931000,-118.30996285000,,,,,,,,,,,,,,,,,,,,,,,,,,
"Zuma Canyon Orchids, Incorporated",5949 Bonsall Drive,,Malibu,CA,,,34.02613888000,-118.81286271000,,,,,,,,,,,,,,,,,,,,,,,,,,
Aeolian Elementary,11600 Aeolian St,,Whittier,CA,,,33.96621365000,-118.06787956000,,,,,,,,,,,,,,,,,,,,,,,,,,
Billy Mitchell Elementary,14429 Condon Avenue,,Lawndale,CA,,,33.90059921000,-118.35952925000,,,,,,,,,,,,,,,,,,,,,,,,,,
Optimal Christian Academy,1300 East Palmer Street,,Compton,CA,,,33.89830344000,-118.20911965000,,,,,,,,,,,,,,,,,,,,,,,,,,
Macy Intermediate,2101 South Lupine Avenue,,Monterey Park,CA,,,34.04041140000,-118.12453240000,,,,,,,,,,,,,,,,,,,,,,,,,,
Blair Middle & High,1201 S. Marengo Ave.,,Pasadena,CA,,,34.12550389000,-118.14580944000,,,,,,,,,,,,,,,,,,,,,,,,,,
Laguna Nueva,6350 Garifield,,Los Angeles,CA,,,33.97470795000,-118.14626672000,,,,,,,,,,,,,,,,,,,,,,,,,,
Park Elementary,301 North Marengo Ave,,Alhambra,CA,,,34.09533113000,-118.14208167000,,,,,,,,,,,,,,,,,,,,,,,,,,
Brentwood Science Magnet Elementary,740 Gretna Greenway,,Los Angeles,CA,,,34.06808519000,-118.48126053000,,,,,,,,,,,,,,,,,,,,,,,,,,
Captain Raymond Collins School (Captain Ray'S Corral),6125 Coke Avenue,,Long Beach,CA,,,33.86626648000,-118.14717944000,,,,,,,,,,,,,,,,,,,,,,,,,,
Whittier Christian Newlin,6548 South Newling,,Whittier,CA,,,34.01079265000,-118.04963934000,,,,,,,,,,,,,,,,,,,,,,,,,,
Puc Excel Charter Academy,1855 North Main Street,,Los Angeles,CA,,,34.06641661000,-118.22025427000,,,,,,,,,,,,,,,,,,,,,,,,,,
Thomas Starr King Middle School,4201 Fountain Avenue,,Los Angeles,CA,,,34.09582768000,-118.28081897000,,,,,,,,,,,,,,,,,,,,,,,,,,
Burbank Community Day,241 East Santa Anita Avenue,,Burbank,CA,,,34.17868219000,-118.30407926000,,,,,,,,,,,,,,,,,,,,,,,,,,
Balboa Gifted/ High Ability Magnet School,17020 Labrador St.,,Northridge,CA,,,34.24910009000,-118.50319144000,,,,,,,,,,,,,,,,,,,,,,,,,,
Calvert Charter,19850 Delano St,,Woodland Hills,CA,,,34.18237340000,-118.56513951000,,,,,,,,,,,,,,,,,,,,,,,,,,
Inglewood High Continuation,10500 South Yukon Avenue,,Inglewood,CA,,,33.95773506000,-118.36059008000,,,,,,,,,,,,,,,,,,,,,,,,,,
Grandview Middle School,795 North Grandview Lane,,La Puente,CA,,,34.02983669000,-117.92215599000,,,,,,,,,,,,,,,,,,,,,,,,,,
Bethune Middle,155 West 69th St.,,Los Angeles,CA,,,33.97738750000,-118.27605899000,,,,,,,,,,,,,,,,,,,,,,,,,,
Richland Avenue Elementary School,11562 Richland Avenue,,Los Angeles,CA,,,34.02869487000,-118.44014561000,,,,,,,,,,,,,,,,,,,,,,,,,,
6Th Avenue Elementary School,3109 6th Ave.,,Los Angeles,CA,,,34.02662024000,-118.32363203000,,,,,,,,,,,,,,,,,,,,,,,,,,
Community Magnet Charter School,11301 Bellagio Road,,Los Angeles,CA,,,34.08176582000,-118.46238028000,,,,,,,,,,,,,,,,,,,,,,,,,,
Castle Heights Elementary,9755 Cattaraugus Avenue,,Los Angeles,CA,,,34.03735818000,-118.39837685000,,,,,,,,,,,,,,,,,,,,,,,,,,
Carthay School Of Environmental Studies Magnet,6351 W. Olmpic Blvd.,,Los Angeles,CA,,,34.05883756000,-118.36922719000,,,,,,,,,,,,,,,,,,,,,,,,,,
Center Street Elementary,700 Center Street,,El Segundo,CA,,,33.92515060000,-118.40484260000,,,,,,,,,,,,,,,,,,,,,,,,,,
Atwater Avenue Elementary School,3271 Silver Lake Blvd.,,Los Angeles,CA,,,34.11468347000,-118.25369848000,,,,,,,,,,,,,,,,,,,,,,,,,,
Weizmann Day School,1434 N. Altadena Drive,,Altadena,CA,,,34.19057650000,-118.12034715000,,,,,,,,,,,,,,,,,,,,,,,,,,
Sch Central High,11965 Allin St.,,Culver City,CA,,,33.99168377000,-118.41293770000,,,,,,,,,,,,,,,,,,,,,,,,,,
Bryson Elementary School,4470 Missouri Ave.,,South Gate,CA,,,33.94498370000,-118.19266251000,,,,,,,,,,,,,,,,,,,,,,,,,,
John Adams Middle School,2425 16th street,,Santa Monica,CA,,,34.01278202000,-118.46994913000,,,,,,,,,,,,,,,,,,,,,,,,,,
Charnock Road Elementary,11133 Charnock Road,,Los Angeles,CA,,,34.01729492000,-118.41955319000,,,,,,,,,,,,,,,,,,,,,,,,,,
La Petite Academy,1709 E Palmdale Blvd,,Palmdale,CA,,,34.57968764000,-118.09805955000,,,,,,,,,,,,,,,,,,,,,,,,,,
Calvert Street Elementary School,19850 Delano St,,Woodland Hills,CA,,,34.18237340000,-118.56513951000,,,,,,,,,,,,,,,,,,,,,,,,,,
Gregg Anderson Academy,5151 West Avenue N-8,,Palmdale,CA,,,34.62361534000,-118.22160468000,,,,,,,,,,,,,,,,,,,,,,,,,,
Captain Ray Collins Elementary,6125 Coke Avenue,,Long Beach,CA,,,33.86626648000,-118.14717944000,,,,,,,,,,,,,,,,,,,,,,,,,,
Monroe Elementary,402 West Colorado Blvd.,,Monrovia,CA,,,34.14578491000,-118.00764824000,,,,,,,,,,,,,,,,,,,,,,,,,,
Larchmont Charter School-Hollygrove,815 N El Centro,,Los Angeles,CA,,,34.08568313000,-118.32446780000,,,,,,,,,,,,,,,,,,,,,,,,,,
Carthay Center Elementary,6351 W Olympic Blvd,,Los Angeles,CA,,,34.05883756000,-118.36922719000,,,,,,,,,,,,,,,,,,,,,,,,,,
Delevan Drive Elementary School,4168 W. Ave 42,,Los Angeles,CA,,,34.12714754000,-118.22735772000,,,,,,,,,,,,,,,,,,,,,,,,,,
Westside Global Awareness Magnet,104 Anchorage st,,Marina del Rey,CA,,,33.97928394000,-118.46499298000,,,,,,,,,,,,,,,,,,,,,,,,,,
Dominguez High School,15301 S. San Jose Ave.,,Paramount,CA,,,33.89416217000,-118.18172325000,,,,,,,,,,,,,,,,,,,,,,,,,,
Marguerita School,Marguerita Ave.,,Alhambra,CA,,,34.09779885000,-118.13835573000,,,,,,,,,,,,,,,,,,,,,,,,,,
Eagle Rock Elementary,2057 Fair Park Ave,,Los Angeles,CA,,,34.13568731000,-118.21277473000,,,,,,,,,,,,,,,,,,,,,,,,,,
Marquez Charter School,16821Marquez Avenue,,Pacific Palisades,CA,,,34.04620089000,-118.53548506000,,,,,,,,,,,,,,,,,,,,,,,,,,
Eagle Rock Junior/Senior High School,1750 Yosemite Drive,,Los Angeles,CA,,,34.13328401000,-118.20548440000,,,,,,,,,,,,,,,,,,,,,,,,,,
John Muir Elementary School,2526 Sixth Street,,Santa Monica,CA,,,34.00575671000,-118.48045827000,,,,,,,,,,,,,,,,,,,,,,,,,,
Wilton Place Elementary,745 S WILTON PL,,Los Angeles,CA,,,34.05834105000,-118.31430204000,,,,,,,,,,,,,,,,,,,,,,,,,,
El Sereno Middle School,2839 N. Eastern Ave.,,Los Angeles,CA,,,34.07897131000,-118.17806159000,,,,,,,,,,,,,,,,,,,,,,,,,,
Young Oak Kim Academy,615 S SHATTO PL,,Los Angeles,CA,,,34.06313860000,-118.28992636000,,,,,,,,,,,,,,,,,,,,,,,,,,
Foster Elementary School,1620 N. Paynes Ave.,,Compton,CA,,,33.90601329000,-118.20299735000,,,,,,,,,,,,,,,,,,,,,,,,,,
Magnolia Avenue Elementary,1626 S ORCHARD AVE,,Los Angeles,CA,,,34.04395799000,-118.28850696000,,,,,,,,,,,,,,,,,,,,,,,,,,
Gardner Street Elementary School,7450 Hawthorn Ave.,,Los Angeles,CA,,,34.09979278000,-118.35202994000,,,,,,,,,,,,,,,,,,,,,,,,,,
Berendo Middle,1157 S BERENDO ST,,Los Angeles,CA,,,34.04999009000,-118.29372245000,,,,,,,,,,,,,,,,,,,,,,,,,,
Citizen Of The World Charter,1316 N. Bronson Ave.,,Los Angeles,CA,,,34.09481018000,-118.31794662000,,,,,,,,,,,,,,,,,,,,,,,,,,
Olympic High School,721 Ocean Park Blvd,,Santa Monica,CA,,,34.00666618000,-118.47688462000,,,,,,,,,,,,,,,,,,,,,,,,,,
Crystal Stairs- Sullivan School,725 w. Raymond Street,,Compton,CA,,,33.88715757000,-118.23624947000,,,,,,,,,,,,,,,,,,,,,,,,,,
Rockdale Vapa Magnet,1303 Yosemite Drive,,Los Angeles,CA,,,34.13308703000,-118.19446557000,,,,,,,,,,,,,,,,,,,,,,,,,,
Rio Vista Elementary School,4243 Satsuma Avenue,,North Hollywood,CA,,,34.14707095000,-118.36738217000,,,,,,,,,,,,,,,,,,,,,,,,,,
Juan Cabrillo Elementary School,5309 W. 135th St.,,Hawthorne,CA,,,33.90949780000,-118.37295974000,,,,,,,,,,,,,,,,,,,,,,,,,,
Kester Avenue Elementary School,5353 Kester Ave.,,Van Nuys,CA,,,34.16758061000,-118.45749205000,,,,,,,,,,,,,,,,,,,,,,,,,,
Eagle Rock High School,1750 Yosemite Drive,,Los Angeles,CA,,,34.13328401000,-118.20548440000,,,,,,,,,,,,,,,,,,,,,,,,,,
Yorkdale Elementary School,6125 Poppy Peak Drive,,Los Angeles,CA,,,34.12843777000,-118.18646660000,,,,,,,,,,,,,,,,,,,,,,,,,,
Lenicia B. Weemes Elementary School,1260 West 36th Pl.,,Los Angeles,CA,,,34.02188357000,-118.29640781000,,,,,,,,,,,,,,,,,,,,,,,,,,
Loreto Elementary School,2211 W Ave 30,,Los Angeles,CA,,,34.10451896000,-118.23701522000,,,,,,,,,,,,,,,,,,,,,,,,,,
Lexington Avenue Primary Center School,4564 Lexington Ave.,,Los Angeles,CA,,,34.09343370000,-118.28836921000,,,,,,,,,,,,,,,,,,,,,,,,,,
Mt. Washington Elementary School,3981 San Rafael Avenue,,Los Angeles,CA,,,34.10438959000,-118.21563258000,,,,,,,,,,,,,,,,,,,,,,,,,,
Los Feliz Charter School For The Arts School,2709 Media Center Dr.,,Los Angeles,CA,,,34.10893745000,-118.24327406000,,,,,,,,,,,,,,,,,,,,,,,,,,
Lexington Avenue Primary School Center,4564 W Lexington Avenue,,Los Angeles,CA,,,34.09343733000,-118.28835156000,,,,,,,,,,,,,,,,,,,,,,,,,,
Los Feliz Elementary School,1740 N New Hampshire Ave.,,Los Angeles,CA,,,34.10259119000,-118.29330636000,,,,,,,,,,,,,,,,,,,,,,,,,,
Atwater Elementary School,3271 Silver Lake Blvd.,,Los Angeles,CA,,,34.11468347000,-118.25369848000,,,,,,,,,,,,,,,,,,,,,,,,,,
Luther Burbank Middle School,6460 N FIigueroa St.,,Los Angeles,CA,,,34.11986304000,-118.18365653000,,,,,,,,,,,,,,,,,,,,,,,,,,
Rosewood Elementary,503 N CROFT AVE,,Los Angeles,CA,,,34.08109084000,-118.37426224000,,,,,,,,,,,,,,,,,,,,,,,,,,
Hollenbeck Middle School,2510 6th St,,Los Angeles,CA,,,34.03690861000,-118.21250365000,,,,,,,,,,,,,,,,,,,,,,,,,,
Canfield Avenue Elementary,9233 AIRDROME ST,,Los Angeles,CA,,,34.04978729000,-118.39050376000,,,,,,,,,,,,,,,,,,,,,,,,,,
John Marshall High School,3939 Tracy St.,,Los Angeles,CA,,,34.10835819000,-118.27859866000,,,,,,,,,,,,,,,,,,,,,,,,,,
El Sereno Elementary School,3838 Rosemead Avenue,,Los Angeles,CA,,,34.08989635000,-118.17754221000,,,,,,,,,,,,,,,,,,,,,,,,,,
Selma Avenue Elementary School,6611 Selma Ave,,Los Angeles,CA,,,34.09976830000,-118.33421263000,,,,,,,,,,,,,,,,,,,,,,,,,,
"A-G Sod Farms, Incorporated",40th street East and N,,Riverside,CA,,,33.93009686000,-117.35627902000,,,,,,,,,,,,,,,,,,,,,,,,,,
Alta Loma Elementary School,1745 Vineyard Avenue,,Los Angeles,CA,,,34.04240686000,-118.33886707000,,,,,,,,,,,,,,,,,,,,,,,,,,
South Gate Middle School,4100 Firestone Blvd,,South Gate,CA,,,33.95337312000,-118.19797262000,,,,,,,,,,,,,,,,,,,,,,,,,,
Kerry Olinger,3485 Greenwood Ave,,Los Angeles,CA,,,34.00605231000,-118.44728325000,,,,,,,,,,,,,,,,,,,,,,,,,,
Tenth Street Elementary,1000 Grattan Street,,Los Angeles,CA,,,34.04853319000,-118.27338412000,,,,,,,,,,,,,,,,,,,,,,,,,,
Rosewood Elementary School,North Croft Ave,,Los Angeles,CA,,,34.07853801000,-118.37424532000,,,,,,,,,,,,,,,,,,,,,,,,,,
Wr Powell Elementary School,1035 E Mauna Loa Avenue,,Azusa,CA,,,34.12512039000,-117.88659779000,,,,,,,,,,,,,,,,,,,,,,,,,,
Toland Way Elementary,4545 TOLAND WAY,,Los Angeles,CA,,,34.12085839000,-118.21675148000,,,,,,,,,,,,,,,,,,,,,,,,,,
Aldama Elementary School,632 N AVE 50,,Los Angeles,CA,,,34.10988719000,-118.20577484000,,,,,,,,,,,,,,,,,,,,,,,,,,
Glassell Park Elementary School,2211 W AVE 30,,Los Angeles,CA,,,34.10451896000,-118.23701522000,,,,,,,,,,,,,,,,,,,,,,,,,,
Westminster Elementary School,1010 Abbot Kinney Blvd,,Venice,CA,,,33.99211385000,-118.47220441000,,,,,,,,,,,,,,,,,,,,,,,,,,
Baldwin Hills G/Ha Magnet,5421 Rodeo Road,,Los Angeles,CA,,,34.02159802000,-118.36527957000,,,,,,,,,,,,,,,,,,,,,,,,,,
Carthay Center Elementary School,6351 W. Olympic Blvd.,,Los Angeles,CA,,,34.05883756000,-118.36922719000,,,,,,,,,,,,,,,,,,,,,,,,,,
Melrose Elementary School,731 N. Detroit St.,,Los Angeles,CA,,,34.08437994000,-118.34521281000,,,,,,,,,,,,,,,,,,,,,,,,,,
Ramona Elementary School,9351 Laurel St.,,Bellflower,CA,,,33.88298232000,-118.13525740000,,,,,,,,,,,,,,,,,,,,,,,,,,
La Leadership Academy Charter School,234 E. Avenue 33,,Los Angeles,CA,,,34.08329717000,-118.21091223000,,,,,,,,,,,,,,,,,,,,,,,,,,
East Los Angeles College,1301 Avenida Cesar Chavez,,Monterey Park,CA,,,34.03887906000,-118.14788842000,,,,,,,,,,,,,,,,,,,,,,,,,,
Pencil Tree Man,1595 Las Lunas St.,,Pasadena,CA,,,34.15658859000,-118.11755987000,,,,,,,,,,,,,,,,,,,,,,,,,,
Eliot Middle,2184 N Lake Ave,,Altadena,CA,,,34.18341530000,-118.13158739000,,,,,,,,,,,,,,,,,,,,,,,,,,
Emblem Academy,22635┬áW. Espuella Drive,,Santa Clarita,CA,,,34.42913673000,-118.53184973000,,,,,,,,,,,,,,,,,,,,,,,,,,
Enadia Way Elementary,22944 Enadia Way,,West Hills,CA,,,34.20002287000,-118.62760907000,,,,,,,,,,,,,,,,,,,,,,,,,,
Foshay Learning Center,3751 S. Harvard Blvd,,Los Angeles,CA,,,34.01918073000,-118.30620284000,,,,,,,,,,,,,,,,,,,,,,,,,,
Frank Del Olmo Elementary School,100 North New Hampshire Ave,,Los Angeles,CA,,,34.07292054000,-118.29289609000,,,,,,,,,,,,,,,,,,,,,,,,,,
Sch Glassell Park Elementary,2211 W. Ave 30,,Los Angeles,CA,,,34.10451896000,-118.23701522000,,,,,,,,,,,,,,,,,,,,,,,,,,
Glenfeliz Elementary,3955 Glenfeliz Blvd,,Los Angeles,CA,,,34.12238872000,-118.26784440000,,,,,,,,,,,,,,,,,,,,,,,,,,
Grand View Elementary,3951 Grand View Boulevard,,Los Angeles,CA,,,34.00182227000,-118.42889929000,,,,,,,,,,,,,,,,,,,,,,,,,,
Grant High School,13000 Oxnard Street,,Van Nuys,CA,,,34.17936286000,-118.41625011000,,,,,,,,,,,,,,,,,,,,,,,,,,
Greenspace At Macy Intermediate,2101 Lupine Avenue,,Monterey Park,CA,,,34.04041140000,-118.12453240000,,,,,,,,,,,,,,,,,,,,,,,,,,
Hamilton High,2955 South Robertson Blvd,,Los Angeles,CA,,,34.03386745000,-118.38954104000,,,,,,,,,,,,,,,,,,,,,,,,,,
Hamilton Middle,1060 E 70th┬áSt.,,Long Beach,CA,,,33.88180798000,-118.17949015000,,,,,,,,,,,,,,,,,,,,,,,,,,
Sierra Vista Middle School,777 E Puente Ave,,Covina,CA,,,34.08250088000,-117.87298502000,,,,,,,,,,,,,,,,,,,,,,,,,,
Crenshaw High,5010 - 11th Avenue,,Los Angeles,CA,,,33.99657080000,-118.32935590000,,,,,,,,,,,,,,,,,,,,,,,,,,
Culver City High,4401 Elenda Street,,Culver City,CA,,,34.00767857000,-118.40210091000,,,,,,,,,,,,,,,,,,,,,,,,,,
Delevan Drive Elementary,4168 W Avenue 42,,Los Angeles,CA,,,34.12714754000,-118.22735772000,,,,,,,,,,,,,,,,,,,,,,,,,,
Sch L.A. Valley College Child Development Center,5800 Fulton Ave,,Van Nuys,CA,,,34.17835002000,-118.42245650000,,,,,,,,,,,,,,,,,,,,,,,,,,
La Petite Preschool,1709 E Palmdale Blvd,,Palmdale,CA,,,34.57968764000,-118.09805955000,,,,,,,,,,,,,,,,,,,,,,,,,,
Larchmont Charter (Hollygrove),815 N El Centro Ave,,Los Angeles,CA,,,34.08574942000,-118.32447237000,,,,,,,,,,,,,,,,,,,,,,,,,,
Theodore Roosevelt High School,456 S Mathews St,,Los Angeles,CA,,,34.03920404000,-118.21122856000,,,,,,,,,,,,,,,,,,,,,,,,,,
Lincoln Drew Elementary,1667 East 118th St,,Los Angeles,CA,,,33.92597099000,-118.24429603000,,,,,,,,,,,,,,,,,,,,,,,,,,
Toluca Lake Elementary School,4840 Cahuenga Blvd,,North Hollywood,CA,,,34.15856997000,-118.36151611000,,,,,,,,,,,,,,,,,,,,,,,,,,
Lincoln Elementary,1175 E. 11th Street,,Long Beach,CA,,,33.78082857000,-118.17727482000,,,,,,,,,,,,,,,,,,,,,,,,,,
Utah Street Elementary School,255 Gabriel Garcia Marquez St.,,Los Angeles,CA,,,34.04903320000,-118.22398237000,,,,,,,,,,,,,,,,,,,,,,,,,,
Longden Elementary,9501 Wendon Ave,,Temple City,CA,,,34.11196096000,-118.06506663000,,,,,,,,,,,,,,,,,,,,,,,,,,
Van Nuys Middle School,5435 Vesper Ave.,,Van Nuys,CA,,,34.16892096000,-118.45095231000,,,,,,,,,,,,,,,,,,,,,,,,,,
Los Angeles Mission College,13356 Eldridge Avenue,,Sylmar,CA,,,34.31392335000,-118.41958000000,,,,,,,,,,,,,,,,,,,,,,,,,,
Los Feliz Charter For The Arts,2709 Media Center Dr┬á,,Los Angeles,CA,,,34.10893745000,-118.24327406000,,,,,,,,,,,,,,,,,,,,,,,,,,
West Vernon Elementary School,4312 S. Grand Ave.,,Los Angeles,CA,,,34.00469214000,-118.28048680000,,,,,,,,,,,,,,,,,,,,,,,,,,
Whaley Middle School,14401 S Gibson Ave,,Compton,CA,,,33.90266020000,-118.18951676000,,,,,,,,,,,,,,,,,,,,,,,,,,
John Muir Elementary,2526 Sixth Street,,Santa Monica,CA,,,34.00575671000,-118.48045827000,,,,,,,,,,,,,,,,,,,,,,,,,,
John Muir High,1905 N. Lincoln Avenue,,Pasadena,CA,,,34.17861040000,-118.15968879000,,,,,,,,,,,,,,,,,,,,,,,,,,
John Muir Middle,5929 S. Vermont Avenue,,Los Angeles,CA,,,33.98652052000,-118.29151262000,,,,,,,,,,,,,,,,,,,,,,,,,,
Jordan Plus High,171 W. Bort St,,Long Beach,CA,,,33.87046862000,-118.20450625000,,,,,,,,,,,,,,,,,,,,,,,,,,
Woodlawn Elementary School,6314 Woodlawn Ave.,,Bell Gardens,CA,,,33.97786536000,-118.17781727000,,,,,,,,,,,,,,,,,,,,,,,,,,
Madison Elementary,515 E Ashtabula St,,Pasadena,CA,,,34.15874026000,-118.13988294000,,,,,,,,,,,,,,,,,,,,,,,,,,
Atwater Park Center For Children,3370 Perlita Ave,,Los Angeles,CA,,,34.11703782000,-118.25613908000,,,,,,,,,,,,,,,,,,,,,,,,,,
Manual Arts High,4131 South Vermont Ave,,Los Angeles,CA,,,34.00877030000,-118.29158255000,,,,,,,,,,,,,,,,,,,,,,,,,,
Johnston Cds/ Science Center,2210 Taper Ave.,,San Pedro,CA,,,33.76536915000,-118.29949856000,,,,,,,,,,,,,,,,,,,,,,,,,,
135Th St,801 W. 135th St.,,Gardena,CA,,,33.90918824000,-118.28941002000,,,,,,,,,,,,,,,,,,,,,,,,,,
Marguerita Elementary,1603 S. Marguerita Avenue,,Alhambra,CA,,,34.07535318000,-118.13821017000,,,,,,,,,,,,,,,,,,,,,,,,,,
186Th St,1581 W. 186th St.,,Gardena,CA,,,33.86201846000,-118.30587999000,,,,,,,,,,,,,,,,,,,,,,,,,,
Mark Twain Elementary,3728 West 154th Street,,Lawndale,CA,,,33.89097452000,-118.33855248000,,,,,,,,,,,,,,,,,,,,,,,,,,
24Th St,2055 W. 24th St.,,Los Angeles,CA,,,34.03474858000,-118.31012015000,,,,,,,,,,,,,,,,,,,,,,,,,,
Marquez Charter Elementary,┬á16821 Marquez Avenue,,Pacific Palisades,CA,,,34.04548186000,-118.54764039000,,,,,,,,,,,,,,,,,,,,,,,,,,
2Nd St,1942 E. Second St.,,Los Angeles,CA,,,34.04526507000,-118.21714077000,,,,,,,,,,,,,,,,,,,,,,,,,,
95Th St,1109 W. 96th St.,,Los Angeles,CA,,,33.94872852000,-118.29243921000,,,,,,,,,,,,,,,,,,,,,,,,,,
Mckinley Elementary,2401 Santa Monica Blvd.,,Santa Monica,CA,,,34.03168241000,-118.47638230000,,,,,,,,,,,,,,,,,,,,,,,,,,
Wilshire Park Elementary School,4063 Ingraham Street,,Los Angeles,CA,,,34.06080845000,-118.31652935000,,,,,,,,,,,,,,,,,,,,,,,,,,
Lupin Hill Elementary,26210 Adamor Rd,,Calabasas,CA,,,34.16357699000,-118.69794983000,,,,,,,,,,,,,,,,,,,,,,,,,,
Wilton Place Elementary School,745 South Wilton Place,,Los Angeles,CA,,,34.05834105000,-118.31430204000,,,,,,,,,,,,,,,,,,,,,,,,,,
Luther Burbank Middle,6060 N Figueroa St,,Los Angeles,CA,,,34.11178990000,-118.18830164000,,,,,,,,,,,,,,,,,,,,,,,,,,
Barton Hill,423 N. Pacific Ave.,,San Pedro,CA,,,33.74646061000,-118.28791233000,,,,,,,,,,,,,,,,,,,,,,,,,,
Bushnell Way,5507 Bushnell Way,,Los Angeles,CA,,,34.10235926000,-118.18882445000,,,,,,,,,,,,,,,,,,,,,,,,,,
Monlux Elementary,6051 Bellaire Ave.,,North Hollywood,CA,,,34.18168108000,-118.40947261000,,,,,,,,,,,,,,,,,,,,,,,,,,
Newhall Elem,24607 N. Walnut St.,,Newhall,CA,,,34.38185105000,-118.53169192000,,,,,,,,,,,,,,,,,,,,,,,,,,
Farmdale,2660 Ruth Swiggett Dr.,,Los Angeles,CA,,,34.07706071000,-118.17968602000,,,,,,,,,,,,,,,,,,,,,,,,,,
Glenfeliz,3955 Glenfeliz Blvd.,,Los Angeles,CA,,,34.12238872000,-118.26784440000,,,,,,,,,,,,,,,,,,,,,,,,,,
Oak Park Unified School District,5801 Conifer St,,Oak Park,CA,,,34.17092795000,-118.76479847000,,,,,,,,,,,,,,,,,,,,,,,,,,
Hawaiian Ave,540 Hawaiian Ave.,,Wilmington,CA,,,33.77552286000,-118.27645643000,,,,,,,,,,,,,,,,,,,,,,,,,,
Ocean Charter,12606 Culver Blvd,,Los Angeles,CA,,,33.98726179000,-118.42388543000,,,,,,,,,,,,,,,,,,,,,,,,,,
Kester,5353 Kester Ave.,,Van Nuys,CA,,,34.16758061000,-118.45749205000,,,,,,,,,,,,,,,,,,,,,,,,,,
Lomita Mst,2211 W.  27th St.,,Lomita,CA,,,33.79436023000,-118.31810484000,,,,,,,,,,,,,,,,,,,,,,,,,,
Bandini,425 N. Bandini St.,,San Pedro,CA,,,33.74643148000,-118.29897195000,,,,,,,,,,,,,,,,,,,,,,,,,,
Mack,3020 S. Catalina St.,,Los Angeles,CA,,,34.02652001000,-118.29368632000,,,,,,,,,,,,,,,,,,,,,,,,,,
Michelle Obama,8150 Cedros Ave.,,Panorama City,CA,,,34.21881939000,-118.45354136000,,,,,,,,,,,,,,,,,,,,,,,,,,
Micheltorena,1511 Micheltorena St.,,Los Angeles,CA,,,34.08906766000,-118.27493542000,,,,,,,,,,,,,,,,,,,,,,,,,,
O'Melveny,728 Woodworth St.,,San Fernando,CA,,,34.27580850000,-118.44453030000,,,,,,,,,,,,,,,,,,,,,,,,,,
Mckinley School Of The Arts,325 South Oak Knoll Ave,,Pasadena,CA,,,34.14018866000,-118.13521036000,,,,,,,,,,,,,,,,,,,,,,,,,,
Melrose Elementary,731 N Detroit St.,,Los Angeles,CA,,,34.08437994000,-118.34521281000,,,,,,,,,,,,,,,,,,,,,,,,,,
Annandale,6125 Poppy Peak Dr.,,Los Angeles,CA,,,34.12843777000,-118.18646660000,,,,,,,,,,,,,,,,,,,,,,,,,,
Monroe,9229 Haskell Ave.,,North Hills,CA,,,34.23605144000,-118.47636299000,,,,,,,,,,,,,,,,,,,,,,,,,,
San Pedro,1001 W. 15th St.,,San Pedro,CA,,,33.73061420000,-118.29906170000,,,,,,,,,,,,,,,,,,,,,,,,,,
Sylmar,13050 Borden Ave.,,Sylmar,CA,,,34.30725459000,-118.44282835000,,,,,,,,,,,,,,,,,,,,,,,,,,
Caroldale,22424 Caroldale Ave.,,Carson,CA,,,33.82175789000,-118.28389012000,,,,,,,,,,,,,,,,,,,,,,,,,,
Elizabeth,4811 Elizabeth St.,,Bell Gardens,CA,,,33.96296768000,-118.18371597000,,,,,,,,,,,,,,,,,,,,,,,,,,
Vista,15040 Roscoe Blvd.,,Panorama City,CA,,,34.22144653000,-118.45948799000,,,,,,,,,,,,,,,,,,,,,,,,,,
Marlton,4000 Santo Tomas Dr.,,Los Angeles,CA,,,34.00945563000,-118.34407409000,,,,,,,,,,,,,,,,,,,,,,,,,,
Willenberg,308 Weymouth Ave.,,San Pedro,CA,,,33.74193931000,-118.30996285000,,,,,,,,,,,,,,,,,,,,,,,,,,
Fremont Community Garden And Wellness Center,7821 South Avalon Boulevard,,Los Angeles,CA,,,33.96816788000,-118.26519728000,,,,,,,,,,,,,,,,,,,,,,,,,,
Las Flores Educational Center,10039 Palm Street,,Bellflower,CA,,,33.87666654000,-118.12014019000,,,,,,,,,,,,,,,,,,,,,,,,,,
White Oak Elementary,Village School Road,,Westlake Village,CA,,,34.14379229000,-118.81195647000,,,,,,,,,,,,,,,,,,,,,,,,,,
Round Meadow Elementary,5151 Round Meadow Rd.,,Calabasas,CA,,,34.15351511000,-118.66590724000,,,,,,,,,,,,,,,,,,,,,,,,,,
Rockdale Visual & Performing Arts Magnet,1303 YOSEMITE DR,,Los Angeles,CA,,,34.13308703000,-118.19446557000,,,,,,,,,,,,,,,,,,,,,,,,,,
Larchmont Charter,1265 N. Fairfax Ave.,,Los Angeles,CA,,,34.09355025000,-118.36157205000,,,,,,,,,,,,,,,,,,,,,,,,,,
Richland Ave,11562 Richland Ave.,,Los Angeles,CA,,,34.02869487000,-118.44014561000,,,,,,,,,,,,,,,,,,,,,,,,,,
San Miguel,9801 San Miguel Ave.,,South Gate,CA,,,33.94568534000,-118.20064166000,,,,,,,,,,,,,,,,,,,,,,,,,,
Jordan,2265 E. 103rd St.,,Los Angeles,CA,,,33.94313752000,-118.23097899000,,,,,,,,,,,,,,,,,,,,,,,,,,
Manual Arts,4131 S. Vermont Ave.,,Los Angeles,CA,,,34.00877030000,-118.29158255000,,,,,,,,,,,,,,,,,,,,,,,,,,
Juan Cabrillo Elementary School,5309 West 135th Street,,Hawthorne,CA,,,33.90949780000,-118.37295974000,,,,,,,,,,,,,,,,,,,,,,,,,,
Juan De Anza,12110 Hindry Ave,,Hawthorne,CA,,,33.92283127000,-118.37218432000,,,,,,,,,,,,,,,,,,,,,,,,,,
Arroyo Vista Elementary School,335 El Centro Street,,South Pasadena,CA,,,34.11401310000,-118.16719908000,,,,,,,,,,,,,,,,,,,,,,,,,,
South Pasadena High School,1401 Fremont Ave,,South Pasadena,CA,,,34.10986290000,-118.15320121000,,,,,,,,,,,,,,,,,,,,,,,,,,
Washington Elementary,1100 Lilienthal Lane,,Redondo Beach,CA,,,33.86390244000,-118.36556746000,,,,,,,,,,,,,,,,,,,,,,,,,,
Birney Elementary School,1600 Green Lane,,Redondo Beach,CA,,,33.86910984000,-118.37693355000,,,,,,,,,,,,,,,,,,,,,,,,,,
Nelson Elementary,330 North California Avenue,,La Puente,CA,,,34.03388386000,-117.96678733000,,,,,,,,,,,,,,,,,,,,,,,,,,
Beryl Heights Elementary,920 Beryl Street,,Redondo Beach,CA,,,33.85220592000,-118.38454036000,,,,,,,,,,,,,,,,,,,,,,,,,,
New Village Girls Academy,147 N. Occidental Blvd.,,Los Angeles,CA,,,34.07114662000,-118.27918608000,,,,,,,,,,,,,,,,,,,,,,,,,,
Traweek Middle School,1941 E. Rowland Ave.,,West Covina,CA,,,34.07919769000,-117.90478888000,,,,,,,,,,,,,,,,,,,,,,,,,,
Madison Elementary School,2200 MacKay Lane,,Redondo Beach,CA,,,33.87521099000,-118.36852671000,,,,,,,,,,,,,,,,,,,,,,,,,,
Arlene Gallego,801 N Del Valle Ave,,La Puente,CA,,,34.03305513000,-117.94373992000,,,,,,,,,,,,,,,,,,,,,,,,,,
Cedarlane Academy,16333 Cedarlane Dr.,,Hacienda Heights,CA,,,33.99869877000,-117.95089011000,,,,,,,,,,,,,,,,,,,,,,,,,,
Hancock Park Elementary School,408 S FAIRFAX AVE,,Los Angeles,CA,,,34.06952072000,-118.36137624000,,,,,,,,,,,,,,,,,,,,,,,,,,
Olita Elementary,950 S. Briercliff Drive,,La Habra,CA,,,33.92101358000,-117.97390322000,,,,,,,,,,,,,,,,,,,,,,,,,,
6Th Avenue Elementary,3109 SIXTH AVE,,Los Angeles,CA,,,34.02662024000,-118.32363203000,,,,,,,,,,,,,,,,,,,,,,,,,,
Woodcrest Elementary,1151 W 109TH ST,,Los Angeles,CA,,,33.93731807000,-118.29495906000,,,,,,,,,,,,,,,,,,,,,,,,,,
Las Palmas,461 N. Lark ellen ave,,Covina,CA,,,34.08977679000,-117.91663877000,,,,,,,,,,,,,,,,,,,,,,,,,,
Jeff Winckler,600 Harkness Ln.,,Redondo Beach,CA,,,33.86013365000,-118.38112365000,,,,,,,,,,,,,,,,,,,,,,,,,,
Littlerock High School,10833 East Avenue R,,Littlerock,CA,,,34.57264416000,-117.93575330000,,,,,,,,,,,,,,,,,,,,,,,,,,
Patrick Henry K-8 School,3720 Canehill Avenue,,Long Beach,CA,,,33.82558833000,-118.11044046000,,,,,,,,,,,,,,,,,,,,,,,,,,
Queen Anne Place,1212 QUEEN ANNE PL,,Los Angeles,CA,,,34.05141902000,-118.33141887000,,,,,,,,,,,,,,,,,,,,,,,,,,
Prisk Elementary School,2375 Fanwood Avenue,,Long Beach,CA,,,33.80063404000,-118.11559123000,,,,,,,,,,,,,,,,,,,,,,,,,,
Saturn Street Elementary,5360 SATURN ST,,Los Angeles,CA,,,34.04678375000,-118.35620716000,,,,,,,,,,,,,,,,,,,,,,,,,,
Signal Hill Elementary School,2285 Walnut Avenue,,Signal Hill,CA,,,33.79856887000,-118.17204122000,,,,,,,,,,,,,,,,,,,,,,,,,,
Pio Pico Middle,1512 S ARLINGTON AVE,,Los Angeles,CA,,,34.04514551000,-118.31769534000,,,,,,,,,,,,,,,,,,,,,,,,,,
Twain Elementary School,5021 E. Centrailia Street,,Long Beach,CA,,,33.83962911000,-118.13470426000,,,,,,,,,,,,,,,,,,,,,,,,,,
Coliseum Street Elementary,4400 COLISEUM ST,,Los Angeles,CA,,,34.01822267000,-118.34475942000,,,,,,,,,,,,,,,,,,,,,,,,,,
Webster Elementary School,1755 W. 32nd Way,,Long Beach,CA,,,33.81618064000,-118.21595557000,,,,,,,,,,,,,,,,,,,,,,,,,,
Aroma Orchids,2043 Desire Ave.,,Rowland Heights,CA,,,33.98155890000,-117.89430910000,,,,,,,,,,,,,,,,,,,,,,,,,,
Joseph Pomeroy Widney High,2302 S GRAMERCY PL,,Los Angeles,CA,,,34.03578007000,-118.31328687000,,,,,,,,,,,,,,,,,,,,,,,,,,
Coughlin Elementary,11035 Borden Avenue,,Pacoima,CA,,,34.27032939000,-118.40242004000,,,,,,,,,,,,,,,,,,,,,,,,,,
"Jaye, Robert",6122 Busch Dr.,,Malibu,CA,,,34.02443530000,-118.81784282000,,,,,,,,,,,,,,,,,,,,,,,,,,
William Mckinley Elementary,349 West Valencia Avenue,,Burbank,CA,,,34.16662594000,-118.30983274000,,,,,,,,,,,,,,,,,,,,,,,,,,
Silver Lake Farm,2833 Shadowlawn Ave.,,Los Angeles,CA,,,34.10726726000,-118.26842250000,,,,,,,,,,,,,,,,,,,,,,,,,,
Meadow Green Elementary,12025 Grovedale Dr.,,Whittier,CA,,,33.92203773000,-117.98837909000,,,,,,,,,,,,,,,,,,,,,,,,,,
Gibson,9650 East Palmdale Blvd,,Palmdale,CA,,,34.57974543000,-117.95729835000,,,,,,,,,,,,,,,,,,,,,,,,,,
Palmdale High School,2137 East Ave R,,Palmdale,CA,,,34.57273531000,-118.09092046000,,,,,,,,,,,,,,,,,,,,,,,,,,
Monterey Highlands Elementary School,400 Casuda Canyon Drive,,Monterey Park,CA,,,34.05903972000,-118.15420860000,,,,,,,,,,,,,,,,,,,,,,,,,,
Hooper Avenue Elementary,1225 E 52ND ST,,Los Angeles,CA,,,33.99597755000,-118.25319964000,,,,,,,,,,,,,,,,,,,,,,,,,,
Chile Lily Garden,254 W. Palm St.,,Altadena,CA,,,34.19823380000,-118.15151847000,,,,,,,,,,,,,,,,,,,,,,,,,,
Baldwin Park Wic,3601 Puente Avenue,,Baldwin Park,CA,,,34.07784768000,-117.95393000000,,,,,,,,,,,,,,,,,,,,,,,,,,
Agua Dulce Nursery,33650 Sierra Vallejo Road,,Santa Clarita,CA,,,34.51194177000,-118.35302646000,,,,,,,,,,,,,,,,,,,,,,,,,,
Quincy Jones Elementary,900 E 33RD ST,,Los Angeles,CA,,,34.01459665000,-118.26074575000,,,,,,,,,,,,,,,,,,,,,,,,,,
Mount Olive,19 W. Palm Dr.,,Arcadia,CA,,,34.11183843000,-118.03197920000,,,,,,,,,,,,,,,,,,,,,,,,,,
Manual Arts High School,4131 S. Vermont Avenue,,Los Angeles,CA,,,34.00877030000,-118.29158255000,,,,,,,,,,,,,,,,,,,,,,,,,,
Leo Politi Elementary,2481 W 11TH ST,,Los Angeles,CA,,,34.05081761000,-118.28689017000,,,,,,,,,,,,,,,,,,,,,,,,,,
Maria's Garden,1950 E. 110th St.,,Los Angeles,CA,,,33.93509309000,-118.23780894000,,,,,,,,,,,,,,,,,,,,,,,,,,
Hollenbeck Middle School,2510 E. 6th Street,,Los Angeles,CA,,,34.03668451000,-118.21199033000,,,,,,,,,,,,,,,,,,,,,,,,,,
Arlington Heights Elementary,1717 SEVENTH AVE,,Los Angeles,CA,,,34.04135009000,-118.32488263000,,,,,,,,,,,,,,,,,,,,,,,,,,
,12507-12999 Little Tujunga Canyon Rd,,Sylmar,CA,,,34.29381829000,-118.35893681000,,,,,,,,,,,,,,,,,,,,,,,,,,
Whisper Farms,1522 Tapeka St.,,Pasadena,CA,,,34.17472683000,-118.11945553000,,,,,,,,,,,,,,,,,,,,,,,,,,
Bell Gardens Community Garden,8000 Park Lane,,Bell Gardens,CA,,,33.95910062000,-118.15204747000,,,,,,,,,,,,,,,,,,,,,,,,,,
Kilcoyne Lilac Farm,3511 W. Soledand Canyon Rd.,,Acton,CA,,,34.49290195000,-118.17867700000,,,,,,,,,,,,,,,,,,,,,,,,,,
,557 Reposado Dr.,,La Habra,CA,,,33.96486515000,-117.95493481000,,,,,,,,,,,,,,,,,,,,,,,,,,
Northrup Elementary School,409 S Atlantic Blvd,,Alhambra,CA,,,34.08565559000,-118.13461601000,,,,,,,,,,,,,,,,,,,,,,,,,,
Fremont Elementary School,2001 South Elm Street,,Alhambra,CA,,,34.07085070000,-118.15038522000,,,,,,,,,,,,,,,,,,,,,,,,,,
Jazzy Sprouts,10020 Debra Ave,,North Hills,CA,,,34.25262514000,-118.49034690000,,,,,,,,,,,,,,,,,,,,,,,,,,
,329 Elm Ave.,,Burbank,CA,,,34.16484393000,-118.30696709000,,,,,,,,,,,,,,,,,,,,,,,,,,
Alvarado Elementary School,1900 East 21st Street,,Signal Hill,CA,,,33.79527668000,-118.16861478000,,,,,,,,,,,,,,,,,,,,,,,,,,
Network For A Healthy California,6651-C Balboa Blvd.,,Van Nuys,CA,,,34.19150206000,-118.50115018000,,,,,,,,,,,,,,,,,,,,,,,,,,
Venice Community Housing - Youth Build,720 Rose Avenue,,Venice,CA,,,34.00079581000,-118.46885704000,,,,,,,,,,,,,,,,,,,,,,,,,,
Boys And Girls Club Of Long Beach- Westside Center,1835 W Willard St,,Long Beach,CA,,,33.79441053000,-118.21727228000,,,,,,,,,,,,,,,,,,,,,,,,,,
1St And Elm Community Garden,417 E. 1st Street,,Long Beach,CA,,,33.76816843000,-118.18716009000,,,,,,,,,,,,,,,,,,,,,,,,,,
Fifth Street Garden,1001 E. 3rd St.,,Long Beach,CA,,,33.77066402000,-118.17998512000,,,,,,,,,,,,,,,,,,,,,,,,,,
Challengers Boys & Girls Club,┬á5029 S. Vermont Avenue,,Los Angeles,CA,,,33.99732023000,-118.29156274000,,,,,,,,,,,,,,,,,,,,,,,,,,
Harvard Farms,3820 S. Harvard Blvd.,,Los Angeles,CA,,,34.01679025000,-118.30666672000,,,,,,,,,,,,,,,,,,,,,,,,,,
Markham Middle School,1650 E. 104th Street,,Los Angeles,CA,,,33.94143353000,-118.24496873000,,,,,,,,,,,,,,,,,,,,,,,,,,
Lee Elementary School,1620 Temple Avenue,,Long Beach,CA,,,33.78737454000,-118.15890564000,,,,,,,,,,,,,,,,,,,,,,,,,,
99Th Street Elementary,9900 Wadsworth Street,,Los Angeles,CA,,,33.94601906000,-118.25863804000,,,,,,,,,,,,,,,,,,,,,,,,,,
"Swevedoski, Farms",6100 Block of Florence Ave,,Bell Gardens,CA,,,33.96958940000,-118.16686375000,,,,,,,,,,,,,,,,,,,,,,,,,,
Figueroa St. Elementary,510 W 111th Street,,Los Angeles,CA,,,33.93472362000,-118.28372928000,,,,,,,,,,,,,,,,,,,,,,,,,,
Earthworks Farm Community Garden,1210 Lerma Rd. S,,El Monte,CA,,,34.08130233000,-118.04202819000,,,,,,,,,,,,,,,,,,,,,,,,,,
Macy Elementary,2301 W. Russell Street,,La Habra,CA,,,33.94403656000,-117.97418710000,,,,,,,,,,,,,,,,,,,,,,,,,,
Avalon Gardens Public Housing Community Garden,701 E. 88th Pl.,,Los Angeles,CA,,,33.95649788000,-118.26290959000,,,,,,,,,,,,,,,,,,,,,,,,,,
West Adams High School,1500 W. Washington Blvd.,,Los Angeles,CA,,,34.03998294000,-118.28971889000,,,,,,,,,,,,,,,,,,,,,,,,,,
Colombo Lilac Ranch,30300 Arrastre Canyon Road,,Acton,CA,,,34.44418184000,-118.19898681000,,,,,,,,,,,,,,,,,,,,,,,,,,
Epworth Community Garden,1419 W. 65th Street,,Los Angeles,CA,,,33.98062804000,-118.30074157000,,,,,,,,,,,,,,,,,,,,,,,,,,
Colombo Lilac Ranch,3635 Sierra Highway,,Acton,CA,,,34.49334822000,-118.19518236000,,,,,,,,,,,,,,,,,,,,,,,,,,
Erika J. Glazer Community Garden,2632 Raymond Avenue,,Los Angeles,CA,,,34.03170075000,-118.29801622000,,,,,,,,,,,,,,,,,,,,,,,,,,
Aroma Orchids Of Rowland Heights,2043 Desire Avenue,,Rowland Heights,CA,,,33.98155890000,-117.89430910000,,,,,,,,,,,,,,,,,,,,,,,,,,
The Tropics,7056 Santa Monica Boulevard,,Los Angeles,CA,,,34.09068307000,-118.34312886000,,,,,,,,,,,,,,,,,,,,,,,,,,
CJ's Organic Farm,10050 East Ave S-8,,Littlerock,CA,,,34.55011256000,-117.94966899000,,,,,,,,,,,,,,,,,,,,,,,,,,
St. Anthony Parish School,855 East 5th Street,,Long Beach,CA,,,33.77297737000,-118.18102595000,,,,,,,,,,,,,,,,,,,,,,,,,,
Plants & Fruit Trees by Ramos,8406 Pico Vista,,Pico Rivera,CA,,,33.95707451000,-118.09024677000,,,,,,,,,,,,,,,,,,,,,,,,,,
Santee Education Complex,1921 South Maple Avenue,,Los Angeles,CA,,,34.02940683000,-118.26162764000,,,,,,,,,,,,,,,,,,,,,,,,,,
Wilmington Park Elementary School,1140 Mahar Avenue,,Wilmington,CA,,,33.78665358000,-118.24648624000,,,,,,,,,,,,,,,,,,,,,,,,,,
Paula's Ranch,1847 El Tarvesia Dr.,,La Habra,CA,,,33.95840350000,-117.96095239000,,,,,,,,,,,,,,,,,,,,,,,,,,
Colin Powell Academy,150 W. Victoria St,,Long Beach,CA,,,33.86482026000,-118.20364354000,,,,,,,,,,,,,,,,,,,,,,,,,,
Bethune Middle School,155 West 69th Street,,Los Angeles,CA,,,33.97738750000,-118.27605899000,,,,,,,,,,,,,,,,,,,,,,,,,,
Elysian Valley Community Garden,1816 Blake Avenue,,Los Angeles,CA,,,34.09722514000,-118.24296637000,,,,,,,,,,,,,,,,,,,,,,,,,,
96Th Street Elementary,1471 E. 96th Street,,Los Angeles,CA,,,33.94907817000,-118.24860865000,,,,,,,,,,,,,,,,,,,,,,,,,,
Empowerment Community Garden,Across from 10500 S. Yukon Avenue,,Inglewood,CA,,,33.93986270000,-118.33516473000,,,,,,,,,,,,,,,,,,,,,,,,,,
Coiner Nursery,3000 B Street,,La Verne,CA,,,34.10883443000,-117.77136676000,,,,,,,,,,,,,,,,,,,,,,,,,,
Enrique Noguera Educational Garden,6614 Fountain Avenue,,Los Angeles,CA,,,34.09435535000,-118.33371449000,,,,,,,,,,,,,,,,,,,,,,,,,,
The Accelerated Schools-Aces 2,1010 E. 34th Street,,Los Angeles,CA,,,34.01275276000,-118.25778211000,,,,,,,,,,,,,,,,,,,,,,,,,,
,1553 W. 170th Street #A,,Gardena,CA,,,33.87653852000,-118.30405945000,,,,,,,,,,,,,,,,,,,,,,,,,,
Longfellow Elementary School,3800 Olive Ave,,Long Beach,CA,,,33.82697369000,-118.18267334000,,,,,,,,,,,,,,,,,,,,,,,,,,
┬áMuir Middle School,5929 S. Vermont Avenue,,Los Angeles,CA,,,33.98652052000,-118.29151262000,,,,,,,,,,,,,,,,,,,,,,,,,,
Shalom Institute,34342 Mulholland Hwy,,Malibu,CA,,,34.08726344000,-118.89851680000,,,,,,,,,,,,,,,,,,,,,,,,,,
Arcadia High School,180 Campus Drive,,Arcadia,CA,,,34.13072336000,-118.03633942000,,,,,,,,,,,,,,,,,,,,,,,,,,
,725 S. 6th St.,,Alhambra,CA,,,34.08456059000,-118.12941205000,,,,,,,,,,,,,,,,,,,,,,,,,,
The Seeds of Xanxadu,19301 Platt River Dr.,,Walnut,CA,,,34.03370777000,-117.88201286000,,,,,,,,,,,,,,,,,,,,,,,,,,
Vincent Children'S Center,1024 W Workman Ave,,West Covina,CA,,,34.07544273000,-117.92750895000,,,,,,,,,,,,,,,,,,,,,,,,,,
Los Angeles River At Sonia Sotomayor Learning Academies,2050 San Fernando Rd.,,Los Angeles,CA,,,34.10177168000,-118.23681460000,,,,,,,,,,,,,,,,,,,,,,,,,,
Moonwater Farm,544 W Raymond,,Compton,CA,,,33.88713637000,-118.23308567000,,,,,,,,,,,,,,,,,,,,,,,,,,
Violet Perfection by Gini,1420 Oxford Ave,,Claremont,CA,,,34.11021370000,-117.72371072000,,,,,,,,,,,,,,,,,,,,,,,,,,
Party Works- Monrovia Street Fair,9712 Alpaca St.,,South El Monte,CA,,,34.04888210000,-118.05759928000,,,,,,,,,,,,,,,,,,,,,,,,,,
Mt. San Antonio College/Matthew Pawlak,1100 Grand Ave,,Walnut,CA,,,34.04315454000,-117.84770218000,,,,,,,,,,,,,,,,,,,,,,,,,,
Cubberley K-8 School,3200 Monogram St,,Long Beach,CA,,,33.81521144000,-118.10269441000,,,,,,,,,,,,,,,,,,,,,,,,,,
Maggie's  Farm,6500 Cheesebro Rd.,,Agoura Hills,CA,,,34.16510854000,-118.73774492000,,,,,,,,,,,,,,,,,,,,,,,,,,
Garfield Elementary School,2240 Baltic Avenue,,Long Beach,CA,,,33.79787951000,-118.21326594000,,,,,,,,,,,,,,,,,,,,,,,,,,
Mckinley Elementary School,6822 N. Paramount Blvd,,Long Beach,CA,,,33.87872893000,-118.15992415000,,,,,,,,,,,,,,,,,,,,,,,,,,
Tenerelli Farms,2470 Vista Del Monte,,Acton,CA,,,34.48356137000,-118.16793397000,,,,,,,,,,,,,,,,,,,,,,,,,,
Balanos Family Sprouts,1311 W. 35th Pl.,,Los Angeles,CA,,,34.02373791000,-118.29786937000,,,,,,,,,,,,,,,,,,,,,,,,,,
,1350 S. Halinor Ave,,West Covina,CA,,,34.06783887000,-117.96269951000,,,,,,,,,,,,,,,,,,,,,,,,,,
Bonsai By Nate,2124 Madison Ave,,Altadena,CA,,,34.18203656000,-118.13696112000,,,,,,,,,,,,,,,,,,,,,,,,,,
Madre Naturaleza,4704 Bell Place,,Bell Gardens,CA,,,33.97478373000,-118.18267167000,,,,,,,,,,,,,,,,,,,,,,,,,,
Reedley St. Farm Crops,13531 Reedley St.,,Panorama City,CA,,,34.22701551000,-118.44560849000,,,,,,,,,,,,,,,,,,,,,,,,,,
C-Star Nursery,17654 S. Normandie Ave,,Gardena,CA,,,33.87103314000,-118.29899333000,,,,,,,,,,,,,,,,,,,,,,,,,,
Graystone Mansion Demonstration Garden,501 Doheny Rd.,,Beverly Hills,CA,,,34.09078098000,-118.40069274000,,,,,,,,,,,,,,,,,,,,,,,,,,
Aunt Willis Apiary,2200 Ardsheal Dr.,,La Habra,CA,,,33.96292572000,-117.96143725000,,,,,,,,,,,,,,,,,,,,,,,,,,
Sproutime,8922 Norris Ave.,,Mission Hills,CA,,,34.26542055000,-118.45758746000,,,,,,,,,,,,,,,,,,,,,,,,,,
Tran Nurseries,3612 Marybeth Ave,,Rosemead,CA,,,34.07495321000,-118.06117666000,,,,,,,,,,,,,,,,,,,,,,,,,,
Get Planted,10297 Cheviot Dr.,,Los Angeles,CA,,,34.03729585000,-118.40813046000,,,,,,,,,,,,,,,,,,,,,,,,,,
Backyard Grown Farms,31094 San Martinez Rd.,,Castaic,CA,,,34.44924376000,-118.67784417000,,,,,,,,,,,,,,,,,,,,,,,,,,
Family Farmers Market,732 Ridgeside Dr.,,Monrovia,CA,,,34.16628572000,-117.99583176000,,,,,,,,,,,,,,,,,,,,,,,,,,
Lehmann Farm,3253 E Ave H-4,,Lancaster,CA,,,34.71548008000,-118.07261127000,,,,,,,,,,,,,,,,,,,,,,,,,,
Salazar Ranch,7812 Pearblossom Hwy,,Littlerock,CA,,,34.52105264000,-117.98977921000,,,,,,,,,,,,,,,,,,,,,,,,,,
,397 E. Las Flores Dr.,,Altadena,CA,,,34.19694706000,-118.13726066000,,,,,,,,,,,,,,,,,,,,,,,,,,
Bee Canyon Ranch,7815 Chatfield Ave,,Whittier,CA,,,33.97222075000,-118.06057991000,,,,,,,,,,,,,,,,,,,,,,,,,,
Living Lettuce Farms,19161 Keswick St.,,Reseda,CA,,,34.21019916000,-118.55053311000,,,,,,,,,,,,,,,,,,,,,,,,,,
Weiss Farms,16835 S. Budlong Ave,,Gardena,CA,,,33.87782991000,-118.29508261000,,,,,,,,,,,,,,,,,,,,,,,,,,
Harry'S Honey/Lsg Honey,21123 Chase St,,Canoga Park,CA,,,34.22458854000,-118.59365979000,,,,,,,,,,,,,,,,,,,,,,,,,,
Eliot Middle School,2184 N. Lake Ave,,Altadena,CA,,,34.18341530000,-118.13158739000,,,,,,,,,,,,,,,,,,,,,,,,,,
Marcel's,5133 Kildee St.,,Long Beach,CA,,,33.81670599000,-118.13316426000,,,,,,,,,,,,,,,,,,,,,,,,,,
Manna Ges Farm,36126 82nd St.,,Littlerock,CA,,,34.53784951000,-117.98369893000,,,,,,,,,,,,,,,,,,,,,,,,,,
Garibaldo Nursery,8834 Rose St.,,Bellflower,CA,,,33.86953874000,-118.14349582000,,,,,,,,,,,,,,,,,,,,,,,,,,
,1438 W. 122nd St.,,Los Angeles,CA,,,33.92208356000,-118.30163983000,,,,,,,,,,,,,,,,,,,,,,,,,,
Penjing Nursery,11130 Daneswood Dr.,,Arcadia,CA,,,34.10570313000,-118.02784510000,,,,,,,,,,,,,,,,,,,,,,,,,,
Lin's Orchids,14339 Osborne St.,,Panorama City,CA,,,34.23318775000,-118.44515968000,,,,,,,,,,,,,,,,,,,,,,,,,,
AJ Nursery,1600 S. Wilmington Ave,,Compton,CA,,,33.88064574000,-118.23651855000,,,,,,,,,,,,,,,,,,,,,,,,,,
Arlington Garden in Pasadena,295 Arlington Dr.,,Pasadena,CA,,,34.12831773000,-118.15673884000,,,,,,,,,,,,,,,,,,,,,,,,,,
Silvia Organic Farm,8238 W. Ave E-12,,Lancaster,CA,,,34.75098300000,-118.27837954000,,,,,,,,,,,,,,,,,,,,,,,,,,
,1114 N. Tonopah Ave.,,La Puente,CA,,,34.04931934000,-117.96253422000,,,,,,,,,,,,,,,,,,,,,,,,,,
Youngblood Farms,77th & Ave U,,Littlerock,CA,,,34.52828319000,-117.99251814000,,,,,,,,,,,,,,,,,,,,,,,,,,
First Earth,3601 Stewart Ave.,,Los Angeles,CA,,,34.00596839000,-118.44046146000,,,,,,,,,,,,,,,,,,,,,,,,,,
The Kendor Farm,17344 Vanowen St.,,Van Nuys,CA,,,34.19384328000,-118.51143000000,,,,,,,,,,,,,,,,,,,,,,,,,,
The Real Aloe Vera,1866 W. 94th Place,,Los Angeles,CA,,,33.95048263000,-118.31070991000,,,,,,,,,,,,,,,,,,,,,,,,,,
Tapia Brothers Inc.,5240 Hayvenburst,,Encino,CA,,,34.14921105000,-118.48881827000,,,,,,,,,,,,,,,,,,,,,,,,,,
,2137 E. Huntington Dr.,,Duarte,CA,,,34.13981068000,-117.95883810000,,,,,,,,,,,,,,,,,,,,,,,,,,
Glady's Avenue Urban Farm,345 Bay Shore Ave,,Long Beach,CA,,,33.76043753000,-118.12534438000,,,,,,,,,,,,,,,,,,,,,,,,,,
Green Girl Farms,602 W. 39th St.,,San Pedro,CA,,,33.70876768000,-118.28993917000,,,,,,,,,,,,,,,,,,,,,,,,,,
"Roots Brothers Growers, LLC",6537 Valjean Ave.,,Van Nuys,CA,,,34.18969053000,-118.48590277000,,,,,,,,,,,,,,,,,,,,,,,,,,
Fairplex,1101 W. MCKinley Ave.,,Pomona,CA,,,34.08105040000,-117.76671750000,,,,,,,,,,,,,,,,,,,,,,,,,,
Muir Ranch,1905 N. Lincoln Ave.,,Pasadena,CA,,,34.17861040000,-118.15968879000,,,,,,,,,,,,,,,,,,,,,,,,,,
Home Grown,6203 Saylin Ln,,Los Angeles,CA,,,34.12249479000,-118.18268798000,,,,,,,,,,,,,,,,,,,,,,,,,,
Little Farm Fresh,133 N. Santa Anita St.,,San Gabriel,CA,,,34.10357489000,-118.10549790000,,,,,,,,,,,,,,,,,,,,,,,,,,
Winner Circle Farms,2034 W. Ave. M-4,,Palmdale,CA,,,34.64207328000,-118.16683924000,,,,,,,,,,,,,,,,,,,,,,,,,,
Canhon Meadow Farms,16274 Vasqueiz Canyon Rd. #2,,Canyon Country,CA,,,34.45633246000,-118.42160218000,,,,,,,,,,,,,,,,,,,,,,,,,,
Scarborough Farms,PO Box 1267,,Oxnard,CA,,,34.19966355000,-119.17852026000,,,,,,,,,,,,,,,,,,,,,,,,,,
,3021 Central Ave.,,South El Monte,CA,,,34.06305362000,-118.04690069000,,,,,,,,,,,,,,,,,,,,,,,,,,
Captian Cactus,1535 Ohio Ave.,,Long Beach,CA,,,33.78675149000,-118.16010253000,,,,,,,,,,,,,,,,,,,,,,,,,,
Productos Ornelas,6208 Clara St.,,Bell Gardens,CA,,,33.96217279000,-118.15599174000,,,,,,,,,,,,,,,,,,,,,,,,,,
,1544 Turnbull Canyon Rd.,,Hacienda Heights,CA,,,34.00696491000,-117.98045271000,,,,,,,,,,,,,,,,,,,,,,,,,,
Energy Bee Farm,6951 S. Sepulveda Blvd,,Los Angeles,CA,,,33.97638165000,-118.39420196000,,,,,,,,,,,,,,,,,,,,,,,,,,
,1324 Citrus St.,,La Habra,CA,,,33.94968308000,-117.95783929000,,,,,,,,,,,,,,,,,,,,,,,,,,
"Gonzalez, Federico",1007 Worcester Ave.,,Pasadena,CA,,,34.16315979000,-118.14503235000,,,,,,,,,,,,,,,,,,,,,,,,,,
Yasutomi Farms,9941 La Docena Lane,,Pico Rivera,CA,,,33.95894101000,-118.08968277000,,,,,,,,,,,,,,,,,,,,,,,,,,
Av Homestead Lavender,20538 E Ave Q-12,,Palmdale,CA,,,34.57620273000,-117.76300974000,,,,,,,,,,,,,,,,,,,,,,,,,,
Bill's Bees Inc,12640 N. Little Tujunga Canyon Rd.,,Sylmar,CA,,,34.29538217000,-118.35726323000,,,,,,,,,,,,,,,,,,,,,,,,,,
Klausebees,Lane Ranch @90th & Ave N. West,,Los Angeles,CA,,,34.12376155000,-118.33729366000,,,,,,,,,,,,,,,,,,,,,,,,,,
Newport Acre,P O Box 30118,,Long Beach,CA,,,33.76079280000,-118.13633969000,,,,,,,,,,,,,,,,,,,,,,,,,,
Spade and Seeds,1038  Montrose Ave. S.,,South Pasadena,CA,,,34.11503337000,-118.14271788000,,,,,,,,,,,,,,,,,,,,,,,,,,
Pelis' Apriaries,9225 Birdvale Dr.,,Downey,CA,,,33.90988755000,-118.13758584000,,,,,,,,,,,,,,,,,,,,,,,,,,
Robin's Hot Items,1705 W. 59th Place,,Los Angeles,CA,,,33.98673847000,-118.30701987000,,,,,,,,,,,,,,,,,,,,,,,,,,
T & A Farms,1600 Cliff Dr.,,Los Angeles,CA,,,34.10046412000,-118.22860016000,,,,,,,,,,,,,,,,,,,,,,,,,,
Kowalke Family Sprouts,8228 Phlox St.,,Downey,CA,,,33.93915493000,-118.13609281000,,,,,,,,,,,,,,,,,,,,,,,,,,
N. K. Orchids,13533 Terra Bella St.,,Pacoima,CA,,,34.25153304000,-118.42762792000,,,,,,,,,,,,,,,,,,,,,,,,,,
La Funghi,334 S. Main St. #5012,,Los Angeles,CA,,,34.04850988000,-118.24681725000,,,,,,,,,,,,,,,,,,,,,,,,,,
Chen's Choice,1011 Cerise Ave.,,Torrance,CA,,,33.83783377000,-118.33324152000,,,,,,,,,,,,,,,,,,,,,,,,,,
Greenshower Natural Inc,2126 Desire Ave,,Rowland Heights,CA,,,33.98023137000,-117.89374849000,,,,,,,,,,,,,,,,,,,,,,,,,,
Barcal Groves LLC,1301 East Rd.,,La Habra,CA,,,33.96052825000,-117.93764548000,,,,,,,,,,,,,,,,,,,,,,,,,,
Roger Evans,1228 S. Evanwood Ave.,,West Covina,CA,,,34.05849839000,-117.94424000000,,,,,,,,,,,,,,,,,,,,,,,,,,
test,test,,Simi Valley,CA,,,34.29067005000,-118.73317608000,,,,,,,,,,,,,,,,,,,,,,,,,,
,test,,El Segundo,CA,,,33.92285854000,-118.41950473000,,,,,,,,,,,,,,,,,,,,,,,,,,
,test,,Baldwin Park,CA,,,34.09127049000,-117.97144208000,,,,,,,,,,,,,,,,,,,,,,,,,,
Fruit Industries,3801 W. Temple Ave.,,Pomona,CA,,,34.05030359000,-117.81660180000,,,,,,,,,,,,,,,,,,,,,,,,,,
Omma's Garden,test,,Malibu,CA,,,34.02643871000,-118.79911562000,,,,,,,,,,,,,,,,,,,,,,,,,,
Ragan Family Trust/Alchemy Orchards,626 S. Sunset Canyon Dr.,,Burbank,CA,,,34.18841545000,-118.29064664000,,,,,,,,,,,,,,,,,,,,,,,,,,
M & M Peach,48745 Three Pts Rd.,,Lake Hughes,CA,,,34.66211835000,-118.39352062000,,,,,,,,,,,,,,,,,,,,,,,,,,
The Valley Hive,9633 Baden Ave.,,Chatsworth,CA,,,34.24585113000,-118.61915206000,,,,,,,,,,,,,,,,,,,,,,,,,,
Herb & Flore,test,,San Gabriel,CA,,,34.09205139000,-118.10804223000,,,,,,,,,,,,,,,,,,,,,,,,,,
AZ-Ranch,test,,Agoura Hills,CA,,,34.11702499000,-118.79965287000,,,,,,,,,,,,,,,,,,,,,,,,,,
Orchid Garden,test,,Redondo Beach,CA,,,33.86550785000,-118.35388372000,,,,,,,,,,,,,,,,,,,,,,,,,,
Mona Lisa's,test,,Walnut,CA,,,33.99491392000,-117.85664260000,,,,,,,,,,,,,,,,,,,,,,,,,,
Sunshine Sprouts,test,,South Gate,CA,,,33.94088456000,-118.18899228000,,,,,,,,,,,,,,,,,,,,,,,,,,
Home Grown Gardens,test,,Venice,CA,,,33.99866990000,-118.45008517000,,,,,,,,,,,,,,,,,,,,,,,,,,
Banana People,test,,Los Angeles,CA,,,34.02634984000,-118.43722598000,,,,,,,,,,,,,,,,,,,,,,,,,,
Environmental Arts,test,,Gardena,CA,,,33.89471494000,-118.28417302000,,,,,,,,,,,,,,,,,,,,,,,,,,
M and G Gallo Nursery,test,,Pasadena,CA,,,34.13394242000,-118.07070470000,,,,,,,,,,,,,,,,,,,,,,,,,,
,test,,West Covina,CA,,,34.08150110000,-117.92074777000,,,,,,,,,,,,,,,,,,,,,,,,,,
One Gun Ranch,test,,Malibu,CA,,,34.05914759000,-118.65323770000,,,,,,,,,,,,,,,,,,,,,,,,,,
Garden School Foundation,test,,Los Angeles,CA,,,34.03586259000,-118.31328464000,,,,,,,,,,,,,,,,,,,,,,,,,,
Holland Ranch,test,,Palmdale,CA,,,34.63435054000,-118.17877650000,,,,,,,,,,,,,,,,,,,,,,,,,,
Calscape Growers,test,,Pasadena,CA,,,34.18028804000,-118.08503906000,,,,,,,,,,,,,,,,,,,,,,,,,,
Torres Garden,test,,Duarte,CA,,,34.12599951000,-117.98898899000,,,,,,,,,,,,,,,,,,,,,,,,,,
Farm Lot 59,test,,Long Beach,CA,,,33.80649877000,-118.18067280000,,,,,,,,,,,,,,,,,,,,,,,,,,
House of Plants,test,,Torrance,CA,,,33.82089774000,-118.32241406000,,,,,,,,,,,,,,,,,,,,,,,,,,
South Central Coop,test,,Lake Hughes,CA,,,34.76502053000,-118.59279148000,,,,,,,,,,,,,,,,,,,,,,,,,,
Episcopal Church of the Transfiguration,1881 South First Avenue,,,CA,,,0.00000000000,0.00000000000,,,,,,,,,,,,,,,,,,,,,,,,,,
St. Martin in the Fields Episcopal Church,7136 Winnetka Avenue,,,CA,,,0.00000000000,0.00000000000,,,,,,,,,,,,,,,,,,,,,,,,,,
St. Timothy's Episcopal Church,312-A South Oleander Avenue,,,CA,,,0.00000000000,0.00000000000,,,,,,,,,,,,,,,,,,,,,,,,,,
St. Mark's Episcopal Church,10354 South Downey Avenue,,,CA,,,0.00000000000,0.00000000000,,,,,,,,,,,,,,,,,,,,,,,,,,
Immanuel Episcopal Church,4366 Santa Anita Avenue,,,CA,,,0.00000000000,0.00000000000,,,,,,,,,,,,,,,,,,,,,,,,,,
St. Michael the Archangel Episcopal Church,361 Richmond Street,,,CA,,,0.00000000000,0.00000000000,,,,,,,,,,,,,,,,,,,,,,,,,,
Episcopal Church of the Holy Communion,1160 West 141st Street,,,CA,,,0.00000000000,0.00000000000,,,,,,,,,,,,,,,,,,,,,,,,,,
St. Mark's Episcopal Church,1020 N Brand Blvd∩┐╜,,,CA,,,0.00000000000,0.00000000000,,,,,,,,,,,,,,,,,,,,,,,,,,
St. George's Episcopal Church,4679 West El Segundo Boulevard,,,CA,,,0.00000000000,0.00000000000,,,,,,,,,,,,,,,,,,,,,,,,,,
St. Cross Episcopal Church,1818 Monterey Boulevard,,,CA,,,0.00000000000,0.00000000000,,,,,,,,,,,,,,,,,,,,,,,,,,
St. Clement's Episcopal Church,6909 Rugby Avenue,,,CA,,,0.00000000000,0.00000000000,,,,,,,,,,,,,,,,,,,,,,,,,,
St. Luke's of the Mountains Episcopal Church,2563 Foothill Blvd.,,,CA,,,0.00000000000,0.00000000000,,,,,,,,,,,,,,,,,,,,,,,,,,
St. John's Episcopal Church,4745 Wheeler Avenue,,,CA,,,0.00000000000,0.00000000000,,,,,,,,,,,,,,,,,,,,,,,,,,
St. Luke's Episcopal Church,525 East Seventh Street,,,CA,,,0.00000000000,0.00000000000,,,,,,,,,,,,,,,,,,,,,,,,,,
St. Thomas' Episcopal Church,5306 Arbor Road,,,CA,,,0.00000000000,0.00000000000,,,,,,,,,,,,,,,,,,,,,,,,,,
St. Philip the Evangelist Episcopal Church,2800 Stanford Ave∩┐╜,,,CA,,,0.00000000000,0.00000000000,,,,,,,,,,,,,,,,,,,,,,,,,,
Episcopal Church of the Epiphany,2808 Altura St∩┐╜,,,CA,,,0.00000000000,0.00000000000,,,,,,,,,,,,,,,,,,,,,,,,,,
Christ the Good Shephard Episcopal Church,3303 W Vernon Ave,,,CA,,,0.00000000000,0.00000000000,,,,,,,,,,,,,,,,,,,,,,,,,,
St. James in the City Episcopal Church,3903 Wilshire Blvd.,,,CA,,,0.00000000000,0.00000000000,,,,,,,,,,,,,,,,,,,,,,,,,,
St. John's Episcopal Cathedral,514 W Adams Blvd∩┐╜,,,CA,,,0.00000000000,0.00000000000,,,,,,,,,,,,,,,,,,,,,,,,,,
All Saints Episcopal Church,5619 Monte Vista Street,,,CA,,,0.00000000000,0.00000000000,,,,,,,,,,,,,,,,,,,,,,,,,,
St. Stephen's Episcopal Church,6128 Yucca Street,,,CA,,,0.00000000000,0.00000000000,,,,,,,,,,,,,,,,,,,,,,,,,,
Episcopal Cathedral Center of St. Paul/St. Athanasius,840 Echo Park Avenue,,,CA,,,0.00000000000,0.00000000000,,,,,,,,,,,,,,,,,,,,,,,,,,
St. Mary's Episcopal Church,961 S. Mariposa,,,CA,,,0.00000000000,0.00000000000,,,,,,,,,,,,,,,,,,,,,,,,,,
St. Aidan's Episcopal Church,28211 E Pacific Coast Hwy,,,CA,,,0.00000000000,0.00000000000,,,,,,,,,,,,,,,,,,,,,,,,,,
St. Luke the Physician Episcopal Church,122 South California Avenue,,,CA,,,0.00000000000,0.00000000000,,,,,,,,,,,,,,,,,,,,,,,,,,
St. Paul's Episcopal Church,242 East Alvarado Street,,,CA,,,0.00000000000,0.00000000000,,,,,,,,,,,,,,,,,,,,,,,,,,
Christ Episcopal Church,408 South Broadway,,,CA,,,0.00000000000,0.00000000000,,,,,,,,,,,,,,,,,,,,,,,,,,
St. Simon's Episcopal Church,623 N Hagar St∩┐╜,,,CA,,,0.00000000000,0.00000000000,,,,,,,,,,,,,,,,,,,,,,,,,,
St. Peter's Episcopal Church,1648 West Ninth Street,,,CA,,,0.00000000000,0.00000000000,,,,,,,,,,,,,,,,,,,,,,,,,,
St. Stephens Episcopal Church,24901 Orchard Village Road,,,CA,,,0.00000000000,0.00000000000,,,,,,,,,,,,,,,,,,,,,,,,,,
Episcopal Church of the Ascension,25 East Laurel Avenue,,,CA,,,0.00000000000,0.00000000000,,,,,,,,,,,,,,,,,,,,,,,,,,
St. Mark's Episcopal Church,14646 Sherman Way,,,CA,,,0.00000000000,0.00000000000,,,,,,,,,,,,,,,,,,,,,,,,,,
Episcopal Church of the Holy Nativity,6700 W 83rd St,,,CA,,,0.00000000000,0.00000000000,,,,,,,,,,,,,,,,,,,,,,,,,,
Prince of Peace Episcopal Church,5700 Rudnick Ave∩┐╜,,,CA,,,0.00000000000,0.00000000000,,,,,,,,,,,,,,,,,,,,,,,,,,
FOSTER Elementary school,"1620 N. Pannes Street, Compton 90221",,,CA,,,0.00000000000,0.00000000000,,,,,,,,,,,,,,,,,,,,,,,,,,
93RD ST Elementary School,"330 E 93rd St. Los Angeles, CA 90003",,,CA,,,0.00000000000,0.00000000000,,,,,,,,,,,,,,,,,,,,,,,,,,
Samuel GOMPERS Middle School,"234 East 112th Street, Los Angeles, CA 90061",,,CA,,,0.00000000000,0.00000000000,,,,,,,,,,,,,,,,,,,,,,,,,,
VENICE BOYS AND GIRLS Club,"2232 Lincoln Blvd, Venice, CA, 90291",,,CA,,,0.00000000000,0.00000000000,,,,,,,,,,,,,,,,,,,,,,,,,,
HILLCREST Elementary,"4041 Hillcrest Dr, Los Angeles, CA",,,CA,,,0.00000000000,0.00000000000,,,,,,,,,,,,,,,,,,,,,,,,,,
SIXTH AVE ES,"3109 6th Avenue, Los Angeles, CA 90018",,,CA,,,0.00000000000,0.00000000000,,,,,,,,,,,,,,,,,,,,,,,,,,
LULL Special Education Center Elementary School,"17551 Miranda Street, Encino, CA 91316",,,CA,,,0.00000000000,0.00000000000,,,,,,,,,,,,,,,,,,,,,,,,,,
MENDEZ High School,"200 Plaza Del Sol E, Los Angeles, CA",,,CA,,,0.00000000000,0.00000000000,,,,,,,,,,,,,,,,,,,,,,,,,,
YORK Elementary School,"11838 S. York Ave, Hawthorne, CA 90250",,,CA,,,0.00000000000,0.00000000000,,,,,,,,,,,,,,,,,,,,,,,,,,
EUCALYPTUS Elementary,"12044 Eucalyptus Avenue, Hawthorne, CA 90250",,,CA,,,0.00000000000,0.00000000000,,,,,,,,,,,,,,,,,,,,,,,,,,
WASHINGTON Elementary School,"4339 West 129th Street, Hawthorne, CA 90250",,,CA,,,0.00000000000,0.00000000000,,,,,,,,,,,,,,,,,,,,,,,,,,
BUD CARSON Middle School,"13838 Yukon Ave, Hawthorne, CA 90250",,,CA,,,0.00000000000,0.00000000000,,,,,,,,,,,,,,,,,,,,,,,,,,
COMPTON ELEMENTARY,"1515 E 104th St, Los Angeles, CA 90002",,,CA,,,0.00000000000,0.00000000000,,,,,,,,,,,,,,,,,,,,,,,,,,
109TH ST Elementary School,"10915 McKinley Ave, Los Angeles, CA 90059",,,CA,,,0.00000000000,0.00000000000,,,,,,,,,,,,,,,,,,,,,,,,,,
112TH ST Elementary School,"1265 E 112th St, Los Angeles, CA 90059",,,CA,,,0.00000000000,0.00000000000,,,,,,,,,,,,,,,,,,,,,,,,,,
CARVER Elementary School,"5335 E. Pavo Street Long Beach, CA 90808",,,CA,,,0.00000000000,0.00000000000,,,,,,,,,,,,,,,,,,,,,,,,,,
WATTS Learning Center Elementary School,"310 W. 95th street Los Angeles, CA 90003",,,CA,,,0.00000000000,0.00000000000,,,,,,,,,,,,,,,,,,,,,,,,,,
TINCHER Elementary School,"1701 Petaluma Ave Long Beach, CA 90815",,,CA,,,0.00000000000,0.00000000000,,,,,,,,,,,,,,,,,,,,,,,,,,
MANN Elementary School,257 Coronado Ave Long Beach CA 90808,,,CA,,,0.00000000000,0.00000000000,,,,,,,,,,,,,,,,,,,,,,,,,,
PETER BURNETT Elementary School,"5403 W. 138th Street Hawthorne, CA 90250",,,CA,,,0.00000000000,0.00000000000,,,,,,,,,,,,,,,,,,,,,,,,,,
BARRY J. NIDORF JUVENILE HALL,"16350 Filbert St. Sylmar, CA 91342",,,CA,,,0.00000000000,0.00000000000,,,,,,,,,,,,,,,,,,,,,,,,,,
WHALEY Middle School,"14401 south gibson street, compton, CA 90221",,,CA,,,0.00000000000,0.00000000000,,,,,,,,,,,,,,,,,,,,,,,,,,
ANDERSON Elementary School,"2210 E 130th Street, compton, CA 90222",,,CA,,,0.00000000000,0.00000000000,,,,,,,,,,,,,,,,,,,,,,,,,,
NEW HEIGHTS CHARTER K-2 School,"2202 w. martin luther king jr. blvd, Los Angeles, CA 90008",,,CA,,,0.00000000000,0.00000000000,,,,,,,,,,,,,,,,,,,,,,,,,,
Aliance College Ready Middle Academy # 5,"211 S. Avenue 20 Los Angeles, CA 90031",,,CA,,,0.00000000000,0.00000000000,,,,,,,,,,,,,,,,,,,,,,,,,,
WILLOWBROOK Middle School,"2601 north wilmington, compton, CA 90221",,,CA,,,0.00000000000,0.00000000000,,,,,,,,,,,,,,,,,,,,,,,,,,
CAMINO NUEVO High School,"1215 W. Miramar St. Los Angeles, CA 90026",,,CA,,,0.00000000000,0.00000000000,,,,,,,,,,,,,,,,,,,,,,,,,,
DENKER Elementary School,"1620 W. 162nd street Gardena, CA 90247",,,CA,,,0.00000000000,0.00000000000,,,,,,,,,,,,,,,,,,,,,,,,,,
FRIES Elementary School,"1301 Fries Ave Wilmington, CA 90744",,,CA,,,0.00000000000,0.00000000000,,,,,,,,,,,,,,,,,,,,,,,,,,
DOMINGUEZ High School,"15301 S San Jose Ave., Compton CA 90221",,,CA,,,0.00000000000,0.00000000000,,,,,,,,,,,,,,,,,,,,,,,,,,
VICTORIA AVENUE Elementary School,"3320 Missouri Ave., South Gate, CA 90280",,,CA,,,0.00000000000,0.00000000000,,,,,,,,,,,,,,,,,,,,,,,,,,
WHITE Middle school,"22102 Figueroa Street, Carson, CA 90745",,,CA,,,0.00000000000,0.00000000000,,,,,,,,,,,,,,,,,,,,,,,,,,
PLUMMER Elementary School,"9340 Noble Ave, North Hills, CA 91343",,,CA,,,0.00000000000,0.00000000000,,,,,,,,,,,,,,,,,,,,,,,,,,
NORTHRIDGE∩┐╜middle School,"17960 Chase Street, Northridge, CA 91325",,,CA,,,0.00000000000,0.00000000000,,,,,,,,,,,,,,,,,,,,,,,,,,
135th ST. Elementary School,"801 W 135th Street, Gardena CA 90247",,,CA,,,0.00000000000,0.00000000000,,,,,,,,,,,,,,,,,,,,,,,,,,
WOODCREST∩┐╜Elementary School,"1151 W 109th Street, Los Angeles CA 90044",,,CA,,,0.00000000000,0.00000000000,,,,,,,,,,,,,,,,,,,,,,,,,,
GRAHAM Elementary School,"8407 South Fir Avenue Los Angeles, CA 90001",,,CA,,,0.00000000000,0.00000000000,,,,,,,,,,,,,,,,,,,,,,,,,,
WINNETKA Elementary School,"8240 Winnetka Avenue, Winnetka, CA 91306",,,CA,,,0.00000000000,0.00000000000,,,,,,,,,,,,,,,,,,,,,,,,,,
ROCKDALE Elementary School,"1303 yosemite dr, los angeles, ca 90041",,,CA,,,0.00000000000,0.00000000000,,,,,,,,,,,,,,,,,,,,,,,,,,
BONITA Elementary School,"21929 Bonita Avenue, Carson, CA 90745",,,CA,,,0.00000000000,0.00000000000,,,,,,,,,,,,,,,,,,,,,,,,,,
KENNEDY Elementary School,"4010 East Ramboz Dr Los Angeles, CA 90063",,,CA,,,0.00000000000,0.00000000000,,,,,,,,,,,,,,,,,,,,,,,,,,
54TH STREET∩┐╜Elementary School,"5501 Eileen Avenue, Los Angeles, CA 90043",,,CA,,,0.00000000000,0.00000000000,,,,,,,,,,,,,,,,,,,,,,,,,,
ELIZABETH Learning Center k-12,"4811 Elizabeth Street, Cudahy CA 90201",,,CA,,,0.00000000000,0.00000000000,,,,,,,,,,,,,,,,,,,,,,,,,,
CASTLEBAY LANE CHARTER Elementary School,"19010 Castlebay Lane Porter Ranch, CA 91326",,,CA,,,0.00000000000,0.00000000000,,,,,,,,,,,,,,,,,,,,,,,,,,
William JOHNSTON Community Day School High School,"2210 Taper Ave., San Pedro, CA 90731",,,CA,,,0.00000000000,0.00000000000,,,,,,,,,,,,,,,,,,,,,,,,,,
MAPLE PRIMARY CENTER k-2,"3601 Maple Ave Los Angeles, CA 90011",,,CA,,,0.00000000000,0.00000000000,,,,,,,,,,,,,,,,,,,,,,,,,,
MIDDLETON Elementary School,"6537 Malabar St., Huntington Park, CA 90255",,,CA,,,0.00000000000,0.00000000000,,,,,,,,,,,,,,,,,,,,,,,,,,
HAMLIN CHARTER∩┐╜Elementary School,"22627 Hamlin Street West Hills, CA 91307",,,CA,,,0.00000000000,0.00000000000,,,,,,,,,,,,,,,,,,,,,,,,,,
SERRANIA∩┐╜Elementary School,"8401 Serrania Ave Woodland Hills, CA 91364",,,CA,,,0.00000000000,0.00000000000,,,,,,,,,,,,,,,,,,,,,,,,,,
RESEDA High School,"18230 Kittridge St., Reseda CA 91335",,,CA,,,0.00000000000,0.00000000000,,,,,,,,,,,,,,,,,,,,,,,,,,
Community Magnet Elementary School,"11301 Bellagio Road, Los Angeles, CA 90049",,,CA,,,0.00000000000,0.00000000000,,,,,,,,,,,,,,,,,,,,,,,,,,
Van Deene Elementary School,"826 W Javelin St., Torrance, CA 90502",,,CA,,,0.00000000000,0.00000000000,,,,,,,,,,,,,,,,,,,,,,,,,,
Budlong Ave Elementary,"5940 S Budlong Ave, Los Angeles, CA 90044",,,CA,,,0.00000000000,0.00000000000,,,,,,,,,,,,,,,,,,,,,,,,,,
Fullbright Avenue Elementary School,"6940 Fullbright Ave, Los Angeles, CA 91306",,,CA,,,0.00000000000,0.00000000000,,,,,,,,,,,,,,,,,,,,,,,,,,
Hollywood High School,"1521 Highland Ave, Los Angeles, CA 90028",,,CA,,,0.00000000000,0.00000000000,,,,,,,,,,,,,,,,,,,,,,,,,,
Harry Bridges Span School,"1235 Broad Ave, Wilmington, CA 90744",,,CA,,,0.00000000000,0.00000000000,,,,,,,,,,,,,,,,,,,,,,,,,,
Richland Ave Elementary School,"11562 Richland Ave, Los Angeles, CA 90064",,,CA,,,0.00000000000,0.00000000000,,,,,,,,,,,,,,,,,,,,,,,,,,
Para Los Ninos Gratts Primary Center,"474 Hartford Ave, Los Angeles, CA 90017",,,CA,,,0.00000000000,0.00000000000,,,,,,,,,,,,,,,,,,,,,,,,,,
Centennial High School,"2606 N Central Ave, Compton, CA 90222",,,CA,,,0.00000000000,0.00000000000,,,,,,,,,,,,,,,,,,,,,,,,,,
Arminta Elementary School,"11530 Strathern St, North Hollywood, CA 91605",,,CA,,,0.00000000000,0.00000000000,,,,,,,,,,,,,,,,,,,,,,,,,,
Trinity Street Elementary School,"3736 Trinity St, Los Angeles, CA 90011",,,CA,,,0.00000000000,0.00000000000,,,,,,,,,,,,,,,,,,,,,,,,,,
Monroe High School,"9229 Haskell Ave, North Hills, CA 91343",,,CA,,,0.00000000000,0.00000000000,,,,,,,,,,,,,,,,,,,,,,,,,,
"Uncommon Good, Site #1",379 S College Ave,,,CA,,,0.00000000000,0.00000000000,,,,,,,,,,,,,,,,,,,,,,,,,,
"Uncommon Good, Site #2",1111 N. Mountain Ave,,,CA,,,0.00000000000,0.00000000000,,,,,,,,,,,,,,,,,,,,,,,,,,
"Uncommon Good, Site #4",9633 Mills Ave.,,,CA,,,0.00000000000,0.00000000000,,,,,,,,,,,,,,,,,,,,,,,,,,
"Uncommon Good, Site #6",1552 Queens Court,,,CA,,,0.00000000000,0.00000000000,,,,,,,,,,,,,,,,,,,,,,,,,,
"Uncommon Good, Site #8",1570 S. Linden Street,,,CA,,,0.00000000000,0.00000000000,,,,,,,,,,,,,,,,,,,,,,,,,,
"Uncommon Good, Site #9",3227 Merrifield Ave.,,,CA,,,0.00000000000,0.00000000000,,,,,,,,,,,,,,,,,,,,,,,,,,
"Uncommon Good, Site #10",509 Richbrook Dr.,,,CA,,,0.00000000000,0.00000000000,,,,,,,,,,,,,,,,,,,,,,,,,,
"Uncommon Good, Site #11",3033 N. Towne Ave,,,CA,,,0.00000000000,0.00000000000,,,,,,,,,,,,,,,,,,,,,,,,,,
"Uncommon Good, Site #12",627 Sycamore Ave.,,,CA,,,0.00000000000,0.00000000000,,,,,,,,,,,,,,,,,,,,,,,,,,
"Uncommon Good, Site #13",1221 N. Harvard Ave.,,,CA,,,0.00000000000,0.00000000000,,,,,,,,,,,,,,,,,,,,,,,,,,
"Uncommon Good, Site #14",615 W. San Jose Ave.,,,CA,,,0.00000000000,0.00000000000,,,,,,,,,,,,,,,,,,,,,,,,,,
"Uncommon Good, Site #15","1601 N. Indian Hill Blvd.,",,,CA,,,0.00000000000,0.00000000000,,,,,,,,,,,,,,,,,,,,,,,,,,
"Uncommon Good, Site #16",333 North College Way,,,CA,,,0.00000000000,0.00000000000,,,,,,,,,,,,,,,,,,,,,,,,,,
John R. Wooden High School,18741 Elkwood Street,,,CA,,,0.00000000000,0.00000000000,,,,,,,,,,,,,,,,,,,,,,,,,,
GrowGood Farm,5600 MANSFIELD WAY,,,CA,,,0.00000000000,0.00000000000,,,,,,,,,,,,,,,,,,,,,,,,,,
